<?xml version='1.0' encoding='UTF-8'?>
<osm version='0.6' upload='false' generator='JOSM'>
  <node id='-25666' lat='37.63004296808' lon='127.08072830845'>
    <tag k='x' v='330641.93554471934' />
    <tag k='y' v='4166501.062196214' />
  </node>
  <node id='-25667' lat='37.63004383642' lon='127.08072275008'>
    <tag k='x' v='330641.44699419267' />
    <tag k='y' v='4166501.1685841028' />
  </node>
  <node id='-25668' lat='37.63004470476' lon='127.08071719171'>
    <tag k='x' v='330640.95844366594' />
    <tag k='y' v='4166501.274971992' />
  </node>
  <node id='-25669' lat='37.6300455731' lon='127.08071163334'>
    <tag k='x' v='330640.46989313926' />
    <tag k='y' v='4166501.3813598803' />
  </node>
  <node id='-25670' lat='37.63004644144' lon='127.08070607498'>
    <tag k='x' v='330639.9813426126' />
    <tag k='y' v='4166501.4877477693' />
  </node>
  <node id='-25671' lat='37.63004730977' lon='127.08070051661'>
    <tag k='x' v='330639.49279208586' />
    <tag k='y' v='4166501.594135658' />
  </node>
  <node id='-25672' lat='37.63004817811' lon='127.08069495824'>
    <tag k='x' v='330639.0042415592' />
    <tag k='y' v='4166501.7005235464' />
  </node>
  <node id='-25673' lat='37.63004904645' lon='127.08068939987'>
    <tag k='x' v='330638.5156910325' />
    <tag k='y' v='4166501.8069114354' />
  </node>
  <node id='-25674' lat='37.63004991478' lon='127.0806838415'>
    <tag k='x' v='330638.0271405058' />
    <tag k='y' v='4166501.913299324' />
  </node>
  <node id='-25675' lat='37.63005078312' lon='127.08067828313'>
    <tag k='x' v='330637.5385899791' />
    <tag k='y' v='4166502.019687213' />
  </node>
  <node id='-25676' lat='37.63005165146' lon='127.08067272477'>
    <tag k='x' v='330637.05003945244' />
    <tag k='y' v='4166502.1260751016' />
  </node>
  <node id='-25677' lat='37.63005251979' lon='127.0806671664'>
    <tag k='x' v='330636.5614889257' />
    <tag k='y' v='4166502.23246299' />
  </node>
  <node id='-25678' lat='37.63005338813' lon='127.08066160803'>
    <tag k='x' v='330636.07293839904' />
    <tag k='y' v='4166502.338850879' />
  </node>
  <node id='-25679' lat='37.63005425646' lon='127.08065604966'>
    <tag k='x' v='330635.58438787237' />
    <tag k='y' v='4166502.4452387677' />
  </node>
  <node id='-25680' lat='37.6300551248' lon='127.08065049129'>
    <tag k='x' v='330635.09583734564' />
    <tag k='y' v='4166502.5516266567' />
  </node>
  <node id='-25681' lat='37.63005599313' lon='127.08064493292'>
    <tag k='x' v='330634.60728681897' />
    <tag k='y' v='4166502.658014545' />
  </node>
  <node id='-25682' lat='37.63005686147' lon='127.08063937455'>
    <tag k='x' v='330634.1187362923' />
    <tag k='y' v='4166502.764402434' />
  </node>
  <node id='-25683' lat='37.6300577298' lon='127.08063381618'>
    <tag k='x' v='330633.63018576556' />
    <tag k='y' v='4166502.870790323' />
  </node>
  <node id='-25684' lat='37.63005859814' lon='127.08062825781'>
    <tag k='x' v='330633.1416352389' />
    <tag k='y' v='4166502.9771782113' />
  </node>
  <node id='-25685' lat='37.63005946647' lon='127.08062269944'>
    <tag k='x' v='330632.6530847122' />
    <tag k='y' v='4166503.0835661003' />
  </node>
  <node id='-25686' lat='37.6300603348' lon='127.08061714107'>
    <tag k='x' v='330632.1645341855' />
    <tag k='y' v='4166503.189953989' />
  </node>
  <node id='-25687' lat='37.63006120314' lon='127.0806115827'>
    <tag k='x' v='330631.6759836588' />
    <tag k='y' v='4166503.296341878' />
  </node>
  <node id='-25688' lat='37.63006207147' lon='127.08060602433'>
    <tag k='x' v='330631.18743313215' />
    <tag k='y' v='4166503.4027297664' />
  </node>
  <node id='-25689' lat='37.6300629398' lon='127.08060046596'>
    <tag k='x' v='330630.6988826054' />
    <tag k='y' v='4166503.509117655' />
  </node>
  <node id='-25690' lat='37.63006380813' lon='127.08059490759'>
    <tag k='x' v='330630.21033207874' />
    <tag k='y' v='4166503.615505544' />
  </node>
  <node id='-25691' lat='37.63006467647' lon='127.08058934922'>
    <tag k='x' v='330629.72178155207' />
    <tag k='y' v='4166503.7218934326' />
  </node>
  <node id='-25692' lat='37.6300655448' lon='127.08058379085'>
    <tag k='x' v='330629.23323102534' />
    <tag k='y' v='4166503.8282813216' />
  </node>
  <node id='-25693' lat='37.63006641313' lon='127.08057823248'>
    <tag k='x' v='330628.74468049867' />
    <tag k='y' v='4166503.93466921' />
  </node>
  <node id='-25694' lat='37.63006728146' lon='127.08057267411'>
    <tag k='x' v='330628.256129972' />
    <tag k='y' v='4166504.0410570987' />
  </node>
  <node id='-25695' lat='37.63006814979' lon='127.08056711574'>
    <tag k='x' v='330627.76757944527' />
    <tag k='y' v='4166504.1474449877' />
  </node>
  <node id='-25696' lat='37.63006901812' lon='127.08056155737'>
    <tag k='x' v='330627.2790289186' />
    <tag k='y' v='4166504.253832876' />
  </node>
  <node id='-25697' lat='37.63006988645' lon='127.080555999'>
    <tag k='x' v='330626.7904783919' />
    <tag k='y' v='4166504.360220765' />
  </node>
  <node id='-25698' lat='37.63007075478' lon='127.08055044063'>
    <tag k='x' v='330626.3019278652' />
    <tag k='y' v='4166504.466608654' />
  </node>
  <node id='-25699' lat='37.63007162311' lon='127.08054488226'>
    <tag k='x' v='330625.8133773385' />
    <tag k='y' v='4166504.5729965423' />
  </node>
  <node id='-25700' lat='37.63007249144' lon='127.08053932389'>
    <tag k='x' v='330625.32482681185' />
    <tag k='y' v='4166504.6793844313' />
  </node>
  <node id='-25701' lat='37.63007335977' lon='127.08053376551'>
    <tag k='x' v='330624.8362762852' />
    <tag k='y' v='4166504.78577232' />
  </node>
  <node id='-25702' lat='37.6300742281' lon='127.08052820714'>
    <tag k='x' v='330624.34772575845' />
    <tag k='y' v='4166504.892160209' />
  </node>
  <node id='-25703' lat='37.63007509643' lon='127.08052264877'>
    <tag k='x' v='330623.8591752318' />
    <tag k='y' v='4166504.9985480974' />
  </node>
  <node id='-25704' lat='37.63007596476' lon='127.0805170904'>
    <tag k='x' v='330623.3706247051' />
    <tag k='y' v='4166505.104935986' />
  </node>
  <node id='-25705' lat='37.63007683309' lon='127.08051153203'>
    <tag k='x' v='330622.8820741784' />
    <tag k='y' v='4166505.211323875' />
  </node>
  <node id='-25706' lat='37.63007770142' lon='127.08050597366'>
    <tag k='x' v='330622.3935236517' />
    <tag k='y' v='4166505.3177117635' />
  </node>
  <node id='-25707' lat='37.63007856975' lon='127.08050041528'>
    <tag k='x' v='330621.904973125' />
    <tag k='y' v='4166505.4240996526' />
  </node>
  <node id='-25708' lat='37.63007943807' lon='127.08049485691'>
    <tag k='x' v='330621.4164225983' />
    <tag k='y' v='4166505.530487541' />
  </node>
  <node id='-25709' lat='37.6300803064' lon='127.08048929854'>
    <tag k='x' v='330620.9278720716' />
    <tag k='y' v='4166505.6368754297' />
  </node>
  <node id='-25710' lat='37.63008117473' lon='127.08048374017'>
    <tag k='x' v='330620.43932154495' />
    <tag k='y' v='4166505.7432633187' />
  </node>
  <node id='-25711' lat='37.63008204305' lon='127.08047818179'>
    <tag k='x' v='330619.9507710182' />
    <tag k='y' v='4166505.849651207' />
  </node>
  <node id='-25712' lat='37.63008291138' lon='127.08047262342'>
    <tag k='x' v='330619.46222049155' />
    <tag k='y' v='4166505.956039096' />
  </node>
  <node id='-25713' lat='37.63008377971' lon='127.08046706505'>
    <tag k='x' v='330618.9736699649' />
    <tag k='y' v='4166506.062426985' />
  </node>
  <node id='-25714' lat='37.63008464803' lon='127.08046150667'>
    <tag k='x' v='330618.48511943815' />
    <tag k='y' v='4166506.168814874' />
  </node>
  <node id='-25715' lat='37.63008551636' lon='127.0804559483'>
    <tag k='x' v='330617.9965689115' />
    <tag k='y' v='4166506.2752027623' />
  </node>
  <node id='-25716' lat='37.63008638468' lon='127.08045038993'>
    <tag k='x' v='330617.5080183848' />
    <tag k='y' v='4166506.381590651' />
  </node>
  <node id='-25717' lat='37.63008725301' lon='127.08044483155'>
    <tag k='x' v='330617.0194678581' />
    <tag k='y' v='4166506.48797854' />
  </node>
  <node id='-25718' lat='37.63008812133' lon='127.08043927318'>
    <tag k='x' v='330616.5309173314' />
    <tag k='y' v='4166506.5943664284' />
  </node>
  <node id='-25719' lat='37.63008898966' lon='127.08043371481'>
    <tag k='x' v='330616.04236680473' />
    <tag k='y' v='4166506.7007543175' />
  </node>
  <node id='-25720' lat='37.63008985798' lon='127.08042815643'>
    <tag k='x' v='330615.553816278' />
    <tag k='y' v='4166506.807142206' />
  </node>
  <node id='-25721' lat='37.63009072631' lon='127.08042259806'>
    <tag k='x' v='330615.0652657513' />
    <tag k='y' v='4166506.9135300945' />
  </node>
  <node id='-25722' lat='37.63009159463' lon='127.08041703969'>
    <tag k='x' v='330614.57671522466' />
    <tag k='y' v='4166507.0199179836' />
  </node>
  <node id='-25723' lat='37.63009246295' lon='127.08041148131'>
    <tag k='x' v='330614.0881646979' />
    <tag k='y' v='4166507.126305872' />
  </node>
  <node id='-25724' lat='37.63009333128' lon='127.08040592294'>
    <tag k='x' v='330613.59961417125' />
    <tag k='y' v='4166507.232693761' />
  </node>
  <node id='-25725' lat='37.6300941996' lon='127.08040036456'>
    <tag k='x' v='330613.1110636446' />
    <tag k='y' v='4166507.3390816497' />
  </node>
  <node id='-25726' lat='37.63009247917' lon='127.08039696351'>
    <tag k='x' v='330612.8070171477' />
    <tag k='y' v='4166507.154322148' />
  </node>
  <node id='-25727' lat='37.6300880695' lon='127.08039580352'>
    <tag k='x' v='330612.6946355225' />
    <tag k='y' v='4166506.667115446' />
  </node>
  <node id='-25728' lat='37.63008365983' lon='127.08039464352'>
    <tag k='x' v='330612.5822538973' />
    <tag k='y' v='4166506.179908744' />
  </node>
  <node id='-25729' lat='37.63007925016' lon='127.08039348353'>
    <tag k='x' v='330612.4698722721' />
    <tag k='y' v='4166505.6927020424' />
  </node>
  <node id='-25730' lat='37.63007484049' lon='127.08039232353'>
    <tag k='x' v='330612.3574906469' />
    <tag k='y' v='4166505.2054953407' />
  </node>
  <node id='-25731' lat='37.63007043083' lon='127.08039116353'>
    <tag k='x' v='330612.24510902166' />
    <tag k='y' v='4166504.7182886386' />
  </node>
  <node id='-25732' lat='37.63006602116' lon='127.08039000354'>
    <tag k='x' v='330612.1327273965' />
    <tag k='y' v='4166504.231081937' />
  </node>
  <node id='-25733' lat='37.63006161149' lon='127.08038884354'>
    <tag k='x' v='330612.0203457713' />
    <tag k='y' v='4166503.743875235' />
  </node>
  <node id='-25734' lat='37.63005720182' lon='127.08038768355'>
    <tag k='x' v='330611.90796414606' />
    <tag k='y' v='4166503.256668533' />
  </node>
  <node id='-25735' lat='37.63005279216' lon='127.08038652355'>
    <tag k='x' v='330611.7955825209' />
    <tag k='y' v='4166502.7694618315' />
  </node>
  <node id='-25736' lat='37.63004838249' lon='127.08038536356'>
    <tag k='x' v='330611.68320089567' />
    <tag k='y' v='4166502.2822551294' />
  </node>
  <node id='-25737' lat='37.63004397282' lon='127.08038420356'>
    <tag k='x' v='330611.57081927045' />
    <tag k='y' v='4166501.795048428' />
  </node>
  <node id='-25738' lat='37.63003956315' lon='127.08038304357'>
    <tag k='x' v='330611.4584376453' />
    <tag k='y' v='4166501.3078417256' />
  </node>
  <node id='-25739' lat='37.63003515348' lon='127.08038188357'>
    <tag k='x' v='330611.34605602006' />
    <tag k='y' v='4166500.820635024' />
  </node>
  <node id='-25740' lat='37.63003074382' lon='127.08038072358'>
    <tag k='x' v='330611.2336743949' />
    <tag k='y' v='4166500.3334283223' />
  </node>
  <node id='-25741' lat='37.63002918976' lon='127.08038504347'>
    <tag k='x' v='330611.61137287377' />
    <tag k='y' v='4166500.1531873257' />
  </node>
  <node id='-25742' lat='37.63002827493' lon='127.08039059003'>
    <tag k='x' v='330612.09877601516' />
    <tag k='y' v='4166500.041660747' />
  </node>
  <node id='-25743' lat='37.63002736011' lon='127.0803961366'>
    <tag k='x' v='330612.58617915655' />
    <tag k='y' v='4166499.930134168' />
  </node>
  <node id='-25744' lat='37.63002644528' lon='127.08040168316'>
    <tag k='x' v='330613.07358229795' />
    <tag k='y' v='4166499.818607589' />
  </node>
  <node id='-25745' lat='37.63002553046' lon='127.08040722973'>
    <tag k='x' v='330613.56098543934' />
    <tag k='y' v='4166499.7070810106' />
  </node>
  <node id='-25746' lat='37.63002461563' lon='127.08041277629'>
    <tag k='x' v='330614.04838858073' />
    <tag k='y' v='4166499.595554432' />
  </node>
  <node id='-25747' lat='37.6300237008' lon='127.08041832285'>
    <tag k='x' v='330614.5357917221' />
    <tag k='y' v='4166499.4840278532' />
  </node>
  <node id='-25748' lat='37.63002278598' lon='127.08042386942'>
    <tag k='x' v='330615.0231948635' />
    <tag k='y' v='4166499.3725012746' />
  </node>
  <node id='-25749' lat='37.63002187115' lon='127.08042941598'>
    <tag k='x' v='330615.5105980049' />
    <tag k='y' v='4166499.260974696' />
  </node>
  <node id='-25750' lat='37.63002095632' lon='127.08043496255'>
    <tag k='x' v='330615.9980011463' />
    <tag k='y' v='4166499.1494481172' />
  </node>
  <node id='-25751' lat='37.63002004149' lon='127.08044050911'>
    <tag k='x' v='330616.4854042877' />
    <tag k='y' v='4166499.037921538' />
  </node>
  <node id='-25752' lat='37.63001912667' lon='127.08044605567'>
    <tag k='x' v='330616.9728074291' />
    <tag k='y' v='4166498.9263949594' />
  </node>
  <node id='-25753' lat='37.63001821184' lon='127.08045160224'>
    <tag k='x' v='330617.4602105705' />
    <tag k='y' v='4166498.814868381' />
  </node>
  <node id='-25754' lat='37.63001729701' lon='127.0804571488'>
    <tag k='x' v='330617.9476137119' />
    <tag k='y' v='4166498.703341802' />
  </node>
  <node id='-25755' lat='37.63001638218' lon='127.08046269536'>
    <tag k='x' v='330618.43501685327' />
    <tag k='y' v='4166498.5918152235' />
  </node>
  <node id='-25756' lat='37.63001546735' lon='127.08046824192'>
    <tag k='x' v='330618.92241999466' />
    <tag k='y' v='4166498.480288645' />
  </node>
  <node id='-25757' lat='37.63001455252' lon='127.08047378849'>
    <tag k='x' v='330619.40982313605' />
    <tag k='y' v='4166498.368762066' />
  </node>
  <node id='-25758' lat='37.63001363769' lon='127.08047933505'>
    <tag k='x' v='330619.89722627745' />
    <tag k='y' v='4166498.257235487' />
  </node>
  <node id='-25759' lat='37.63001272286' lon='127.08048488161'>
    <tag k='x' v='330620.3846294188' />
    <tag k='y' v='4166498.1457089083' />
  </node>
  <node id='-25760' lat='37.63001180803' lon='127.08049042817'>
    <tag k='x' v='330620.8720325602' />
    <tag k='y' v='4166498.0341823297' />
  </node>
  <node id='-25761' lat='37.6300108932' lon='127.08049597474'>
    <tag k='x' v='330621.35943570157' />
    <tag k='y' v='4166497.922655751' />
  </node>
  <node id='-25762' lat='37.63000997837' lon='127.0805015213'>
    <tag k='x' v='330621.84683884296' />
    <tag k='y' v='4166497.8111291723' />
  </node>
  <node id='-25763' lat='37.63000906354' lon='127.08050706786'>
    <tag k='x' v='330622.33424198435' />
    <tag k='y' v='4166497.6996025937' />
  </node>
  <node id='-25764' lat='37.63000814871' lon='127.08051261442'>
    <tag k='x' v='330622.82164512575' />
    <tag k='y' v='4166497.588076015' />
  </node>
  <node id='-25765' lat='37.63000723388' lon='127.08051816098'>
    <tag k='x' v='330623.30904826714' />
    <tag k='y' v='4166497.4765494363' />
  </node>
  <node id='-25766' lat='37.63000631905' lon='127.08052370754'>
    <tag k='x' v='330623.79645140853' />
    <tag k='y' v='4166497.365022857' />
  </node>
  <node id='-25767' lat='37.63000540421' lon='127.08052925411'>
    <tag k='x' v='330624.2838545499' />
    <tag k='y' v='4166497.2534962785' />
  </node>
  <node id='-25768' lat='37.63000448938' lon='127.08053480067'>
    <tag k='x' v='330624.7712576913' />
    <tag k='y' v='4166497.1419697' />
  </node>
  <node id='-25769' lat='37.63000357455' lon='127.08054034723'>
    <tag k='x' v='330625.2586608327' />
    <tag k='y' v='4166497.030443121' />
  </node>
  <node id='-25770' lat='37.63000265972' lon='127.08054589379'>
    <tag k='x' v='330625.7460639741' />
    <tag k='y' v='4166496.9189165425' />
  </node>
  <node id='-25771' lat='37.63000174488' lon='127.08055144035'>
    <tag k='x' v='330626.2334671155' />
    <tag k='y' v='4166496.807389964' />
  </node>
  <node id='-25772' lat='37.63000083005' lon='127.08055698691'>
    <tag k='x' v='330626.7208702569' />
    <tag k='y' v='4166496.695863385' />
  </node>
  <node id='-25773' lat='37.62999991522' lon='127.08056253347'>
    <tag k='x' v='330627.2082733983' />
    <tag k='y' v='4166496.5843368066' />
  </node>
  <node id='-25774' lat='37.62999900038' lon='127.08056808003'>
    <tag k='x' v='330627.6956765397' />
    <tag k='y' v='4166496.4728102274' />
  </node>
  <node id='-25775' lat='37.62999808555' lon='127.08057362659'>
    <tag k='x' v='330628.18307968107' />
    <tag k='y' v='4166496.3612836488' />
  </node>
  <node id='-25776' lat='37.62999717071' lon='127.08057917315'>
    <tag k='x' v='330628.67048282246' />
    <tag k='y' v='4166496.24975707' />
  </node>
  <node id='-25777' lat='37.62999625588' lon='127.08058471971'>
    <tag k='x' v='330629.15788596385' />
    <tag k='y' v='4166496.1382304914' />
  </node>
  <node id='-25778' lat='37.62999534104' lon='127.08059026627'>
    <tag k='x' v='330629.64528910525' />
    <tag k='y' v='4166496.0267039128' />
  </node>
  <node id='-25779' lat='37.62999442621' lon='127.08059581283'>
    <tag k='x' v='330630.13269224664' />
    <tag k='y' v='4166495.915177334' />
  </node>
  <node id='-25780' lat='37.62999351137' lon='127.08060135939'>
    <tag k='x' v='330630.62009538803' />
    <tag k='y' v='4166495.8036507554' />
  </node>
  <node id='-25781' lat='37.62999259654' lon='127.08060690595'>
    <tag k='x' v='330631.1074985294' />
    <tag k='y' v='4166495.6921241763' />
  </node>
  <node id='-25782' lat='37.6299916817' lon='127.08061245251'>
    <tag k='x' v='330631.5949016708' />
    <tag k='y' v='4166495.5805975976' />
  </node>
  <node id='-25783' lat='37.62999076687' lon='127.08061799907'>
    <tag k='x' v='330632.0823048122' />
    <tag k='y' v='4166495.469071019' />
  </node>
  <node id='-25784' lat='37.62998985203' lon='127.08062354563'>
    <tag k='x' v='330632.5697079536' />
    <tag k='y' v='4166495.3575444403' />
  </node>
  <node id='-25785' lat='37.62998893719' lon='127.08062909219'>
    <tag k='x' v='330633.057111095' />
    <tag k='y' v='4166495.2460178616' />
  </node>
  <node id='-25786' lat='37.62998802236' lon='127.08063463875'>
    <tag k='x' v='330633.5445142364' />
    <tag k='y' v='4166495.134491283' />
  </node>
  <node id='-25787' lat='37.62998710752' lon='127.08064018531'>
    <tag k='x' v='330634.0319173778' />
    <tag k='y' v='4166495.0229647043' />
  </node>
  <node id='-25788' lat='37.62998619268' lon='127.08064573187'>
    <tag k='x' v='330634.5193205192' />
    <tag k='y' v='4166494.9114381257' />
  </node>
  <node id='-25789' lat='37.62998527784' lon='127.08065127842'>
    <tag k='x' v='330635.00672366057' />
    <tag k='y' v='4166494.7999115465' />
  </node>
  <node id='-25790' lat='37.62998436301' lon='127.08065682498'>
    <tag k='x' v='330635.49412680196' />
    <tag k='y' v='4166494.688384968' />
  </node>
  <node id='-25791' lat='37.62998344817' lon='127.08066237154'>
    <tag k='x' v='330635.9815299433' />
    <tag k='y' v='4166494.576858389' />
  </node>
  <node id='-25792' lat='37.62998253333' lon='127.0806679181'>
    <tag k='x' v='330636.4689330847' />
    <tag k='y' v='4166494.4653318105' />
  </node>
  <node id='-25793' lat='37.62998161849' lon='127.08067346466'>
    <tag k='x' v='330636.9563362261' />
    <tag k='y' v='4166494.353805232' />
  </node>
  <node id='-25794' lat='37.62998070365' lon='127.08067901121'>
    <tag k='x' v='330637.4437393675' />
    <tag k='y' v='4166494.242278653' />
  </node>
  <node id='-25795' lat='37.62997978881' lon='127.08068455777'>
    <tag k='x' v='330637.93114250887' />
    <tag k='y' v='4166494.1307520745' />
  </node>
  <node id='-25796' lat='37.62997887397' lon='127.08069010433'>
    <tag k='x' v='330638.41854565026' />
    <tag k='y' v='4166494.019225496' />
  </node>
  <node id='-25797' lat='37.62997795913' lon='127.08069565089'>
    <tag k='x' v='330638.90594879165' />
    <tag k='y' v='4166493.9076989167' />
  </node>
  <node id='-25798' lat='37.62997704429' lon='127.08070119745'>
    <tag k='x' v='330639.39335193305' />
    <tag k='y' v='4166493.796172338' />
  </node>
  <node id='-25799' lat='37.62997612945' lon='127.080706744'>
    <tag k='x' v='330639.88075507444' />
    <tag k='y' v='4166493.6846457594' />
  </node>
  <node id='-25800' lat='37.62997726521' lon='127.08071061003'>
    <tag k='x' v='330640.224507959' />
    <tag k='y' v='4166493.8036899804' />
  </node>
  <node id='-25801' lat='37.62998167039' lon='127.08071179666'>
    <tag k='x' v='330640.3392279219' />
    <tag k='y' v='4166494.2903513927' />
  </node>
  <node id='-25802' lat='37.62998607557' lon='127.08071298328'>
    <tag k='x' v='330640.45394788485' />
    <tag k='y' v='4166494.777012805' />
  </node>
  <node id='-25803' lat='37.62999048076' lon='127.08071416991'>
    <tag k='x' v='330640.5686678478' />
    <tag k='y' v='4166495.2636742173' />
  </node>
  <node id='-25804' lat='37.62999488594' lon='127.08071535653'>
    <tag k='x' v='330640.6833878107' />
    <tag k='y' v='4166495.750335629' />
  </node>
  <node id='-25805' lat='37.62999929113' lon='127.08071654316'>
    <tag k='x' v='330640.79810777365' />
    <tag k='y' v='4166496.2369970414' />
  </node>
  <node id='-25806' lat='37.63000369631' lon='127.08071772979'>
    <tag k='x' v='330640.9128277366' />
    <tag k='y' v='4166496.7236584537' />
  </node>
  <node id='-25807' lat='37.63000810149' lon='127.08071891641'>
    <tag k='x' v='330641.0275476995' />
    <tag k='y' v='4166497.210319866' />
  </node>
  <node id='-25808' lat='37.63001250668' lon='127.08072010304'>
    <tag k='x' v='330641.14226766245' />
    <tag k='y' v='4166497.6969812782' />
  </node>
  <node id='-25809' lat='37.63001691186' lon='127.08072128967'>
    <tag k='x' v='330641.2569876254' />
    <tag k='y' v='4166498.18364269' />
  </node>
  <node id='-25810' lat='37.63002131705' lon='127.08072247629'>
    <tag k='x' v='330641.3717075883' />
    <tag k='y' v='4166498.6703041024' />
  </node>
  <node id='-25811' lat='37.63002572223' lon='127.08072366292'>
    <tag k='x' v='330641.48642755125' />
    <tag k='y' v='4166499.1569655146' />
  </node>
  <node id='-25812' lat='37.63003012741' lon='127.08072484955'>
    <tag k='x' v='330641.6011475142' />
    <tag k='y' v='4166499.643626927' />
  </node>
  <node id='-25813' lat='37.6300345326' lon='127.08072603617'>
    <tag k='x' v='330641.7158674771' />
    <tag k='y' v='4166500.1302883388' />
  </node>
  <node id='-25814' lat='37.63003893778' lon='127.0807272228'>
    <tag k='x' v='330641.83058744005' />
    <tag k='y' v='4166500.616949751' />
  </node>
  <way id='-717' action='modify'>
    <nd ref='-25723' />
    <nd ref='-25724' />
    <nd ref='-25725' />
    <nd ref='-25726' />
    <nd ref='-25727' />
  </way>
  <way id='-721' action='modify'>
    <nd ref='-25738' />
    <nd ref='-25739' />
    <nd ref='-25740' />
    <nd ref='-25741' />
    <nd ref='-25742' />
    <nd ref='-25743' />
  </way>
  <way id='-726' action='modify'>
    <nd ref='-25797' />
    <nd ref='-25798' />
    <nd ref='-25799' />
    <nd ref='-25800' />
    <nd ref='-25801' />
    <nd ref='-25802' />
  </way>
  <way id='-731' action='modify'>
    <nd ref='-25813' />
    <nd ref='-25814' />
    <nd ref='-25666' />
    <nd ref='-25667' />
    <nd ref='-25668' />
  </way>
</osm>
