<?xml version='1.0' encoding='UTF-8'?>
<osm version='0.6' generator='JOSM'>
  <node id='-25466' action='modify' visible='true' lat='37.63003078162' lon='127.08037613883' />
  <node id='1' action='modify' visible='true' version='1' lat='37.63005976276' lon='127.08073224794' />
  <node id='2' action='modify' visible='true' version='1' lat='37.63006255618' lon='127.08073280836' />
  <node id='3' action='modify' visible='true' version='1' lat='37.63006913338' lon='127.08072758527' />
  <node id='4' action='modify' visible='true' version='1' lat='37.63007000172' lon='127.0807220269' />
  <node id='5' action='modify' visible='true' version='1' lat='37.63007087006' lon='127.08071646854' />
  <node id='6' action='modify' visible='true' version='1' lat='37.63007173839' lon='127.08071091017' />
  <node id='7' action='modify' visible='true' version='1' lat='37.63007260673' lon='127.0807053518' />
  <node id='8' action='modify' visible='true' version='1' lat='37.63007347507' lon='127.08069979343' />
  <node id='9' action='modify' visible='true' version='1' lat='37.6300743434' lon='127.08069423506' />
  <node id='10' action='modify' visible='true' version='1' lat='37.63007521174' lon='127.08068867669' />
  <node id='11' action='modify' visible='true' version='1' lat='37.63007608008' lon='127.08068311833' />
  <node id='12' action='modify' visible='true' version='1' lat='37.63007694841' lon='127.08067755996' />
  <node id='13' action='modify' visible='true' version='1' lat='37.63007781674' lon='127.08067200159' />
  <node id='14' action='modify' visible='true' version='1' lat='37.63007868507' lon='127.08066644322' />
  <node id='15' action='modify' visible='true' version='1' lat='37.63007955341' lon='127.08066088485' />
  <node id='16' action='modify' visible='true' version='1' lat='37.63008042174' lon='127.08065532648' />
  <node id='17' action='modify' visible='true' version='1' lat='37.63008129008' lon='127.08064976811' />
  <node id='18' action='modify' visible='true' version='1' lat='37.63008215841' lon='127.08064420974' />
  <node id='19' action='modify' visible='true' version='1' lat='37.63008302675' lon='127.08063865137' />
  <node id='20' action='modify' visible='true' version='1' lat='37.63008389508' lon='127.080633093' />
  <node id='21' action='modify' visible='true' version='1' lat='37.63008476341' lon='127.08062753463' />
  <node id='22' action='modify' visible='true' version='1' lat='37.63008563175' lon='127.08062197626' />
  <node id='23' action='modify' visible='true' version='1' lat='37.63008650008' lon='127.08061641789' />
  <node id='24' action='modify' visible='true' version='1' lat='37.63008736841' lon='127.08061085952' />
  <node id='25' action='modify' visible='true' version='1' lat='37.63008823674' lon='127.08060530115' />
  <node id='26' action='modify' visible='true' version='1' lat='37.63008910508' lon='127.08059974278' />
  <node id='27' action='modify' visible='true' version='1' lat='37.63008997341' lon='127.08059418441' />
  <node id='28' action='modify' visible='true' version='1' lat='37.63009084174' lon='127.08058862604' />
  <node id='29' action='modify' visible='true' version='1' lat='37.63009171007' lon='127.08058306767' />
  <node id='30' action='modify' visible='true' version='1' lat='37.6300925784' lon='127.0805775093' />
  <node id='31' action='modify' visible='true' version='1' lat='37.63009344673' lon='127.08057195093' />
  <node id='32' action='modify' visible='true' version='1' lat='37.63009431506' lon='127.08056639256' />
  <node id='33' action='modify' visible='true' version='1' lat='37.63009518339' lon='127.08056083419' />
  <node id='34' action='modify' visible='true' version='1' lat='37.63009605172' lon='127.08055527582' />
  <node id='35' action='modify' visible='true' version='1' lat='37.63009692005' lon='127.08054971745' />
  <node id='36' action='modify' visible='true' version='1' lat='37.63009778838' lon='127.08054415907' />
  <node id='37' action='modify' visible='true' version='1' lat='37.63009865671' lon='127.0805386007' />
  <node id='38' action='modify' visible='true' version='1' lat='37.63009952504' lon='127.08053304233' />
  <node id='39' action='modify' visible='true' version='1' lat='37.63010039337' lon='127.08052748396' />
  <node id='40' action='modify' visible='true' version='1' lat='37.6301012617' lon='127.08052192559' />
  <node id='41' action='modify' visible='true' version='1' lat='37.63010213003' lon='127.08051636722' />
  <node id='42' action='modify' visible='true' version='1' lat='37.63010299836' lon='127.08051080884' />
  <node id='43' action='modify' visible='true' version='1' lat='37.63010386668' lon='127.08050525047' />
  <node id='44' action='modify' visible='true' version='1' lat='37.63010473501' lon='127.0804996921' />
  <node id='45' action='modify' visible='true' version='1' lat='37.63010560334' lon='127.08049413373' />
  <node id='46' action='modify' visible='true' version='1' lat='37.63010647166' lon='127.08048857535' />
  <node id='47' action='modify' visible='true' version='1' lat='37.63010733999' lon='127.08048301698' />
  <node id='48' action='modify' visible='true' version='1' lat='37.63010820831' lon='127.08047745861' />
  <node id='49' action='modify' visible='true' version='1' lat='37.63010907663' lon='127.08047190023' />
  <node id='50' action='modify' visible='true' version='1' lat='37.63010994496' lon='127.08046634186' />
  <node id='51' action='modify' visible='true' version='1' lat='37.63011081328' lon='127.08046078349' />
  <node id='52' action='modify' visible='true' version='1' lat='37.63011168161' lon='127.08045522511' />
  <node id='53' action='modify' visible='true' version='1' lat='37.63011254993' lon='127.08044966674' />
  <node id='54' action='modify' visible='true' version='1' lat='37.63011341826' lon='127.08044410837' />
  <node id='55' action='modify' visible='true' version='1' lat='37.63011428658' lon='127.08043854999' />
  <node id='56' action='modify' visible='true' version='1' lat='37.63011515491' lon='127.08043299162' />
  <node id='57' action='modify' visible='true' version='1' lat='37.63011602323' lon='127.08042743325' />
  <node id='58' action='modify' visible='true' version='1' lat='37.63011689155' lon='127.08042187487' />
  <node id='59' action='modify' visible='true' version='1' lat='37.63011596757' lon='127.08040910806' />
  <node id='60' action='modify' visible='true' version='1' lat='37.63011019768' lon='127.08040145421' />
  <node id='61' visible='true' version='1' lat='37.63009247917' lon='127.08039696351' />
  <node id='62' visible='true' version='1' lat='37.6300880695' lon='127.08039580352' />
  <node id='63' visible='true' version='1' lat='37.63008365983' lon='127.08039464352' />
  <node id='64' visible='true' version='1' lat='37.63007925016' lon='127.08039348353' />
  <node id='65' visible='true' version='1' lat='37.63007484049' lon='127.08039232353' />
  <node id='66' visible='true' version='1' lat='37.63007043083' lon='127.08039116353' />
  <node id='67' visible='true' version='1' lat='37.63006602116' lon='127.08039000354' />
  <node id='68' visible='true' version='1' lat='37.63006161149' lon='127.08038884354' />
  <node id='69' visible='true' version='1' lat='37.63005720182' lon='127.08038768355' />
  <node id='70' visible='true' version='1' lat='37.63005279216' lon='127.08038652355' />
  <node id='71' visible='true' version='1' lat='37.63004838249' lon='127.08038536356' />
  <node id='72' visible='true' version='1' lat='37.63004397282' lon='127.08038420356' />
  <node id='73' visible='true' version='1' lat='37.63003956315' lon='127.08038304357' />
  <node id='74' visible='true' version='1' lat='37.63003515348' lon='127.08038188357' />
  <node id='75' action='modify' visible='true' version='1' lat='37.63003107573' lon='127.08038223232' />
  <node id='76' visible='true' version='1' lat='37.63002918976' lon='127.08038504347' />
  <node id='77' visible='true' version='1' lat='37.63002827493' lon='127.08039059003' />
  <node id='78' visible='true' version='1' lat='37.63002736011' lon='127.0803961366' />
  <node id='79' visible='true' version='1' lat='37.63002644528' lon='127.08040168316' />
  <node id='80' visible='true' version='1' lat='37.63002553046' lon='127.08040722973' />
  <node id='81' visible='true' version='1' lat='37.63002461563' lon='127.08041277629' />
  <node id='82' visible='true' version='1' lat='37.6300237008' lon='127.08041832285' />
  <node id='83' visible='true' version='1' lat='37.63002278598' lon='127.08042386942' />
  <node id='84' visible='true' version='1' lat='37.63002187115' lon='127.08042941598' />
  <node id='85' visible='true' version='1' lat='37.63002095632' lon='127.08043496255' />
  <node id='86' visible='true' version='1' lat='37.63002004149' lon='127.08044050911' />
  <node id='87' visible='true' version='1' lat='37.63001912667' lon='127.08044605567' />
  <node id='88' visible='true' version='1' lat='37.63001821184' lon='127.08045160224' />
  <node id='89' visible='true' version='1' lat='37.63001729701' lon='127.0804571488' />
  <node id='90' visible='true' version='1' lat='37.63001638218' lon='127.08046269536' />
  <node id='91' visible='true' version='1' lat='37.63001546735' lon='127.08046824192' />
  <node id='92' visible='true' version='1' lat='37.63001455252' lon='127.08047378849' />
  <node id='93' visible='true' version='1' lat='37.63001363769' lon='127.08047933505' />
  <node id='94' visible='true' version='1' lat='37.63001272286' lon='127.08048488161' />
  <node id='95' visible='true' version='1' lat='37.63001180803' lon='127.08049042817' />
  <node id='96' visible='true' version='1' lat='37.6300108932' lon='127.08049597474' />
  <node id='97' visible='true' version='1' lat='37.63000997837' lon='127.0805015213' />
  <node id='98' visible='true' version='1' lat='37.63000906354' lon='127.08050706786' />
  <node id='99' visible='true' version='1' lat='37.63000814871' lon='127.08051261442' />
  <node id='100' visible='true' version='1' lat='37.63000723388' lon='127.08051816098' />
  <node id='101' visible='true' version='1' lat='37.63000631905' lon='127.08052370754' />
  <node id='102' visible='true' version='1' lat='37.63000540421' lon='127.08052925411' />
  <node id='103' visible='true' version='1' lat='37.63000448938' lon='127.08053480067' />
  <node id='104' visible='true' version='1' lat='37.63000357455' lon='127.08054034723' />
  <node id='105' visible='true' version='1' lat='37.63000265972' lon='127.08054589379' />
  <node id='106' visible='true' version='1' lat='37.63000174488' lon='127.08055144035' />
  <node id='107' visible='true' version='1' lat='37.63000083005' lon='127.08055698691' />
  <node id='108' visible='true' version='1' lat='37.62999991522' lon='127.08056253347' />
  <node id='109' visible='true' version='1' lat='37.62999900038' lon='127.08056808003' />
  <node id='110' visible='true' version='1' lat='37.62999808555' lon='127.08057362659' />
  <node id='111' visible='true' version='1' lat='37.62999717071' lon='127.08057917315' />
  <node id='112' visible='true' version='1' lat='37.62999625588' lon='127.08058471971' />
  <node id='113' visible='true' version='1' lat='37.62999534104' lon='127.08059026627' />
  <node id='114' visible='true' version='1' lat='37.62999442621' lon='127.08059581283' />
  <node id='115' visible='true' version='1' lat='37.62999351137' lon='127.08060135939' />
  <node id='116' visible='true' version='1' lat='37.62999259654' lon='127.08060690595' />
  <node id='117' visible='true' version='1' lat='37.6299916817' lon='127.08061245251' />
  <node id='118' visible='true' version='1' lat='37.62999076687' lon='127.08061799907' />
  <node id='119' visible='true' version='1' lat='37.62998985203' lon='127.08062354563' />
  <node id='120' visible='true' version='1' lat='37.62998893719' lon='127.08062909219' />
  <node id='121' visible='true' version='1' lat='37.62998802236' lon='127.08063463875' />
  <node id='122' visible='true' version='1' lat='37.62998710752' lon='127.08064018531' />
  <node id='123' visible='true' version='1' lat='37.62998619268' lon='127.08064573187' />
  <node id='124' visible='true' version='1' lat='37.62998527784' lon='127.08065127842' />
  <node id='125' visible='true' version='1' lat='37.62998436301' lon='127.08065682498' />
  <node id='126' visible='true' version='1' lat='37.62998344817' lon='127.08066237154' />
  <node id='127' visible='true' version='1' lat='37.62998253333' lon='127.0806679181' />
  <node id='128' visible='true' version='1' lat='37.62998161849' lon='127.08067346466' />
  <node id='129' visible='true' version='1' lat='37.62998070365' lon='127.08067901121' />
  <node id='130' visible='true' version='1' lat='37.62997978881' lon='127.08068455777' />
  <node id='131' visible='true' version='1' lat='37.62997887397' lon='127.08069010433' />
  <node id='132' visible='true' version='1' lat='37.62997795913' lon='127.08069565089' />
  <node id='133' visible='true' version='1' lat='37.62997704429' lon='127.08070119745' />
  <node id='134' visible='true' version='1' lat='37.62997612945' lon='127.080706744' />
  <node id='135' visible='true' version='1' lat='37.62997726521' lon='127.08071061003' />
  <node id='136' visible='true' version='1' lat='37.62998167039' lon='127.08071179666' />
  <node id='137' visible='true' version='1' lat='37.62998607557' lon='127.08071298328' />
  <node id='138' visible='true' version='1' lat='37.62999048076' lon='127.08071416991' />
  <node id='139' visible='true' version='1' lat='37.62999488594' lon='127.08071535653' />
  <node id='140' visible='true' version='1' lat='37.62999929113' lon='127.08071654316' />
  <node id='141' visible='true' version='1' lat='37.63000369631' lon='127.08071772979' />
  <node id='142' visible='true' version='1' lat='37.63000810149' lon='127.08071891641' />
  <node id='143' visible='true' version='1' lat='37.63001250668' lon='127.08072010304' />
  <node id='144' visible='true' version='1' lat='37.63001691186' lon='127.08072128967' />
  <node id='145' visible='true' version='1' lat='37.63002131705' lon='127.08072247629' />
  <node id='146' visible='true' version='1' lat='37.63002572223' lon='127.08072366292' />
  <node id='147' visible='true' version='1' lat='37.63003012741' lon='127.08072484955' />
  <node id='148' visible='true' version='1' lat='37.6300345326' lon='127.08072603617' />
  <node id='149' visible='true' version='1' lat='37.63003893778' lon='127.0807272228' />
  <node id='150' visible='true' version='1' lat='37.63004296808' lon='127.08072830845' />
  <node id='151' action='modify' visible='true' version='1' lat='37.63005432479' lon='127.08072643812' />
  <node id='152' action='modify' visible='true' version='1' lat='37.63006913338' lon='127.08072758527' />
  <node id='153' action='modify' visible='true' version='1' lat='37.63007000172' lon='127.0807220269' />
  <node id='154' action='modify' visible='true' version='1' lat='37.63007087006' lon='127.08071646854' />
  <node id='155' action='modify' visible='true' version='1' lat='37.63007173839' lon='127.08071091017' />
  <node id='156' action='modify' visible='true' version='1' lat='37.63007260673' lon='127.0807053518' />
  <node id='157' action='modify' visible='true' version='1' lat='37.63007347507' lon='127.08069979343' />
  <node id='158' action='modify' visible='true' version='1' lat='37.6300743434' lon='127.08069423506' />
  <node id='159' action='modify' visible='true' version='1' lat='37.63007521174' lon='127.08068867669' />
  <node id='160' action='modify' visible='true' version='1' lat='37.63007608008' lon='127.08068311833' />
  <node id='161' action='modify' visible='true' version='1' lat='37.63007694841' lon='127.08067755996' />
  <node id='162' action='modify' visible='true' version='1' lat='37.63007781674' lon='127.08067200159' />
  <node id='163' action='modify' visible='true' version='1' lat='37.63007868507' lon='127.08066644322' />
  <node id='164' action='modify' visible='true' version='1' lat='37.63007955341' lon='127.08066088485' />
  <node id='165' action='modify' visible='true' version='1' lat='37.63008042174' lon='127.08065532648' />
  <node id='166' action='modify' visible='true' version='1' lat='37.63008129008' lon='127.08064976811' />
  <node id='167' action='modify' visible='true' version='1' lat='37.63008215841' lon='127.08064420974' />
  <node id='168' action='modify' visible='true' version='1' lat='37.63008302675' lon='127.08063865137' />
  <node id='169' action='modify' visible='true' version='1' lat='37.63008389508' lon='127.080633093' />
  <node id='170' action='modify' visible='true' version='1' lat='37.63008476341' lon='127.08062753463' />
  <node id='171' action='modify' visible='true' version='1' lat='37.63008563175' lon='127.08062197626' />
  <node id='172' action='modify' visible='true' version='1' lat='37.63008650008' lon='127.08061641789' />
  <node id='173' action='modify' visible='true' version='1' lat='37.63008736841' lon='127.08061085952' />
  <node id='174' action='modify' visible='true' version='1' lat='37.63008823674' lon='127.08060530115' />
  <node id='175' action='modify' visible='true' version='1' lat='37.63008910508' lon='127.08059974278' />
  <node id='176' action='modify' visible='true' version='1' lat='37.63008997341' lon='127.08059418441' />
  <node id='177' action='modify' visible='true' version='1' lat='37.63009084174' lon='127.08058862604' />
  <node id='178' action='modify' visible='true' version='1' lat='37.63009171007' lon='127.08058306767' />
  <node id='179' action='modify' visible='true' version='1' lat='37.6300925784' lon='127.0805775093' />
  <node id='180' action='modify' visible='true' version='1' lat='37.63009344673' lon='127.08057195093' />
  <node id='181' action='modify' visible='true' version='1' lat='37.63009431506' lon='127.08056639256' />
  <node id='182' action='modify' visible='true' version='1' lat='37.63009518339' lon='127.08056083419' />
  <node id='183' action='modify' visible='true' version='1' lat='37.63009605172' lon='127.08055527582' />
  <node id='184' action='modify' visible='true' version='1' lat='37.63009692005' lon='127.08054971745' />
  <node id='185' action='modify' visible='true' version='1' lat='37.63009778838' lon='127.08054415907' />
  <node id='186' action='modify' visible='true' version='1' lat='37.63009865671' lon='127.0805386007' />
  <node id='187' action='modify' visible='true' version='1' lat='37.63009952504' lon='127.08053304233' />
  <node id='188' action='modify' visible='true' version='1' lat='37.63010039337' lon='127.08052748396' />
  <node id='189' action='modify' visible='true' version='1' lat='37.6301012617' lon='127.08052192559' />
  <node id='190' action='modify' visible='true' version='1' lat='37.63010213003' lon='127.08051636722' />
  <node id='191' action='modify' visible='true' version='1' lat='37.63010299836' lon='127.08051080884' />
  <node id='192' action='modify' visible='true' version='1' lat='37.63010386668' lon='127.08050525047' />
  <node id='193' action='modify' visible='true' version='1' lat='37.63010473501' lon='127.0804996921' />
  <node id='194' action='modify' visible='true' version='1' lat='37.63010560334' lon='127.08049413373' />
  <node id='195' action='modify' visible='true' version='1' lat='37.63010647166' lon='127.08048857535' />
  <node id='196' action='modify' visible='true' version='1' lat='37.63010733999' lon='127.08048301698' />
  <node id='197' action='modify' visible='true' version='1' lat='37.63010820831' lon='127.08047745861' />
  <node id='198' action='modify' visible='true' version='1' lat='37.63010907663' lon='127.08047190023' />
  <node id='199' action='modify' visible='true' version='1' lat='37.63010994496' lon='127.08046634186' />
  <node id='200' action='modify' visible='true' version='1' lat='37.63011081328' lon='127.08046078349' />
  <node id='201' action='modify' visible='true' version='1' lat='37.63011168161' lon='127.08045522511' />
  <node id='202' action='modify' visible='true' version='1' lat='37.63011254993' lon='127.08044966674' />
  <node id='203' action='modify' visible='true' version='1' lat='37.63011341826' lon='127.08044410837' />
  <node id='204' action='modify' visible='true' version='1' lat='37.63011428658' lon='127.08043854999' />
  <node id='205' action='modify' visible='true' version='1' lat='37.63011515491' lon='127.08043299162' />
  <node id='206' action='modify' visible='true' version='1' lat='37.63011602323' lon='127.08042743325' />
  <node id='207' action='modify' visible='true' version='1' lat='37.63011689155' lon='127.08042187487' />
  <node id='208' visible='true' version='1' lat='37.63009333128' lon='127.08040592294' />
  <node id='209' visible='true' version='1' lat='37.6300941996' lon='127.08040036456' />
  <node id='210' visible='true' version='1' lat='37.63009247917' lon='127.08039696351' />
  <node id='211' visible='true' version='1' lat='37.6300880695' lon='127.08039580352' />
  <node id='212' visible='true' version='1' lat='37.63008365983' lon='127.08039464352' />
  <node id='213' visible='true' version='1' lat='37.63007925016' lon='127.08039348353' />
  <node id='214' visible='true' version='1' lat='37.63007484049' lon='127.08039232353' />
  <node id='215' visible='true' version='1' lat='37.63007043083' lon='127.08039116353' />
  <node id='216' visible='true' version='1' lat='37.63006602116' lon='127.08039000354' />
  <node id='217' visible='true' version='1' lat='37.63006161149' lon='127.08038884354' />
  <node id='218' visible='true' version='1' lat='37.63005720182' lon='127.08038768355' />
  <node id='219' visible='true' version='1' lat='37.63005279216' lon='127.08038652355' />
  <node id='220' visible='true' version='1' lat='37.63004838249' lon='127.08038536356' />
  <node id='221' visible='true' version='1' lat='37.63004397282' lon='127.08038420356' />
  <node id='222' visible='true' version='1' lat='37.63003956315' lon='127.08038304357' />
  <node id='223' visible='true' version='1' lat='37.63003515348' lon='127.08038188357' />
  <node id='224' action='modify' visible='true' version='1' lat='37.63003154041' lon='127.08038332197' />
  <node id='225' visible='true' version='1' lat='37.63002918976' lon='127.08038504347' />
  <node id='226' visible='true' version='1' lat='37.63002827493' lon='127.08039059003' />
  <node id='227' visible='true' version='1' lat='37.63002736011' lon='127.0803961366' />
  <node id='228' visible='true' version='1' lat='37.63002644528' lon='127.08040168316' />
  <node id='229' visible='true' version='1' lat='37.63002553046' lon='127.08040722973' />
  <node id='230' visible='true' version='1' lat='37.63002461563' lon='127.08041277629' />
  <node id='231' visible='true' version='1' lat='37.6300237008' lon='127.08041832285' />
  <node id='232' visible='true' version='1' lat='37.63002278598' lon='127.08042386942' />
  <node id='233' visible='true' version='1' lat='37.63002187115' lon='127.08042941598' />
  <node id='234' visible='true' version='1' lat='37.63002095632' lon='127.08043496255' />
  <node id='235' visible='true' version='1' lat='37.63002004149' lon='127.08044050911' />
  <node id='236' visible='true' version='1' lat='37.63001912667' lon='127.08044605567' />
  <node id='237' visible='true' version='1' lat='37.63001821184' lon='127.08045160224' />
  <node id='238' visible='true' version='1' lat='37.63001729701' lon='127.0804571488' />
  <node id='239' visible='true' version='1' lat='37.63001638218' lon='127.08046269536' />
  <node id='240' visible='true' version='1' lat='37.63001546735' lon='127.08046824192' />
  <node id='241' visible='true' version='1' lat='37.63001455252' lon='127.08047378849' />
  <node id='242' visible='true' version='1' lat='37.63001363769' lon='127.08047933505' />
  <node id='243' visible='true' version='1' lat='37.63001272286' lon='127.08048488161' />
  <node id='244' visible='true' version='1' lat='37.63001180803' lon='127.08049042817' />
  <node id='245' visible='true' version='1' lat='37.6300108932' lon='127.08049597474' />
  <node id='246' visible='true' version='1' lat='37.63000997837' lon='127.0805015213' />
  <node id='247' visible='true' version='1' lat='37.63000906354' lon='127.08050706786' />
  <node id='248' visible='true' version='1' lat='37.63000814871' lon='127.08051261442' />
  <node id='249' visible='true' version='1' lat='37.63000723388' lon='127.08051816098' />
  <node id='250' visible='true' version='1' lat='37.63000631905' lon='127.08052370754' />
  <node id='251' visible='true' version='1' lat='37.63000540421' lon='127.08052925411' />
  <node id='252' visible='true' version='1' lat='37.63000448938' lon='127.08053480067' />
  <node id='253' visible='true' version='1' lat='37.63000357455' lon='127.08054034723' />
  <node id='254' visible='true' version='1' lat='37.63000265972' lon='127.08054589379' />
  <node id='255' visible='true' version='1' lat='37.63000174488' lon='127.08055144035' />
  <node id='256' visible='true' version='1' lat='37.63000083005' lon='127.08055698691' />
  <node id='257' visible='true' version='1' lat='37.62999991522' lon='127.08056253347' />
  <node id='258' visible='true' version='1' lat='37.62999900038' lon='127.08056808003' />
  <node id='259' visible='true' version='1' lat='37.62999808555' lon='127.08057362659' />
  <node id='260' visible='true' version='1' lat='37.62999717071' lon='127.08057917315' />
  <node id='261' visible='true' version='1' lat='37.62999625588' lon='127.08058471971' />
  <node id='262' visible='true' version='1' lat='37.62999534104' lon='127.08059026627' />
  <node id='263' visible='true' version='1' lat='37.62999442621' lon='127.08059581283' />
  <node id='264' visible='true' version='1' lat='37.62999351137' lon='127.08060135939' />
  <node id='265' visible='true' version='1' lat='37.62999259654' lon='127.08060690595' />
  <node id='266' visible='true' version='1' lat='37.6299916817' lon='127.08061245251' />
  <node id='267' visible='true' version='1' lat='37.62999076687' lon='127.08061799907' />
  <node id='268' visible='true' version='1' lat='37.62998985203' lon='127.08062354563' />
  <node id='269' visible='true' version='1' lat='37.62998893719' lon='127.08062909219' />
  <node id='270' visible='true' version='1' lat='37.62998802236' lon='127.08063463875' />
  <node id='271' visible='true' version='1' lat='37.62998710752' lon='127.08064018531' />
  <node id='272' visible='true' version='1' lat='37.62998619268' lon='127.08064573187' />
  <node id='273' visible='true' version='1' lat='37.62998527784' lon='127.08065127842' />
  <node id='274' visible='true' version='1' lat='37.62998436301' lon='127.08065682498' />
  <node id='275' visible='true' version='1' lat='37.62998344817' lon='127.08066237154' />
  <node id='276' visible='true' version='1' lat='37.62998253333' lon='127.0806679181' />
  <node id='277' visible='true' version='1' lat='37.62998161849' lon='127.08067346466' />
  <node id='278' visible='true' version='1' lat='37.62998070365' lon='127.08067901121' />
  <node id='279' visible='true' version='1' lat='37.62997978881' lon='127.08068455777' />
  <node id='280' visible='true' version='1' lat='37.62997887397' lon='127.08069010433' />
  <node id='281' visible='true' version='1' lat='37.62997795913' lon='127.08069565089' />
  <node id='282' visible='true' version='1' lat='37.62997704429' lon='127.08070119745' />
  <node id='283' visible='true' version='1' lat='37.62997612945' lon='127.080706744' />
  <node id='284' visible='true' version='1' lat='37.62997726521' lon='127.08071061003' />
  <node id='285' visible='true' version='1' lat='37.62998167039' lon='127.08071179666' />
  <node id='286' visible='true' version='1' lat='37.62998607557' lon='127.08071298328' />
  <node id='287' visible='true' version='1' lat='37.62999048076' lon='127.08071416991' />
  <node id='288' visible='true' version='1' lat='37.62999488594' lon='127.08071535653' />
  <node id='289' visible='true' version='1' lat='37.62999929113' lon='127.08071654316' />
  <node id='290' visible='true' version='1' lat='37.63000369631' lon='127.08071772979' />
  <node id='291' visible='true' version='1' lat='37.63000810149' lon='127.08071891641' />
  <node id='292' visible='true' version='1' lat='37.63001250668' lon='127.08072010304' />
  <node id='293' visible='true' version='1' lat='37.63001691186' lon='127.08072128967' />
  <node id='294' visible='true' version='1' lat='37.63002131705' lon='127.08072247629' />
  <node id='295' visible='true' version='1' lat='37.63002572223' lon='127.08072366292' />
  <node id='296' visible='true' version='1' lat='37.63003012741' lon='127.08072484955' />
  <node id='297' visible='true' version='1' lat='37.6300345326' lon='127.08072603617' />
  <node id='298' visible='true' version='1' lat='37.63003893778' lon='127.0807272228' />
  <node id='299' action='modify' visible='true' version='1' lat='37.63011244547' lon='127.08042099786' />
  <node id='300' action='modify' visible='true' version='1' lat='37.63012133763' lon='127.08042275188' />
  <node id='301' action='modify' visible='true' version='1' lat='37.63011099043' lon='127.0804115' />
  <node id='302' action='modify' visible='true' version='1' lat='37.63012253787' lon='127.08040847632' />
  <node id='303' action='modify' visible='true' version='1' lat='37.63010372606' lon='127.08040544393' />
  <node id='304' action='modify' visible='true' version='1' lat='37.63011414678' lon='127.08039603956' />
  <node id='305' visible='true' version='1' lat='37.63009133436' lon='127.08040245861' />
  <node id='306' visible='true' version='1' lat='37.63009362398' lon='127.08039146841' />
  <node id='307' visible='true' version='1' lat='37.63008692469' lon='127.08040129862' />
  <node id='308' visible='true' version='1' lat='37.63008921431' lon='127.08039030842' />
  <node id='309' visible='true' version='1' lat='37.63003841833' lon='127.08038853866' />
  <node id='310' visible='true' version='1' lat='37.63004070797' lon='127.08037754848' />
  <node id='311' action='modify' visible='true' version='1' lat='37.63003442356' lon='127.08038748344' />
  <node id='312' visible='true' version='1' lat='37.63003629829' lon='127.08037638848' />
  <node id='313' action='modify' visible='true' version='1' lat='37.63003351775' lon='127.08038761327' />
  <node id='314' visible='true' version='1' lat='37.63002650948' lon='127.08037880017' />
  <node id='315' action='modify' visible='true' version='1' lat='37.63003313191' lon='127.08038869227' />
  <node id='316' visible='true' version='1' lat='37.63002474974' lon='127.08038411879' />
  <node id='317' visible='true' version='1' lat='37.63003271495' lon='127.0803915147' />
  <node id='318' visible='true' version='1' lat='37.63002383491' lon='127.08038966536' />
  <node id='319' visible='true' version='1' lat='37.63003180013' lon='127.08039706127' />
  <node id='320' visible='true' version='1' lat='37.63002292009' lon='127.08039521193' />
  <node id='321' visible='true' version='1' lat='37.62998239915' lon='127.08069657558' />
  <node id='322' visible='true' version='1' lat='37.62997351911' lon='127.0806947262' />
  <node id='323' visible='true' version='1' lat='37.62998148431' lon='127.08070212214' />
  <node id='324' visible='true' version='1' lat='37.62997260427' lon='127.08070027276' />
  <node id='325' visible='true' version='1' lat='37.62998044699' lon='127.08070514242' />
  <node id='326' visible='true' version='1' lat='37.62997181191' lon='127.08070834558' />
  <node id='327' visible='true' version='1' lat='37.62997843566' lon='127.08070512356' />
  <node id='328' visible='true' version='1' lat='37.62997609476' lon='127.0807160965' />
  <node id='329' visible='true' version='1' lat='37.62998284083' lon='127.08070631019' />
  <node id='330' visible='true' version='1' lat='37.62998049995' lon='127.08071728313' />
  <node id='331' visible='true' version='1' lat='37.62998724601' lon='127.08070749681' />
  <node id='332' visible='true' version='1' lat='37.62998490513' lon='127.08071846975' />
  <node id='333' visible='true' version='1' lat='37.63003570305' lon='127.0807205497' />
  <node id='334' visible='true' version='1' lat='37.63003336215' lon='127.08073152264' />
  <node id='335' action='modify' visible='true' version='1' lat='37.63004442307' lon='127.08072282597' />
  <node id='336' visible='true' version='1' lat='37.63003776733' lon='127.08073270927' />
  <node id='337' action='modify' visible='true' version='1' lat='37.63005179843' lon='127.08072433012' />
  <node id='338' action='modify' visible='true' version='1' lat='37.63006241652' lon='127.08073907612' />
  <node id='339' action='modify' visible='true' version='1' lat='37.63005910583' lon='127.08072539346' />
  <node id='340' action='modify' visible='true' version='1' lat='37.63007025498' lon='127.08073435594' />
  <node id='341' action='modify' visible='true' version='1' lat='37.63006269584' lon='127.08072545096' />
  <node id='342' action='modify' visible='true' version='1' lat='37.63007357945' lon='127.08072846229' />
  <node id='343' action='modify' visible='true' version='1' lat='37.63006555564' lon='127.08072114988' />
  <node id='344' action='modify' visible='true' version='1' lat='37.63007444779' lon='127.08072290392' />
  <node id='345' action='modify' visible='true' version='1' lat='37.63006642398' lon='127.08071559153' />
  <node id='346' action='modify' visible='true' version='1' lat='37.63007531613' lon='127.08071734555' />
  <node id='347' action='modify' visible='true' version='1' lat='37.63006729231' lon='127.08071003315' />
  <node id='348' action='modify' visible='true' version='1' lat='37.63007618446' lon='127.08071178719' />
  <node id='349' action='modify' visible='true' version='1' lat='37.63006816065' lon='127.08070447478' />
  <node id='350' action='modify' visible='true' version='1' lat='37.6300770528' lon='127.08070622882' />
  <node id='351' action='modify' visible='true' version='1' lat='37.63006902899' lon='127.08069891642' />
  <node id='352' action='modify' visible='true' version='1' lat='37.63007792114' lon='127.08070067044' />
  <node id='353' action='modify' visible='true' version='1' lat='37.63006989732' lon='127.08069335804' />
  <node id='354' action='modify' visible='true' version='1' lat='37.63007878947' lon='127.08069511208' />
  <node id='355' action='modify' visible='true' version='1' lat='37.63007076566' lon='127.08068779967' />
  <node id='356' action='modify' visible='true' version='1' lat='37.63007965781' lon='127.08068955371' />
  <node id='357' action='modify' visible='true' version='1' lat='37.630071634' lon='127.08068224132' />
  <node id='358' action='modify' visible='true' version='1' lat='37.63008052615' lon='127.08068399534' />
  <node id='359' action='modify' visible='true' version='1' lat='37.63007250233' lon='127.08067668294' />
  <node id='360' action='modify' visible='true' version='1' lat='37.63008139448' lon='127.08067843698' />
  <node id='361' action='modify' visible='true' version='1' lat='37.63007337067' lon='127.08067112458' />
  <node id='362' action='modify' visible='true' version='1' lat='37.63008226282' lon='127.0806728786' />
  <node id='363' action='modify' visible='true' version='1' lat='37.630074239' lon='127.0806655662' />
  <node id='364' action='modify' visible='true' version='1' lat='37.63008313115' lon='127.08066732024' />
  <node id='365' action='modify' visible='true' version='1' lat='37.63007510734' lon='127.08066000784' />
  <node id='366' action='modify' visible='true' version='1' lat='37.63008399949' lon='127.08066176186' />
  <node id='367' action='modify' visible='true' version='1' lat='37.63007597567' lon='127.08065444946' />
  <node id='368' action='modify' visible='true' version='1' lat='37.63008486782' lon='127.0806562035' />
  <node id='369' action='modify' visible='true' version='1' lat='37.63007684401' lon='127.0806488911' />
  <node id='370' action='modify' visible='true' version='1' lat='37.63008573616' lon='127.08065064512' />
  <node id='371' action='modify' visible='true' version='1' lat='37.63007771234' lon='127.08064333272' />
  <node id='372' action='modify' visible='true' version='1' lat='37.63008660449' lon='127.08064508676' />
  <node id='373' action='modify' visible='true' version='1' lat='37.63007858068' lon='127.08063777436' />
  <node id='374' action='modify' visible='true' version='1' lat='37.63008747283' lon='127.08063952838' />
  <node id='375' action='modify' visible='true' version='1' lat='37.63007944901' lon='127.08063221599' />
  <node id='376' action='modify' visible='true' version='1' lat='37.63008834116' lon='127.08063397001' />
  <node id='377' action='modify' visible='true' version='1' lat='37.63008031734' lon='127.08062665761' />
  <node id='378' action='modify' visible='true' version='1' lat='37.63008920949' lon='127.08062841165' />
  <node id='379' action='modify' visible='true' version='1' lat='37.63008118567' lon='127.08062109925' />
  <node id='380' action='modify' visible='true' version='1' lat='37.63009007783' lon='127.08062285327' />
  <node id='381' action='modify' visible='true' version='1' lat='37.630082054' lon='127.08061554088' />
  <node id='382' action='modify' visible='true' version='1' lat='37.63009094616' lon='127.0806172949' />
  <node id='383' action='modify' visible='true' version='1' lat='37.63008292233' lon='127.08060998251' />
  <node id='384' action='modify' visible='true' version='1' lat='37.63009181449' lon='127.08061173653' />
  <node id='385' action='modify' visible='true' version='1' lat='37.63008379067' lon='127.08060442413' />
  <node id='386' action='modify' visible='true' version='1' lat='37.63009268282' lon='127.08060617817' />
  <node id='387' action='modify' visible='true' version='1' lat='37.630084659' lon='127.08059886577' />
  <node id='388' action='modify' visible='true' version='1' lat='37.63009355116' lon='127.08060061979' />
  <node id='389' action='modify' visible='true' version='1' lat='37.63008552733' lon='127.0805933074' />
  <node id='390' action='modify' visible='true' version='1' lat='37.63009441949' lon='127.08059506142' />
  <node id='391' action='modify' visible='true' version='1' lat='37.63008639566' lon='127.08058774903' />
  <node id='392' action='modify' visible='true' version='1' lat='37.63009528782' lon='127.08058950305' />
  <node id='393' action='modify' visible='true' version='1' lat='37.63008726399' lon='127.08058219066' />
  <node id='394' action='modify' visible='true' version='1' lat='37.63009615615' lon='127.08058394468' />
  <node id='395' action='modify' visible='true' version='1' lat='37.63008813232' lon='127.08057663229' />
  <node id='396' action='modify' visible='true' version='1' lat='37.63009702448' lon='127.08057838631' />
  <node id='397' action='modify' visible='true' version='1' lat='37.63008900065' lon='127.08057107392' />
  <node id='398' action='modify' visible='true' version='1' lat='37.63009789281' lon='127.08057282794' />
  <node id='399' action='modify' visible='true' version='1' lat='37.63008986898' lon='127.08056551555' />
  <node id='400' action='modify' visible='true' version='1' lat='37.63009876114' lon='127.08056726957' />
  <node id='401' action='modify' visible='true' version='1' lat='37.63009073731' lon='127.08055995718' />
  <node id='402' action='modify' visible='true' version='1' lat='37.63009962947' lon='127.0805617112' />
  <node id='403' action='modify' visible='true' version='1' lat='37.63009160564' lon='127.08055439881' />
  <node id='404' action='modify' visible='true' version='1' lat='37.6301004978' lon='127.08055615283' />
  <node id='405' action='modify' visible='true' version='1' lat='37.63009247397' lon='127.08054884044' />
  <node id='406' action='modify' visible='true' version='1' lat='37.63010136613' lon='127.08055059446' />
  <node id='407' action='modify' visible='true' version='1' lat='37.6300933423' lon='127.08054328206' />
  <node id='408' action='modify' visible='true' version='1' lat='37.63010223446' lon='127.08054503608' />
  <node id='409' action='modify' visible='true' version='1' lat='37.63009421063' lon='127.08053772369' />
  <node id='410' action='modify' visible='true' version='1' lat='37.63010310279' lon='127.08053947771' />
  <node id='411' action='modify' visible='true' version='1' lat='37.63009507896' lon='127.08053216532' />
  <node id='412' action='modify' visible='true' version='1' lat='37.63010397111' lon='127.08053391934' />
  <node id='413' action='modify' visible='true' version='1' lat='37.63009594729' lon='127.08052660695' />
  <node id='414' action='modify' visible='true' version='1' lat='37.63010483944' lon='127.08052836097' />
  <node id='415' action='modify' visible='true' version='1' lat='37.63009681562' lon='127.08052104858' />
  <node id='416' action='modify' visible='true' version='1' lat='37.63010570777' lon='127.0805228026' />
  <node id='417' action='modify' visible='true' version='1' lat='37.63009768395' lon='127.08051549021' />
  <node id='418' action='modify' visible='true' version='1' lat='37.6301065761' lon='127.08051724423' />
  <node id='419' action='modify' visible='true' version='1' lat='37.63009855228' lon='127.08050993184' />
  <node id='420' action='modify' visible='true' version='1' lat='37.63010744443' lon='127.08051168584' />
  <node id='421' action='modify' visible='true' version='1' lat='37.6300994206' lon='127.08050437346' />
  <node id='422' action='modify' visible='true' version='1' lat='37.63010831275' lon='127.08050612748' />
  <node id='423' action='modify' visible='true' version='1' lat='37.63010028893' lon='127.08049881509' />
  <node id='424' action='modify' visible='true' version='1' lat='37.63010918108' lon='127.08050056911' />
  <node id='425' action='modify' visible='true' version='1' lat='37.63010115726' lon='127.08049325673' />
  <node id='426' action='modify' visible='true' version='1' lat='37.63011004941' lon='127.08049501073' />
  <node id='427' action='modify' visible='true' version='1' lat='37.63010202558' lon='127.08048769834' />
  <node id='428' action='modify' visible='true' version='1' lat='37.63011091773' lon='127.08048945236' />
  <node id='429' action='modify' visible='true' version='1' lat='37.63010289391' lon='127.08048213997' />
  <node id='430' action='modify' visible='true' version='1' lat='37.63011178606' lon='127.08048389399' />
  <node id='431' action='modify' visible='true' version='1' lat='37.63010376224' lon='127.08047658161' />
  <node id='432' action='modify' visible='true' version='1' lat='37.63011265439' lon='127.08047833561' />
  <node id='433' action='modify' visible='true' version='1' lat='37.63010463056' lon='127.08047102322' />
  <node id='434' action='modify' visible='true' version='1' lat='37.63011352271' lon='127.08047277724' />
  <node id='435' action='modify' visible='true' version='1' lat='37.63010549889' lon='127.08046546486' />
  <node id='436' action='modify' visible='true' version='1' lat='37.63011439104' lon='127.08046721886' />
  <node id='437' action='modify' visible='true' version='1' lat='37.63010636721' lon='127.08045990648' />
  <node id='438' action='modify' visible='true' version='1' lat='37.63011525936' lon='127.0804616605' />
  <node id='439' action='modify' visible='true' version='1' lat='37.63010723554' lon='127.08045434811' />
  <node id='440' action='modify' visible='true' version='1' lat='37.63011612769' lon='127.08045610211' />
  <node id='441' action='modify' visible='true' version='1' lat='37.63010810386' lon='127.08044878973' />
  <node id='442' action='modify' visible='true' version='1' lat='37.63011699601' lon='127.08045054375' />
  <node id='443' action='modify' visible='true' version='1' lat='37.63010897218' lon='127.08044323137' />
  <node id='444' action='modify' visible='true' version='1' lat='37.63011786434' lon='127.08044498537' />
  <node id='445' action='modify' visible='true' version='1' lat='37.63010984051' lon='127.08043767298' />
  <node id='446' action='modify' visible='true' version='1' lat='37.63011873266' lon='127.080439427' />
  <node id='447' action='modify' visible='true' version='1' lat='37.63011070883' lon='127.08043211462' />
  <node id='448' action='modify' visible='true' version='1' lat='37.63011960099' lon='127.08043386862' />
  <node id='449' action='modify' visible='true' version='1' lat='37.63011157715' lon='127.08042655625' />
  <node id='450' action='modify' visible='true' version='1' lat='37.63012046931' lon='127.08042831025' />
  <node id='451' visible='true' version='1' lat='37.63008251502' lon='127.08040013862' />
  <node id='452' visible='true' version='1' lat='37.63008480464' lon='127.08038914842' />
  <node id='453' visible='true' version='1' lat='37.63007810534' lon='127.08039897863' />
  <node id='454' visible='true' version='1' lat='37.63008039498' lon='127.08038798843' />
  <node id='455' visible='true' version='1' lat='37.63007369567' lon='127.08039781862' />
  <node id='456' visible='true' version='1' lat='37.63007598531' lon='127.08038682844' />
  <node id='457' visible='true' version='1' lat='37.63006928602' lon='127.08039665863' />
  <node id='458' visible='true' version='1' lat='37.63007157564' lon='127.08038566843' />
  <node id='459' visible='true' version='1' lat='37.63006487634' lon='127.08039549863' />
  <node id='460' visible='true' version='1' lat='37.63006716598' lon='127.08038450845' />
  <node id='461' visible='true' version='1' lat='37.63006046668' lon='127.08039433864' />
  <node id='462' visible='true' version='1' lat='37.6300627563' lon='127.08038334844' />
  <node id='463' visible='true' version='1' lat='37.630056057' lon='127.08039317864' />
  <node id='464' visible='true' version='1' lat='37.63005834664' lon='127.08038218846' />
  <node id='465' visible='true' version='1' lat='37.63005164735' lon='127.08039201865' />
  <node id='466' visible='true' version='1' lat='37.63005393697' lon='127.08038102845' />
  <node id='467' visible='true' version='1' lat='37.63004723767' lon='127.08039085865' />
  <node id='468' visible='true' version='1' lat='37.63004952731' lon='127.08037986847' />
  <node id='469' visible='true' version='1' lat='37.63004282801' lon='127.08038969866' />
  <node id='470' visible='true' version='1' lat='37.63004511763' lon='127.08037870846' />
  <node id='471' visible='true' version='1' lat='37.6300308853' lon='127.08040260783' />
  <node id='472' visible='true' version='1' lat='37.63002200526' lon='127.08040075849' />
  <node id='473' visible='true' version='1' lat='37.63002997048' lon='127.08040815441' />
  <node id='474' visible='true' version='1' lat='37.63002109044' lon='127.08040630505' />
  <node id='475' visible='true' version='1' lat='37.63002905565' lon='127.08041370097' />
  <node id='476' visible='true' version='1' lat='37.63002017561' lon='127.08041185161' />
  <node id='477' visible='true' version='1' lat='37.63002814082' lon='127.08041924752' />
  <node id='478' visible='true' version='1' lat='37.63001926078' lon='127.08041739818' />
  <node id='479' visible='true' version='1' lat='37.630027226' lon='127.0804247941' />
  <node id='480' visible='true' version='1' lat='37.63001834596' lon='127.08042294474' />
  <node id='481' visible='true' version='1' lat='37.63002631117' lon='127.08043034066' />
  <node id='482' visible='true' version='1' lat='37.63001743113' lon='127.0804284913' />
  <node id='483' visible='true' version='1' lat='37.63002539634' lon='127.08043588723' />
  <node id='484' visible='true' version='1' lat='37.6300165163' lon='127.08043403787' />
  <node id='485' visible='true' version='1' lat='37.63002448151' lon='127.08044143378' />
  <node id='486' visible='true' version='1' lat='37.63001560147' lon='127.08043958444' />
  <node id='487' visible='true' version='1' lat='37.63002356669' lon='127.08044698035' />
  <node id='488' visible='true' version='1' lat='37.63001468665' lon='127.08044513099' />
  <node id='489' visible='true' version='1' lat='37.63002265186' lon='127.08045252692' />
  <node id='490' visible='true' version='1' lat='37.63001377182' lon='127.08045067756' />
  <node id='491' visible='true' version='1' lat='37.63002173703' lon='127.08045807348' />
  <node id='492' visible='true' version='1' lat='37.63001285699' lon='127.08045622412' />
  <node id='493' visible='true' version='1' lat='37.6300208222' lon='127.08046362004' />
  <node id='494' visible='true' version='1' lat='37.63001194216' lon='127.08046177068' />
  <node id='495' visible='true' version='1' lat='37.63001990737' lon='127.0804691666' />
  <node id='496' visible='true' version='1' lat='37.63001102733' lon='127.08046731724' />
  <node id='497' visible='true' version='1' lat='37.63001899254' lon='127.08047471317' />
  <node id='498' visible='true' version='1' lat='37.6300101125' lon='127.08047286381' />
  <node id='499' visible='true' version='1' lat='37.63001807771' lon='127.08048025973' />
  <node id='500' visible='true' version='1' lat='37.63000919767' lon='127.08047841037' />
  <node id='501' visible='true' version='1' lat='37.63001716288' lon='127.08048580629' />
  <node id='502' visible='true' version='1' lat='37.63000828284' lon='127.08048395693' />
  <node id='503' visible='true' version='1' lat='37.63001624805' lon='127.08049135285' />
  <node id='504' visible='true' version='1' lat='37.63000736801' lon='127.08048950349' />
  <node id='505' visible='true' version='1' lat='37.63001533322' lon='127.08049689942' />
  <node id='506' visible='true' version='1' lat='37.63000645318' lon='127.08049505006' />
  <node id='507' visible='true' version='1' lat='37.63001441839' lon='127.08050244598' />
  <node id='508' visible='true' version='1' lat='37.63000553835' lon='127.08050059662' />
  <node id='509' visible='true' version='1' lat='37.63001350356' lon='127.08050799254' />
  <node id='510' visible='true' version='1' lat='37.63000462352' lon='127.08050614318' />
  <node id='511' visible='true' version='1' lat='37.63001258873' lon='127.0805135391' />
  <node id='512' visible='true' version='1' lat='37.63000370869' lon='127.08051168974' />
  <node id='513' visible='true' version='1' lat='37.6300116739' lon='127.08051908566' />
  <node id='514' visible='true' version='1' lat='37.63000279386' lon='127.0805172363' />
  <node id='515' visible='true' version='1' lat='37.63001075907' lon='127.08052463223' />
  <node id='516' visible='true' version='1' lat='37.63000187903' lon='127.08052278285' />
  <node id='517' visible='true' version='1' lat='37.63000984423' lon='127.08053017879' />
  <node id='518' visible='true' version='1' lat='37.63000096419' lon='127.08052832943' />
  <node id='519' visible='true' version='1' lat='37.6300089294' lon='127.08053572535' />
  <node id='520' visible='true' version='1' lat='37.63000004936' lon='127.08053387599' />
  <node id='521' visible='true' version='1' lat='37.63000801457' lon='127.08054127191' />
  <node id='522' visible='true' version='1' lat='37.62999913453' lon='127.08053942255' />
  <node id='523' visible='true' version='1' lat='37.63000709974' lon='127.08054681848' />
  <node id='524' visible='true' version='1' lat='37.6299982197' lon='127.0805449691' />
  <node id='525' visible='true' version='1' lat='37.6300061849' lon='127.08055236503' />
  <node id='526' visible='true' version='1' lat='37.62999730486' lon='127.08055051567' />
  <node id='527' visible='true' version='1' lat='37.63000527007' lon='127.08055791159' />
  <node id='528' visible='true' version='1' lat='37.62999639003' lon='127.08055606223' />
  <node id='529' visible='true' version='1' lat='37.63000435524' lon='127.08056345816' />
  <node id='530' visible='true' version='1' lat='37.6299954752' lon='127.08056160878' />
  <node id='531' visible='true' version='1' lat='37.6300034404' lon='127.08056900471' />
  <node id='532' visible='true' version='1' lat='37.62999456036' lon='127.08056715535' />
  <node id='533' visible='true' version='1' lat='37.63000252557' lon='127.08057455128' />
  <node id='534' visible='true' version='1' lat='37.62999364553' lon='127.0805727019' />
  <node id='535' visible='true' version='1' lat='37.63000161073' lon='127.08058009783' />
  <node id='536' visible='true' version='1' lat='37.62999273069' lon='127.08057824847' />
  <node id='537' visible='true' version='1' lat='37.6300006959' lon='127.0805856444' />
  <node id='538' visible='true' version='1' lat='37.62999181586' lon='127.08058379502' />
  <node id='539' visible='true' version='1' lat='37.62999978106' lon='127.08059119095' />
  <node id='540' visible='true' version='1' lat='37.62999090102' lon='127.08058934159' />
  <node id='541' visible='true' version='1' lat='37.62999886623' lon='127.08059673752' />
  <node id='542' visible='true' version='1' lat='37.62998998619' lon='127.08059488814' />
  <node id='543' visible='true' version='1' lat='37.62999795139' lon='127.08060228407' />
  <node id='544' visible='true' version='1' lat='37.62998907135' lon='127.08060043471' />
  <node id='545' visible='true' version='1' lat='37.62999703656' lon='127.08060783064' />
  <node id='546' visible='true' version='1' lat='37.62998815652' lon='127.08060598126' />
  <node id='547' visible='true' version='1' lat='37.62999612172' lon='127.08061337719' />
  <node id='548' visible='true' version='1' lat='37.62998724168' lon='127.08061152783' />
  <node id='549' visible='true' version='1' lat='37.62999520689' lon='127.08061892376' />
  <node id='550' visible='true' version='1' lat='37.62998632685' lon='127.08061707438' />
  <node id='551' visible='true' version='1' lat='37.62999429205' lon='127.08062447032' />
  <node id='552' visible='true' version='1' lat='37.62998541201' lon='127.08062262094' />
  <node id='553' visible='true' version='1' lat='37.62999337721' lon='127.08063001687' />
  <node id='554' visible='true' version='1' lat='37.62998449717' lon='127.08062816751' />
  <node id='555' visible='true' version='1' lat='37.62999246238' lon='127.08063556344' />
  <node id='556' visible='true' version='1' lat='37.62998358234' lon='127.08063371406' />
  <node id='557' visible='true' version='1' lat='37.62999154754' lon='127.08064111' />
  <node id='558' visible='true' version='1' lat='37.6299826675' lon='127.08063926062' />
  <node id='559' visible='true' version='1' lat='37.6299906327' lon='127.08064665656' />
  <node id='560' visible='true' version='1' lat='37.62998175266' lon='127.08064480718' />
  <node id='561' visible='true' version='1' lat='37.62998971786' lon='127.0806522031' />
  <node id='562' visible='true' version='1' lat='37.62998083782' lon='127.08065035374' />
  <node id='563' visible='true' version='1' lat='37.62998880303' lon='127.08065774967' />
  <node id='564' visible='true' version='1' lat='37.62997992299' lon='127.08065590029' />
  <node id='565' visible='true' version='1' lat='37.62998788819' lon='127.08066329623' />
  <node id='566' visible='true' version='1' lat='37.62997900815' lon='127.08066144685' />
  <node id='567' visible='true' version='1' lat='37.62998697335' lon='127.08066884279' />
  <node id='568' visible='true' version='1' lat='37.62997809331' lon='127.08066699341' />
  <node id='569' visible='true' version='1' lat='37.62998605851' lon='127.08067438935' />
  <node id='570' visible='true' version='1' lat='37.62997717847' lon='127.08067253997' />
  <node id='571' visible='true' version='1' lat='37.62998514367' lon='127.0806799359' />
  <node id='572' visible='true' version='1' lat='37.62997626363' lon='127.08067808652' />
  <node id='573' visible='true' version='1' lat='37.62998422883' lon='127.08068548246' />
  <node id='574' visible='true' version='1' lat='37.62997534879' lon='127.08068363308' />
  <node id='575' visible='true' version='1' lat='37.62998331399' lon='127.08069102902' />
  <node id='576' visible='true' version='1' lat='37.62997443395' lon='127.08068917964' />
  <node id='577' visible='true' version='1' lat='37.6299916512' lon='127.08070868344' />
  <node id='578' visible='true' version='1' lat='37.62998931032' lon='127.08071965638' />
  <node id='579' visible='true' version='1' lat='37.62999605639' lon='127.08070987006' />
  <node id='580' visible='true' version='1' lat='37.62999371549' lon='127.080720843' />
  <node id='581' visible='true' version='1' lat='37.63000046158' lon='127.08071105669' />
  <node id='582' visible='true' version='1' lat='37.62999812068' lon='127.08072202963' />
  <node id='583' visible='true' version='1' lat='37.63000486675' lon='127.08071224331' />
  <node id='584' visible='true' version='1' lat='37.63000252587' lon='127.08072321627' />
  <node id='585' visible='true' version='1' lat='37.63000927194' lon='127.08071342994' />
  <node id='586' visible='true' version='1' lat='37.63000693104' lon='127.08072440288' />
  <node id='587' visible='true' version='1' lat='37.63001367713' lon='127.08071461657' />
  <node id='588' visible='true' version='1' lat='37.63001133623' lon='127.08072558951' />
  <node id='589' visible='true' version='1' lat='37.6300180823' lon='127.08071580319' />
  <node id='590' visible='true' version='1' lat='37.63001574142' lon='127.08072677615' />
  <node id='591' visible='true' version='1' lat='37.6300224875' lon='127.08071698982' />
  <node id='592' visible='true' version='1' lat='37.6300201466' lon='127.08072796276' />
  <node id='593' visible='true' version='1' lat='37.63002689268' lon='127.08071817645' />
  <node id='594' visible='true' version='1' lat='37.63002455178' lon='127.08072914939' />
  <node id='595' visible='true' version='1' lat='37.63003129785' lon='127.08071936307' />
  <node id='596' visible='true' version='1' lat='37.63002895697' lon='127.08073033603' />
  <way id='1' visible='true' version='1'>
    <nd ref='299' />
    <nd ref='301' />
    <nd ref='303' />
    <nd ref='305' />
    <nd ref='307' />
    <tag k='subtype' v='solid' />
    <tag k='type' v='line_thin' />
    <tag k='width' v='0.200' />
  </way>
  <way id='2' visible='true' version='1'>
    <nd ref='300' />
    <nd ref='302' />
    <nd ref='304' />
    <nd ref='306' />
    <nd ref='308' />
    <tag k='subtype' v='solid' />
    <tag k='type' v='line_thin' />
    <tag k='width' v='0.200' />
  </way>
  <way id='3' visible='true' version='1'>
    <nd ref='58' />
    <nd ref='59' />
    <nd ref='60' />
    <nd ref='61' />
    <nd ref='62' />
  </way>
  <way id='4' visible='true' version='1'>
    <nd ref='309' />
    <nd ref='311' />
    <nd ref='313' />
    <nd ref='315' />
    <nd ref='317' />
    <nd ref='319' />
    <tag k='subtype' v='solid' />
    <tag k='type' v='line_thin' />
    <tag k='width' v='0.200' />
  </way>
  <way id='5' action='modify' visible='true' version='1'>
    <nd ref='310' />
    <nd ref='312' />
    <nd ref='-25466' />
    <nd ref='314' />
    <nd ref='316' />
    <nd ref='318' />
    <nd ref='320' />
    <tag k='subtype' v='solid' />
    <tag k='type' v='line_thin' />
    <tag k='width' v='0.200' />
  </way>
  <way id='6' visible='true' version='1'>
    <nd ref='73' />
    <nd ref='74' />
    <nd ref='75' />
    <nd ref='76' />
    <nd ref='77' />
    <nd ref='78' />
  </way>
  <way id='7' visible='true' version='1'>
    <nd ref='321' />
    <nd ref='323' />
    <nd ref='325' />
    <nd ref='327' />
    <nd ref='329' />
    <nd ref='331' />
    <tag k='subtype' v='solid' />
    <tag k='type' v='line_thin' />
    <tag k='width' v='0.200' />
  </way>
  <way id='8' visible='true' version='1'>
    <nd ref='322' />
    <nd ref='324' />
    <nd ref='326' />
    <nd ref='328' />
    <nd ref='330' />
    <nd ref='332' />
    <tag k='subtype' v='solid' />
    <tag k='type' v='line_thin' />
    <tag k='width' v='0.200' />
  </way>
  <way id='9' visible='true' version='1'>
    <nd ref='132' />
    <nd ref='133' />
    <nd ref='134' />
    <nd ref='135' />
    <nd ref='136' />
    <nd ref='137' />
  </way>
  <way id='10' visible='true' version='1'>
    <nd ref='333' />
    <nd ref='335' />
    <nd ref='337' />
    <nd ref='339' />
    <nd ref='341' />
    <tag k='subtype' v='solid' />
    <tag k='type' v='line_thin' />
    <tag k='width' v='0.200' />
  </way>
  <way id='11' visible='true' version='1'>
    <nd ref='334' />
    <nd ref='336' />
    <nd ref='338' />
    <nd ref='340' />
    <nd ref='342' />
    <tag k='subtype' v='solid' />
    <tag k='type' v='line_thin' />
    <tag k='width' v='0.200' />
  </way>
  <way id='12' visible='true' version='1'>
    <nd ref='148' />
    <nd ref='149' />
    <nd ref='1' />
    <nd ref='2' />
    <nd ref='3' />
  </way>
  <way id='13' visible='true' version='1'>
    <nd ref='341' />
    <nd ref='343' />
    <nd ref='345' />
    <nd ref='347' />
    <nd ref='349' />
    <nd ref='351' />
    <nd ref='353' />
    <nd ref='355' />
    <nd ref='357' />
    <nd ref='359' />
    <nd ref='361' />
    <nd ref='363' />
    <nd ref='365' />
    <nd ref='367' />
    <nd ref='369' />
    <nd ref='371' />
    <nd ref='373' />
    <nd ref='375' />
    <nd ref='377' />
    <nd ref='379' />
    <nd ref='381' />
    <nd ref='383' />
    <nd ref='385' />
    <nd ref='387' />
    <nd ref='389' />
    <nd ref='391' />
    <nd ref='393' />
    <nd ref='395' />
    <nd ref='397' />
    <nd ref='399' />
    <nd ref='401' />
    <nd ref='403' />
    <nd ref='405' />
    <nd ref='407' />
    <nd ref='409' />
    <nd ref='411' />
    <nd ref='413' />
    <nd ref='415' />
    <nd ref='417' />
    <nd ref='419' />
    <nd ref='421' />
    <nd ref='423' />
    <nd ref='425' />
    <nd ref='427' />
    <nd ref='429' />
    <nd ref='431' />
    <nd ref='433' />
    <nd ref='435' />
    <nd ref='437' />
    <nd ref='439' />
    <nd ref='441' />
    <nd ref='443' />
    <nd ref='445' />
    <nd ref='447' />
    <nd ref='449' />
    <nd ref='299' />
    <tag k='subtype' v='solid' />
    <tag k='type' v='line_thin' />
    <tag k='width' v='0.200' />
  </way>
  <way id='14' visible='true' version='1'>
    <nd ref='342' />
    <nd ref='344' />
    <nd ref='346' />
    <nd ref='348' />
    <nd ref='350' />
    <nd ref='352' />
    <nd ref='354' />
    <nd ref='356' />
    <nd ref='358' />
    <nd ref='360' />
    <nd ref='362' />
    <nd ref='364' />
    <nd ref='366' />
    <nd ref='368' />
    <nd ref='370' />
    <nd ref='372' />
    <nd ref='374' />
    <nd ref='376' />
    <nd ref='378' />
    <nd ref='380' />
    <nd ref='382' />
    <nd ref='384' />
    <nd ref='386' />
    <nd ref='388' />
    <nd ref='390' />
    <nd ref='392' />
    <nd ref='394' />
    <nd ref='396' />
    <nd ref='398' />
    <nd ref='400' />
    <nd ref='402' />
    <nd ref='404' />
    <nd ref='406' />
    <nd ref='408' />
    <nd ref='410' />
    <nd ref='412' />
    <nd ref='414' />
    <nd ref='416' />
    <nd ref='418' />
    <nd ref='420' />
    <nd ref='422' />
    <nd ref='424' />
    <nd ref='426' />
    <nd ref='428' />
    <nd ref='430' />
    <nd ref='432' />
    <nd ref='434' />
    <nd ref='436' />
    <nd ref='438' />
    <nd ref='440' />
    <nd ref='442' />
    <nd ref='444' />
    <nd ref='446' />
    <nd ref='448' />
    <nd ref='450' />
    <nd ref='300' />
    <tag k='subtype' v='solid' />
    <tag k='type' v='line_thin' />
    <tag k='width' v='0.200' />
  </way>
  <way id='15' visible='true' version='1'>
    <nd ref='152' />
    <nd ref='153' />
    <nd ref='154' />
    <nd ref='155' />
    <nd ref='156' />
    <nd ref='157' />
    <nd ref='158' />
    <nd ref='159' />
    <nd ref='160' />
    <nd ref='161' />
    <nd ref='162' />
    <nd ref='163' />
    <nd ref='164' />
    <nd ref='165' />
    <nd ref='166' />
    <nd ref='167' />
    <nd ref='168' />
    <nd ref='169' />
    <nd ref='170' />
    <nd ref='171' />
    <nd ref='172' />
    <nd ref='173' />
    <nd ref='174' />
    <nd ref='175' />
    <nd ref='176' />
    <nd ref='177' />
    <nd ref='178' />
    <nd ref='179' />
    <nd ref='180' />
    <nd ref='181' />
    <nd ref='182' />
    <nd ref='183' />
    <nd ref='184' />
    <nd ref='185' />
    <nd ref='186' />
    <nd ref='187' />
    <nd ref='188' />
    <nd ref='189' />
    <nd ref='190' />
    <nd ref='191' />
    <nd ref='192' />
    <nd ref='193' />
    <nd ref='194' />
    <nd ref='195' />
    <nd ref='196' />
    <nd ref='197' />
    <nd ref='198' />
    <nd ref='199' />
    <nd ref='200' />
    <nd ref='201' />
    <nd ref='202' />
    <nd ref='203' />
    <nd ref='204' />
    <nd ref='205' />
    <nd ref='206' />
    <nd ref='207' />
  </way>
  <way id='16' visible='true' version='1'>
    <nd ref='307' />
    <nd ref='451' />
    <nd ref='453' />
    <nd ref='455' />
    <nd ref='457' />
    <nd ref='459' />
    <nd ref='461' />
    <nd ref='463' />
    <nd ref='465' />
    <nd ref='467' />
    <nd ref='469' />
    <nd ref='309' />
    <tag k='subtype' v='solid' />
    <tag k='type' v='line_thin' />
    <tag k='width' v='0.200' />
  </way>
  <way id='17' visible='true' version='1'>
    <nd ref='308' />
    <nd ref='452' />
    <nd ref='454' />
    <nd ref='456' />
    <nd ref='458' />
    <nd ref='460' />
    <nd ref='462' />
    <nd ref='464' />
    <nd ref='466' />
    <nd ref='468' />
    <nd ref='470' />
    <nd ref='310' />
    <tag k='subtype' v='solid' />
    <tag k='type' v='line_thin' />
    <tag k='width' v='0.200' />
  </way>
  <way id='18' visible='true' version='1'>
    <nd ref='211' />
    <nd ref='212' />
    <nd ref='213' />
    <nd ref='214' />
    <nd ref='215' />
    <nd ref='216' />
    <nd ref='217' />
    <nd ref='218' />
    <nd ref='219' />
    <nd ref='220' />
    <nd ref='221' />
    <nd ref='222' />
  </way>
  <way id='19' visible='true' version='1'>
    <nd ref='319' />
    <nd ref='471' />
    <nd ref='473' />
    <nd ref='475' />
    <nd ref='477' />
    <nd ref='479' />
    <nd ref='481' />
    <nd ref='483' />
    <nd ref='485' />
    <nd ref='487' />
    <nd ref='489' />
    <nd ref='491' />
    <nd ref='493' />
    <nd ref='495' />
    <nd ref='497' />
    <nd ref='499' />
    <nd ref='501' />
    <nd ref='503' />
    <nd ref='505' />
    <nd ref='507' />
    <nd ref='509' />
    <nd ref='511' />
    <nd ref='513' />
    <nd ref='515' />
    <nd ref='517' />
    <nd ref='519' />
    <nd ref='521' />
    <nd ref='523' />
    <nd ref='525' />
    <nd ref='527' />
    <nd ref='529' />
    <nd ref='531' />
    <nd ref='533' />
    <nd ref='535' />
    <nd ref='537' />
    <nd ref='539' />
    <nd ref='541' />
    <nd ref='543' />
    <nd ref='545' />
    <nd ref='547' />
    <nd ref='549' />
    <nd ref='551' />
    <nd ref='553' />
    <nd ref='555' />
    <nd ref='557' />
    <nd ref='559' />
    <nd ref='561' />
    <nd ref='563' />
    <nd ref='565' />
    <nd ref='567' />
    <nd ref='569' />
    <nd ref='571' />
    <nd ref='573' />
    <nd ref='575' />
    <nd ref='321' />
    <tag k='subtype' v='solid' />
    <tag k='type' v='line_thin' />
    <tag k='width' v='0.200' />
  </way>
  <way id='20' visible='true' version='1'>
    <nd ref='320' />
    <nd ref='472' />
    <nd ref='474' />
    <nd ref='476' />
    <nd ref='478' />
    <nd ref='480' />
    <nd ref='482' />
    <nd ref='484' />
    <nd ref='486' />
    <nd ref='488' />
    <nd ref='490' />
    <nd ref='492' />
    <nd ref='494' />
    <nd ref='496' />
    <nd ref='498' />
    <nd ref='500' />
    <nd ref='502' />
    <nd ref='504' />
    <nd ref='506' />
    <nd ref='508' />
    <nd ref='510' />
    <nd ref='512' />
    <nd ref='514' />
    <nd ref='516' />
    <nd ref='518' />
    <nd ref='520' />
    <nd ref='522' />
    <nd ref='524' />
    <nd ref='526' />
    <nd ref='528' />
    <nd ref='530' />
    <nd ref='532' />
    <nd ref='534' />
    <nd ref='536' />
    <nd ref='538' />
    <nd ref='540' />
    <nd ref='542' />
    <nd ref='544' />
    <nd ref='546' />
    <nd ref='548' />
    <nd ref='550' />
    <nd ref='552' />
    <nd ref='554' />
    <nd ref='556' />
    <nd ref='558' />
    <nd ref='560' />
    <nd ref='562' />
    <nd ref='564' />
    <nd ref='566' />
    <nd ref='568' />
    <nd ref='570' />
    <nd ref='572' />
    <nd ref='574' />
    <nd ref='576' />
    <nd ref='322' />
    <tag k='subtype' v='solid' />
    <tag k='type' v='line_thin' />
    <tag k='width' v='0.200' />
  </way>
  <way id='21' visible='true' version='1'>
    <nd ref='227' />
    <nd ref='228' />
    <nd ref='229' />
    <nd ref='230' />
    <nd ref='231' />
    <nd ref='232' />
    <nd ref='233' />
    <nd ref='234' />
    <nd ref='235' />
    <nd ref='236' />
    <nd ref='237' />
    <nd ref='238' />
    <nd ref='239' />
    <nd ref='240' />
    <nd ref='241' />
    <nd ref='242' />
    <nd ref='243' />
    <nd ref='244' />
    <nd ref='245' />
    <nd ref='246' />
    <nd ref='247' />
    <nd ref='248' />
    <nd ref='249' />
    <nd ref='250' />
    <nd ref='251' />
    <nd ref='252' />
    <nd ref='253' />
    <nd ref='254' />
    <nd ref='255' />
    <nd ref='256' />
    <nd ref='257' />
    <nd ref='258' />
    <nd ref='259' />
    <nd ref='260' />
    <nd ref='261' />
    <nd ref='262' />
    <nd ref='263' />
    <nd ref='264' />
    <nd ref='265' />
    <nd ref='266' />
    <nd ref='267' />
    <nd ref='268' />
    <nd ref='269' />
    <nd ref='270' />
    <nd ref='271' />
    <nd ref='272' />
    <nd ref='273' />
    <nd ref='274' />
    <nd ref='275' />
    <nd ref='276' />
    <nd ref='277' />
    <nd ref='278' />
    <nd ref='279' />
    <nd ref='280' />
    <nd ref='281' />
  </way>
  <way id='22' visible='true' version='1'>
    <nd ref='331' />
    <nd ref='577' />
    <nd ref='579' />
    <nd ref='581' />
    <nd ref='583' />
    <nd ref='585' />
    <nd ref='587' />
    <nd ref='589' />
    <nd ref='591' />
    <nd ref='593' />
    <nd ref='595' />
    <nd ref='333' />
    <tag k='subtype' v='solid' />
    <tag k='type' v='line_thin' />
    <tag k='width' v='0.200' />
  </way>
  <way id='23' visible='true' version='1'>
    <nd ref='332' />
    <nd ref='578' />
    <nd ref='580' />
    <nd ref='582' />
    <nd ref='584' />
    <nd ref='586' />
    <nd ref='588' />
    <nd ref='590' />
    <nd ref='592' />
    <nd ref='594' />
    <nd ref='596' />
    <nd ref='334' />
    <tag k='subtype' v='solid' />
    <tag k='type' v='line_thin' />
    <tag k='width' v='0.200' />
  </way>
  <way id='24' visible='true' version='1'>
    <nd ref='286' />
    <nd ref='287' />
    <nd ref='288' />
    <nd ref='289' />
    <nd ref='290' />
    <nd ref='291' />
    <nd ref='292' />
    <nd ref='293' />
    <nd ref='294' />
    <nd ref='295' />
    <nd ref='296' />
    <nd ref='297' />
  </way>
  <relation id='1' visible='true' version='1'>
    <member type='way' ref='1' role='left' />
    <member type='way' ref='2' role='right' />
    <member type='way' ref='3' role='centerline' />
    <tag k='subtype' v='road' />
    <tag k='type' v='lanelet' />
  </relation>
  <relation id='2' visible='true' version='1'>
    <member type='way' ref='4' role='left' />
    <member type='way' ref='5' role='right' />
    <member type='way' ref='6' role='centerline' />
    <tag k='subtype' v='road' />
    <tag k='type' v='lanelet' />
  </relation>
  <relation id='3' visible='true' version='1'>
    <member type='way' ref='7' role='left' />
    <member type='way' ref='8' role='right' />
    <member type='way' ref='9' role='centerline' />
    <tag k='subtype' v='road' />
    <tag k='type' v='lanelet' />
  </relation>
  <relation id='4' visible='true' version='1'>
    <member type='way' ref='10' role='left' />
    <member type='way' ref='11' role='right' />
    <member type='way' ref='12' role='centerline' />
    <tag k='subtype' v='road' />
    <tag k='type' v='lanelet' />
  </relation>
  <relation id='5' visible='true' version='1'>
    <member type='way' ref='13' role='left' />
    <member type='way' ref='14' role='right' />
    <member type='way' ref='15' role='centerline' />
    <tag k='subtype' v='road' />
    <tag k='type' v='lanelet' />
  </relation>
  <relation id='6' visible='true' version='1'>
    <member type='way' ref='16' role='left' />
    <member type='way' ref='17' role='right' />
    <member type='way' ref='18' role='centerline' />
    <tag k='subtype' v='road' />
    <tag k='type' v='lanelet' />
  </relation>
  <relation id='7' visible='true' version='1'>
    <member type='way' ref='19' role='left' />
    <member type='way' ref='20' role='right' />
    <member type='way' ref='21' role='centerline' />
    <tag k='subtype' v='road' />
    <tag k='type' v='lanelet' />
  </relation>
  <relation id='8' visible='true' version='1'>
    <member type='way' ref='22' role='left' />
    <member type='way' ref='23' role='right' />
    <member type='way' ref='24' role='centerline' />
    <tag k='subtype' v='road' />
    <tag k='type' v='lanelet' />
  </relation>
</osm>
