<?xml version='1.0' encoding='UTF-8'?>
<osm version='0.6' generator='JOSM'>
  <node id='1' action='modify' visible='true' version='1' lat='37.63010391102' lon='127.08137372011'>
    <tag k='ele' v='0' />
    <tag k='local_x' v='-24.3084' />
    <tag k='local_y' v='-0.193' />
  </node>
  <node id='2' action='modify' visible='true' version='1' lat='37.62986327953' lon='127.08131887346'>
    <tag k='ele' v='0' />
    <tag k='local_x' v='3.1669' />
    <tag k='local_y' v='-0.0277' />
  </node>
  <node id='4' action='modify' visible='true' version='1' lat='37.63010073266' lon='127.08139591892'>
    <tag k='ele' v='0' />
    <tag k='local_x' v='-24.3204' />
    <tag k='local_y' v='1.8059' />
  </node>
  <node id='5' action='modify' visible='true' version='1' lat='37.62986048929' lon='127.08134126942'>
    <tag k='ele' v='0' />
    <tag k='local_x' v='3.1088' />
    <tag k='local_y' v='1.9804' />
  </node>
  <node id='8' action='modify' visible='true' version='1' lat='37.62985649753' lon='127.08131969194'>
    <tag k='ele' v='0' />
    <tag k='local_x' v='3.9026' />
    <tag k='local_y' v='0.1829' />
  </node>
  <node id='10' action='modify' visible='true' version='1' lat='37.62985930914' lon='127.08134187167'>
    <tag k='ele' v='0' />
    <tag k='local_x' v='3.2293' />
    <tag k='local_y' v='2.0571' />
  </node>
  <node id='13' action='modify' visible='true' version='1' lat='37.62985274137' lon='127.0813204364'>
    <tag k='ele' v='0' />
    <tag k='local_x' v='4.3053' />
    <tag k='local_y' v='0.3249' />
  </node>
  <node id='14' action='modify' visible='true' version='1' lat='37.62985547648' lon='127.08134263139'>
    <tag k='ele' v='0' />
    <tag k='local_x' v='3.6402' />
    <tag k='local_y' v='2.202' />
  </node>
  <node id='15' action='modify' visible='true' version='1' lat='37.62984884959' lon='127.08132122236'>
    <tag k='ele' v='0' />
    <tag k='local_x' v='4.7223' />
    <tag k='local_y' v='0.4733' />
  </node>
  <node id='16' action='modify' visible='true' version='1' lat='37.62985178319' lon='127.0813433792'>
    <tag k='ele' v='0' />
    <tag k='local_x' v='4.0359' />
    <tag k='local_y' v='2.343' />
  </node>
  <node id='17' action='modify' visible='true' version='1' lat='37.62980082218' lon='127.08137981054'>
    <tag k='ele' v='0' />
    <tag k='local_x' v='9.0688' />
    <tag k='local_y' v='6.5631' />
  </node>
  <node id='18' action='modify' visible='true' version='1' lat='37.62981834337' lon='127.08138372076'>
    <tag k='ele' v='0' />
    <tag k='local_x' v='7.0696' />
    <tag k='local_y' v='6.5438' />
  </node>
  <node id='19' action='modify' visible='true' version='1' lat='37.62978662323' lon='127.08148193119'>
    <tag k='ele' v='0' />
    <tag k='local_x' v='8.9669' />
    <tag k='local_y' v='15.7499' />
  </node>
  <node id='21' action='modify' visible='true' version='1' lat='37.62980392191' lon='127.08148500252'>
    <tag k='ele' v='0' />
    <tag k='local_x' v='7.006' />
    <tag k='local_y' v='15.6621' />
  </node>
  <node id='24' action='modify' visible='true' version='1' lat='37.62978641176' lon='127.08149371083'>
    <tag k='ele' v='0' />
    <tag k='local_x' v='8.7976' />
    <tag k='local_y' v='16.7803' />
  </node>
  <node id='26' action='modify' visible='true' version='1' lat='37.6298041942' lon='127.08149268978'>
    <tag k='ele' v='0' />
    <tag k='local_x' v='6.8502' />
    <tag k='local_y' v='16.3261' />
  </node>
  <node id='29' action='modify' visible='true' version='1' lat='37.62978658715' lon='127.0814989586'>
    <tag k='ele' v='0' />
    <tag k='local_x' v='8.6924' />
    <tag k='local_y' v='17.2338' />
  </node>
  <node id='30' action='modify' visible='true' version='1' lat='37.62980434629' lon='127.08149740396'>
    <tag k='ele' v='0' />
    <tag k='local_x' v='6.7563' />
    <tag k='local_y' v='16.7336' />
  </node>
  <node id='31' action='modify' visible='true' version='1' lat='37.62978701626' lon='127.08150471853'>
    <tag k='ele' v='0' />
    <tag k='local_x' v='8.5508' />
    <tag k='local_y' v='17.7267' />
  </node>
  <node id='32' action='modify' visible='true' version='1' lat='37.62980464547' lon='127.08150156501'>
    <tag k='ele' v='0' />
    <tag k='local_x' v='6.6552' />
    <tag k='local_y' v='17.0899' />
  </node>
  <node id='33' action='modify' visible='true' version='1' lat='37.62983879529' lon='127.08156140548'>
    <tag k='ele' v='0' />
    <tag k='local_x' v='1.9046' />
    <tag k='local_y' v='21.6008' />
  </node>
  <node id='34' action='modify' visible='true' version='1' lat='37.62984191631' lon='127.0815391908'>
    <tag k='ele' v='0' />
    <tag k='local_x' v='1.9232' />
    <tag k='local_y' v='19.6017' />
  </node>
  <node id='35' action='modify' visible='true' version='1' lat='37.63005909204' lon='127.0816101251'>
    <tag k='ele' v='0' />
    <tag k='local_x' v='-23.2244' />
    <tag k='local_y' v='21.3195' />
  </node>
  <node id='37' action='modify' visible='true' version='1' lat='37.6300618336' lon='127.08158860161'>
    <tag k='ele' v='0' />
    <tag k='local_x' v='-23.1752' />
    <tag k='local_y' v='19.3884' />
  </node>
  <node id='40' action='modify' visible='true' version='1' lat='37.63006612832' lon='127.08161109896'>
    <tag k='ele' v='0' />
    <tag k='local_x' v='-24.0175' />
    <tag k='local_y' v='21.2598' />
  </node>
  <node id='42' action='modify' visible='true' version='1' lat='37.63006477567' lon='127.08158854916'>
    <tag k='ele' v='0' />
    <tag k='local_x' v='-23.4993' />
    <tag k='local_y' v='19.3234' />
  </node>
  <node id='45' action='modify' visible='true' version='1' lat='37.63006998133' lon='127.08161113732'>
    <tag k='ele' v='0' />
    <tag k='local_x' v='-24.4437' />
    <tag k='local_y' v='21.184' />
  </node>
  <node id='46' action='modify' visible='true' version='1' lat='37.63006771877' lon='127.0815885509'>
    <tag k='ele' v='0' />
    <tag k='local_x' v='-23.8244' />
    <tag k='local_y' v='19.2631' />
  </node>
  <node id='47' action='modify' visible='true' version='1' lat='37.6300738346' lon='127.08161120445'>
    <tag k='ele' v='0' />
    <tag k='local_x' v='-24.8704' />
    <tag k='local_y' v='21.1107' />
  </node>
  <node id='48' action='modify' visible='true' version='1' lat='37.63007066176' lon='127.08158857787'>
    <tag k='ele' v='0' />
    <tag k='local_x' v='-24.1499' />
    <tag k='local_y' v='19.205' />
  </node>
  <node id='49' action='modify' visible='true' version='1' lat='37.63012386234' lon='127.08156598373'>
    <tag k='ele' v='0' />
    <tag k='local_x' v='-29.6565' />
    <tag k='local_y' v='16.1442' />
  </node>
  <node id='50' action='modify' visible='true' version='1' lat='37.63010809528' lon='127.08156150223'>
    <tag k='ele' v='0' />
    <tag k='local_x' v='-27.8417' />
    <tag k='local_y' v='16.0777' />
  </node>
  <node id='51' action='modify' visible='true' version='1' lat='37.63014482427' lon='127.08143116689'>
    <tag k='ele' v='0' />
    <tag k='local_x' v='-29.7669' />
    <tag k='local_y' v='3.9705' />
  </node>
  <node id='53' action='modify' visible='true' version='1' lat='37.63012986615' lon='127.08142734913'>
    <tag k='ele' v='0' />
    <tag k='local_x' v='-28.0523' />
    <tag k='local_y' v='3.9452' />
  </node>
  <node id='56' action='modify' visible='true' version='1' lat='37.6301451379' lon='127.0814265419'>
    <tag k='ele' v='0' />
    <tag k='local_x' v='-29.7259' />
    <tag k='local_y' v='3.5612' />
  </node>
  <node id='58' action='modify' visible='true' version='1' lat='37.63012967647' lon='127.08142456401'>
    <tag k='ele' v='0' />
    <tag k='local_x' v='-27.9858' />
    <tag k='local_y' v='3.7065' />
  </node>
  <node id='61' action='modify' visible='true' version='1' lat='37.63014553682' lon='127.08142192782'>
    <tag k='ele' v='0' />
    <tag k='local_x' v='-29.6945' />
    <tag k='local_y' v='3.1511' />
  </node>
  <node id='62' action='modify' visible='true' version='1' lat='37.63012953912' lon='127.08142177402'>
    <tag k='ele' v='0' />
    <tag k='local_x' v='-27.925' />
    <tag k='local_y' v='3.4663' />
  </node>
  <node id='63' action='modify' visible='true' version='1' lat='37.63014567017' lon='127.08141729131'>
    <tag k='ele' v='0' />
    <tag k='local_x' v='-29.6334' />
    <tag k='local_y' v='2.7445' />
  </node>
  <node id='64' action='modify' visible='true' version='1' lat='37.63012923823' lon='127.0814190063'>
    <tag k='ele' v='0' />
    <tag k='local_x' v='-27.8465' />
    <tag k='local_y' v='3.2314' />
  </node>
  <node id='65' action='modify' visible='true' version='1' lat='37.63010457356' lon='127.08137373973'>
    <tag k='ele' v='0' />
    <tag k='local_x' v='-24.3819' />
    <tag k='local_y' v='-0.2049' />
  </node>
  <node id='66' action='modify' visible='true' version='1' lat='37.63010138491' lon='127.08139601418'>
    <tag k='ele' v='0' />
    <tag k='local_x' v='-24.394' />
    <tag k='local_y' v='1.8008' />
  </node>
  <node id='67' action='modify' visible='true' version='1' lat='37.63010232193' lon='127.08138481896'>
    <tag k='ele' v='0' />
    <tag k='local_x' v='-24.3144' />
    <tag k='local_y' v='0.8064' />
  </node>
  <node id='68' action='modify' visible='true' version='1' lat='37.63009372745' lon='127.08138286116'>
    <tag k='ele' v='0' />
    <tag k='local_x' v='-23.3331' />
    <tag k='local_y' v='0.8124' />
  </node>
  <node id='69' action='modify' visible='true' version='1' lat='37.63008513402' lon='127.08138090245'>
    <tag k='ele' v='0' />
    <tag k='local_x' v='-22.3519' />
    <tag k='local_y' v='0.8183' />
  </node>
  <node id='70' action='modify' visible='true' version='1' lat='37.63007653971' lon='127.08137894354'>
    <tag k='ele' v='0' />
    <tag k='local_x' v='-21.3706' />
    <tag k='local_y' v='0.8242' />
  </node>
  <node id='71' action='modify' visible='true' version='1' lat='37.63006794627' lon='127.08137698482'>
    <tag k='ele' v='0' />
    <tag k='local_x' v='-20.3894' />
    <tag k='local_y' v='0.8301' />
  </node>
  <node id='72' action='modify' visible='true' version='1' lat='37.63005935196' lon='127.08137502591'>
    <tag k='ele' v='0' />
    <tag k='local_x' v='-19.4081' />
    <tag k='local_y' v='0.836' />
  </node>
  <node id='73' action='modify' visible='true' version='1' lat='37.63005075765' lon='127.08137306699'>
    <tag k='ele' v='0' />
    <tag k='local_x' v='-18.4268' />
    <tag k='local_y' v='0.8419' />
  </node>
  <node id='74' action='modify' visible='true' version='1' lat='37.6300421642' lon='127.08137110828'>
    <tag k='ele' v='0' />
    <tag k='local_x' v='-17.4456' />
    <tag k='local_y' v='0.8478' />
  </node>
  <node id='75' action='modify' visible='true' version='1' lat='37.63003356989' lon='127.08136914936'>
    <tag k='ele' v='0' />
    <tag k='local_x' v='-16.4643' />
    <tag k='local_y' v='0.8537' />
  </node>
  <node id='76' action='modify' visible='true' version='1' lat='37.63002497645' lon='127.08136719064'>
    <tag k='ele' v='0' />
    <tag k='local_x' v='-15.4831' />
    <tag k='local_y' v='0.8596' />
  </node>
  <node id='77' action='modify' visible='true' version='1' lat='37.63001638213' lon='127.08136523171'>
    <tag k='ele' v='0' />
    <tag k='local_x' v='-14.5018' />
    <tag k='local_y' v='0.8655' />
  </node>
  <node id='78' action='modify' visible='true' version='1' lat='37.63000778869' lon='127.081363273'>
    <tag k='ele' v='0' />
    <tag k='local_x' v='-13.5206' />
    <tag k='local_y' v='0.8714' />
  </node>
  <node id='79' action='modify' visible='true' version='1' lat='37.62999919437' lon='127.08136131407'>
    <tag k='ele' v='0' />
    <tag k='local_x' v='-12.5393' />
    <tag k='local_y' v='0.8773' />
  </node>
  <node id='80' action='modify' visible='true' version='1' lat='37.62999060005' lon='127.08135935513'>
    <tag k='ele' v='0' />
    <tag k='local_x' v='-11.558' />
    <tag k='local_y' v='0.8832' />
  </node>
  <node id='81' action='modify' visible='true' version='1' lat='37.62998200661' lon='127.08135739642'>
    <tag k='ele' v='0' />
    <tag k='local_x' v='-10.5768' />
    <tag k='local_y' v='0.8891' />
  </node>
  <node id='82' action='modify' visible='true' version='1' lat='37.62997341228' lon='127.08135543748'>
    <tag k='ele' v='0' />
    <tag k='local_x' v='-9.5955' />
    <tag k='local_y' v='0.895' />
  </node>
  <node id='83' action='modify' visible='true' version='1' lat='37.62996481884' lon='127.08135347876'>
    <tag k='ele' v='0' />
    <tag k='local_x' v='-8.6143' />
    <tag k='local_y' v='0.9009' />
  </node>
  <node id='84' action='modify' visible='true' version='1' lat='37.62995622452' lon='127.08135151983'>
    <tag k='ele' v='0' />
    <tag k='local_x' v='-7.633' />
    <tag k='local_y' v='0.9068' />
  </node>
  <node id='85' action='modify' visible='true' version='1' lat='37.62994763019' lon='127.08134956089'>
    <tag k='ele' v='0' />
    <tag k='local_x' v='-6.6517' />
    <tag k='local_y' v='0.9127' />
  </node>
  <node id='86' action='modify' visible='true' version='1' lat='37.62993903674' lon='127.08134760216'>
    <tag k='ele' v='0' />
    <tag k='local_x' v='-5.6705' />
    <tag k='local_y' v='0.9186' />
  </node>
  <node id='87' action='modify' visible='true' version='1' lat='37.62993044242' lon='127.08134564322'>
    <tag k='ele' v='0' />
    <tag k='local_x' v='-4.6892' />
    <tag k='local_y' v='0.9245' />
  </node>
  <node id='88' action='modify' visible='true' version='1' lat='37.62992184897' lon='127.08134368449'>
    <tag k='ele' v='0' />
    <tag k='local_x' v='-3.708' />
    <tag k='local_y' v='0.9304' />
  </node>
  <node id='89' action='modify' visible='true' version='1' lat='37.62991325464' lon='127.08134172555'>
    <tag k='ele' v='0' />
    <tag k='local_x' v='-2.7267' />
    <tag k='local_y' v='0.9363' />
  </node>
  <node id='90' action='modify' visible='true' version='1' lat='37.62990466031' lon='127.08133976661'>
    <tag k='ele' v='0' />
    <tag k='local_x' v='-1.7454' />
    <tag k='local_y' v='0.9422' />
  </node>
  <node id='91' action='modify' visible='true' version='1' lat='37.62989606685' lon='127.08133780787'>
    <tag k='ele' v='0' />
    <tag k='local_x' v='-0.7642' />
    <tag k='local_y' v='0.9481' />
  </node>
  <node id='92' action='modify' visible='true' version='1' lat='37.62988747252' lon='127.08133584893'>
    <tag k='ele' v='0' />
    <tag k='local_x' v='0.2171' />
    <tag k='local_y' v='0.954' />
  </node>
  <node id='93' action='modify' visible='true' version='1' lat='37.62987887907' lon='127.08133389019'>
    <tag k='ele' v='0' />
    <tag k='local_x' v='1.1983' />
    <tag k='local_y' v='0.9599' />
  </node>
  <node id='94' action='modify' visible='true' version='1' lat='37.62987028474' lon='127.08133193124'>
    <tag k='ele' v='0' />
    <tag k='local_x' v='2.1796' />
    <tag k='local_y' v='0.9658' />
  </node>
  <node id='95' action='modify' visible='true' version='1' lat='37.62986169024' lon='127.08132997341'>
    <tag k='ele' v='0' />
    <tag k='local_x' v='3.1609' />
    <tag k='local_y' v='0.9718' />
  </node>
  <node id='97' action='modify' visible='true' version='1' lat='37.62985518892' lon='127.08133148263'>
    <tag k='ele' v='0' />
    <tag k='local_x' v='3.8543' />
    <tag k='local_y' v='1.2368' />
  </node>
  <node id='98' action='modify' visible='true' version='1' lat='37.62984868657' lon='127.08133299274'>
    <tag k='ele' v='0' />
    <tag k='local_x' v='4.5478' />
    <tag k='local_y' v='1.5019' />
  </node>
  <node id='99' action='modify' visible='true' version='1' lat='37.62984218508' lon='127.08133450306'>
    <tag k='ele' v='0' />
    <tag k='local_x' v='5.2412' />
    <tag k='local_y' v='1.767' />
  </node>
  <node id='100' action='modify' visible='true' version='1' lat='37.62983596225' lon='127.08133731094'>
    <tag k='ele' v='0' />
    <tag k='local_x' v='5.8826' />
    <tag k='local_y' v='2.1394' />
  </node>
  <node id='101' action='modify' visible='true' version='1' lat='37.62982980662' lon='127.0813404171'>
    <tag k='ele' v='0' />
    <tag k='local_x' v='6.5117' />
    <tag k='local_y' v='2.5364' />
  </node>
  <node id='102' action='modify' visible='true' version='1' lat='37.62982459075' lon='127.08134517417'>
    <tag k='ele' v='0' />
    <tag k='local_x' v='7.01' />
    <tag k='local_y' v='3.0579' />
  </node>
  <node id='103' action='modify' visible='true' version='1' lat='37.62982042638' lon='127.08135171415'>
    <tag k='ele' v='0' />
    <tag k='local_x' v='7.363' />
    <tag k='local_y' v='3.7131' />
  </node>
  <node id='104' action='modify' visible='true' version='1' lat='37.62981626114' lon='127.08135825393'>
    <tag k='ele' v='0' />
    <tag k='local_x' v='7.7161' />
    <tag k='local_y' v='4.3683' />
  </node>
  <node id='105' action='modify' visible='true' version='1' lat='37.62981335067' lon='127.08136562575'>
    <tag k='ele' v='0' />
    <tag k='local_x' v='7.917' />
    <tag k='local_y' v='5.0702' />
  </node>
  <node id='106' action='modify' visible='true' version='1' lat='37.62981146676' lon='127.08137369542'>
    <tag k='ele' v='0' />
    <tag k='local_x' v='7.9931' />
    <tag k='local_y' v='5.8118' />
  </node>
  <node id='107' action='modify' visible='true' version='1' lat='37.62980958269' lon='127.08138176621'>
    <tag k='ele' v='0' />
    <tag k='local_x' v='8.0692' />
    <tag k='local_y' v='6.5535' />
  </node>
  <node id='109' action='modify' visible='true' version='1' lat='37.62980812772' lon='127.08139214243'>
    <tag k='ele' v='0' />
    <tag k='local_x' v='8.0602' />
    <tag k='local_y' v='7.4872' />
  </node>
  <node id='110' action='modify' visible='true' version='1' lat='37.62980667274' lon='127.08140251866'>
    <tag k='ele' v='0' />
    <tag k='local_x' v='8.0512' />
    <tag k='local_y' v='8.4209' />
  </node>
  <node id='111' action='modify' visible='true' version='1' lat='37.62980521777' lon='127.08141289488'>
    <tag k='ele' v='0' />
    <tag k='local_x' v='8.0422' />
    <tag k='local_y' v='9.3546' />
  </node>
  <node id='112' action='modify' visible='true' version='1' lat='37.62980376192' lon='127.08142327091'>
    <tag k='ele' v='0' />
    <tag k='local_x' v='8.0333' />
    <tag k='local_y' v='10.2883' />
  </node>
  <node id='113' action='modify' visible='true' version='1' lat='37.62980230694' lon='127.08143364713'>
    <tag k='ele' v='0' />
    <tag k='local_x' v='8.0243' />
    <tag k='local_y' v='11.222' />
  </node>
  <node id='114' action='modify' visible='true' version='1' lat='37.62980085196' lon='127.08144402337'>
    <tag k='ele' v='0' />
    <tag k='local_x' v='8.0153' />
    <tag k='local_y' v='12.1557' />
  </node>
  <node id='115' action='modify' visible='true' version='1' lat='37.62979939699' lon='127.0814543996'>
    <tag k='ele' v='0' />
    <tag k='local_x' v='8.0063' />
    <tag k='local_y' v='13.0894' />
  </node>
  <node id='116' action='modify' visible='true' version='1' lat='37.62979794202' lon='127.08146477582'>
    <tag k='ele' v='0' />
    <tag k='local_x' v='7.9973' />
    <tag k='local_y' v='14.0231' />
  </node>
  <node id='117' action='modify' visible='true' version='1' lat='37.62979648704' lon='127.08147515206'>
    <tag k='ele' v='0' />
    <tag k='local_x' v='7.9883' />
    <tag k='local_y' v='14.9568' />
  </node>
  <node id='118' action='modify' visible='true' version='1' lat='37.62979506264' lon='127.08148357922'>
    <tag k='ele' v='0' />
    <tag k='local_x' v='8.0078' />
    <tag k='local_y' v='15.7201' />
  </node>
  <node id='120' action='modify' visible='true' version='1' lat='37.62979534287' lon='127.08149060135'>
    <tag k='ele' v='0' />
    <tag k='local_x' v='7.862' />
    <tag k='local_y' v='16.326' />
  </node>
  <node id='121' action='modify' visible='true' version='1' lat='37.62979564357' lon='127.08149567546'>
    <tag k='ele' v='0' />
    <tag k='local_x' v='7.7458' />
    <tag k='local_y' v='16.7618' />
  </node>
  <node id='122' action='modify' visible='true' version='1' lat='37.62979588373' lon='127.08150075481'>
    <tag k='ele' v='0' />
    <tag k='local_x' v='7.6362' />
    <tag k='local_y' v='17.1993' />
  </node>
  <node id='123' action='modify' visible='true' version='1' lat='37.6297965193' lon='127.08150577472'>
    <tag k='ele' v='0' />
    <tag k='local_x' v='7.4839' />
    <tag k='local_y' v='17.6235' />
  </node>
  <node id='124' action='modify' visible='true' version='1' lat='37.62979757246' lon='127.081510683'>
    <tag k='ele' v='0' />
    <tag k='local_x' v='7.2873' />
    <tag k='local_y' v='18.0294' />
  </node>
  <node id='125' action='modify' visible='true' version='1' lat='37.62979899311' lon='127.08151543917'>
    <tag k='ele' v='0' />
    <tag k='local_x' v='7.0526' />
    <tag k='local_y' v='18.4145' />
  </node>
  <node id='126' action='modify' visible='true' version='1' lat='37.62980065836' lon='127.08152006587'>
    <tag k='ele' v='0' />
    <tag k='local_x' v='6.793' />
    <tag k='local_y' v='18.7833' />
  </node>
  <node id='127' action='modify' visible='true' version='1' lat='37.62980227188' lon='127.08152472399'>
    <tag k='ele' v='0' />
    <tag k='local_x' v='6.5386' />
    <tag k='local_y' v='19.1559' />
  </node>
  <node id='128' action='modify' visible='true' version='1' lat='37.62980492413' lon='127.08152832864'>
    <tag k='ele' v='0' />
    <tag k='local_x' v='6.1867' />
    <tag k='local_y' v='19.4154' />
  </node>
  <node id='129' action='modify' visible='true' version='1' lat='37.62980794421' lon='127.08153168707'>
    <tag k='ele' v='0' />
    <tag k='local_x' v='5.7982' />
    <tag k='local_y' v='19.6459' />
  </node>
  <node id='130' action='modify' visible='true' version='1' lat='37.62984035571' lon='127.0815502987'>
    <tag k='ele' v='0' />
    <tag k='local_x' v='1.9139' />
    <tag k='local_y' v='20.6013' />
  </node>
  <node id='132' action='modify' visible='true' version='1' lat='37.62984888272' lon='127.08155220502'>
    <tag k='ele' v='0' />
    <tag k='local_x' v='0.9409' />
    <tag k='local_y' v='20.5922' />
  </node>
  <node id='133' action='modify' visible='true' version='1' lat='37.62985740955' lon='127.08155411245'>
    <tag k='ele' v='0' />
    <tag k='local_x' v='-0.0321' />
    <tag k='local_y' v='20.5832' />
  </node>
  <node id='134' action='modify' visible='true' version='1' lat='37.62986593655' lon='127.08155601878'>
    <tag k='ele' v='0' />
    <tag k='local_x' v='-1.0051' />
    <tag k='local_y' v='20.5741' />
  </node>
  <node id='135' action='modify' visible='true' version='1' lat='37.62987446339' lon='127.08155792622'>
    <tag k='ele' v='0' />
    <tag k='local_x' v='-1.9781' />
    <tag k='local_y' v='20.5651' />
  </node>
  <node id='136' action='modify' visible='true' version='1' lat='37.62988299023' lon='127.08155983365'>
    <tag k='ele' v='0' />
    <tag k='local_x' v='-2.9511' />
    <tag k='local_y' v='20.5561' />
  </node>
  <node id='137' action='modify' visible='true' version='1' lat='37.62989151722' lon='127.08156173997'>
    <tag k='ele' v='0' />
    <tag k='local_x' v='-3.9241' />
    <tag k='local_y' v='20.547' />
  </node>
  <node id='138' action='modify' visible='true' version='1' lat='37.62990004405' lon='127.0815636474'>
    <tag k='ele' v='0' />
    <tag k='local_x' v='-4.8971' />
    <tag k='local_y' v='20.538' />
  </node>
  <node id='139' action='modify' visible='true' version='1' lat='37.62990857104' lon='127.08156555372'>
    <tag k='ele' v='0' />
    <tag k='local_x' v='-5.8701' />
    <tag k='local_y' v='20.5289' />
  </node>
  <node id='140' action='modify' visible='true' version='1' lat='37.62991709788' lon='127.08156746114'>
    <tag k='ele' v='0' />
    <tag k='local_x' v='-6.8431' />
    <tag k='local_y' v='20.5199' />
  </node>
  <node id='141' action='modify' visible='true' version='1' lat='37.6299256247' lon='127.08156936857'>
    <tag k='ele' v='0' />
    <tag k='local_x' v='-7.8161' />
    <tag k='local_y' v='20.5109' />
  </node>
  <node id='142' action='modify' visible='true' version='1' lat='37.62993415169' lon='127.08157127488'>
    <tag k='ele' v='0' />
    <tag k='local_x' v='-8.7891' />
    <tag k='local_y' v='20.5018' />
  </node>
  <node id='143' action='modify' visible='true' version='1' lat='37.62994267852' lon='127.08157318231'>
    <tag k='ele' v='0' />
    <tag k='local_x' v='-9.7621' />
    <tag k='local_y' v='20.4928' />
  </node>
  <node id='144' action='modify' visible='true' version='1' lat='37.62995120535' lon='127.08157508973'>
    <tag k='ele' v='0' />
    <tag k='local_x' v='-10.7351' />
    <tag k='local_y' v='20.4838' />
  </node>
  <node id='145' action='modify' visible='true' version='1' lat='37.62995973234' lon='127.08157699604'>
    <tag k='ele' v='0' />
    <tag k='local_x' v='-11.7081' />
    <tag k='local_y' v='20.4747' />
  </node>
  <node id='146' action='modify' visible='true' version='1' lat='37.62996825917' lon='127.08157890346'>
    <tag k='ele' v='0' />
    <tag k='local_x' v='-12.6811' />
    <tag k='local_y' v='20.4657' />
  </node>
  <node id='147' action='modify' visible='true' version='1' lat='37.62997678616' lon='127.08158080977'>
    <tag k='ele' v='0' />
    <tag k='local_x' v='-13.6541' />
    <tag k='local_y' v='20.4566' />
  </node>
  <node id='148' action='modify' visible='true' version='1' lat='37.62998531297' lon='127.08158271719'>
    <tag k='ele' v='0' />
    <tag k='local_x' v='-14.6271' />
    <tag k='local_y' v='20.4476' />
  </node>
  <node id='149' action='modify' visible='true' version='1' lat='37.6299938398' lon='127.0815846246'>
    <tag k='ele' v='0' />
    <tag k='local_x' v='-15.6001' />
    <tag k='local_y' v='20.4386' />
  </node>
  <node id='150' action='modify' visible='true' version='1' lat='37.63000236678' lon='127.08158653091'>
    <tag k='ele' v='0' />
    <tag k='local_x' v='-16.5731' />
    <tag k='local_y' v='20.4295' />
  </node>
  <node id='151' action='modify' visible='true' version='1' lat='37.6300108936' lon='127.08158843832'>
    <tag k='ele' v='0' />
    <tag k='local_x' v='-17.5461' />
    <tag k='local_y' v='20.4205' />
  </node>
  <node id='152' action='modify' visible='true' version='1' lat='37.63001942059' lon='127.08159034462'>
    <tag k='ele' v='0' />
    <tag k='local_x' v='-18.5191' />
    <tag k='local_y' v='20.4114' />
  </node>
  <node id='153' action='modify' visible='true' version='1' lat='37.6300279474' lon='127.08159225204'>
    <tag k='ele' v='0' />
    <tag k='local_x' v='-19.4921' />
    <tag k='local_y' v='20.4024' />
  </node>
  <node id='154' action='modify' visible='true' version='1' lat='37.63003647422' lon='127.08159415945'>
    <tag k='ele' v='0' />
    <tag k='local_x' v='-20.4651' />
    <tag k='local_y' v='20.3934' />
  </node>
  <node id='155' action='modify' visible='true' version='1' lat='37.6300450012' lon='127.08159606574'>
    <tag k='ele' v='0' />
    <tag k='local_x' v='-21.4381' />
    <tag k='local_y' v='20.3843' />
  </node>
  <node id='156' action='modify' visible='true' version='1' lat='37.63005352802' lon='127.08159797315'>
    <tag k='ele' v='0' />
    <tag k='local_x' v='-22.4111' />
    <tag k='local_y' v='20.3753' />
  </node>
  <node id='157' action='modify' visible='true' version='1' lat='37.63006205396' lon='127.08159988035'>
    <tag k='ele' v='0' />
    <tag k='local_x' v='-23.384' />
    <tag k='local_y' v='20.3663' />
  </node>
  <node id='159' action='modify' visible='true' version='1' lat='37.63006539084' lon='127.08160021259'>
    <tag k='ele' v='0' />
    <tag k='local_x' v='-23.758' />
    <tag k='local_y' v='20.3267' />
  </node>
  <node id='162' action='modify' visible='true' version='1' lat='37.63006872702' lon='127.0816005619'>
    <tag k='ele' v='0' />
    <tag k='local_x' v='-24.1322' />
    <tag k='local_y' v='20.2886' />
  </node>
  <node id='163' action='modify' visible='true' version='1' lat='37.63007206642' lon='127.08160084653'>
    <tag k='ele' v='0' />
    <tag k='local_x' v='-24.5057' />
    <tag k='local_y' v='20.2448' />
  </node>
  <node id='165' action='modify' visible='true' version='1' lat='37.63007541111' lon='127.08160100382'>
    <tag k='ele' v='0' />
    <tag k='local_x' v='-24.8777' />
    <tag k='local_y' v='20.1898' />
  </node>
  <node id='167' action='modify' visible='true' version='1' lat='37.6301158353' lon='127.08156484054'>
    <tag k='ele' v='0' />
    <tag k='local_x' v='-28.7512' />
    <tag k='local_y' v='16.2095' />
  </node>
  <node id='169' action='modify' visible='true' version='1' lat='37.63011695926' lon='127.08155919428'>
    <tag k='ele' v='0' />
    <tag k='local_x' v='-28.783' />
    <tag k='local_y' v='15.6946' />
  </node>
  <node id='170' action='modify' visible='true' version='1' lat='37.63011859208' lon='127.08154874174'>
    <tag k='ele' v='0' />
    <tag k='local_x' v='-28.7924' />
    <tag k='local_y' v='14.7506' />
  </node>
  <node id='171' action='modify' visible='true' version='1' lat='37.63012022402' lon='127.08153828899'>
    <tag k='ele' v='0' />
    <tag k='local_x' v='-28.8017' />
    <tag k='local_y' v='13.8066' />
  </node>
  <node id='172' action='modify' visible='true' version='1' lat='37.63012185597' lon='127.08152783625'>
    <tag k='ele' v='0' />
    <tag k='local_x' v='-28.811' />
    <tag k='local_y' v='12.8626' />
  </node>
  <node id='173' action='modify' visible='true' version='1' lat='37.63012348791' lon='127.0815173835'>
    <tag k='ele' v='0' />
    <tag k='local_x' v='-28.8203' />
    <tag k='local_y' v='11.9186' />
  </node>
  <node id='174' action='modify' visible='true' version='1' lat='37.63012512073' lon='127.08150693097'>
    <tag k='ele' v='0' />
    <tag k='local_x' v='-28.8297' />
    <tag k='local_y' v='10.9746' />
  </node>
  <node id='175' action='modify' visible='true' version='1' lat='37.63012675268' lon='127.08149647822'>
    <tag k='ele' v='0' />
    <tag k='local_x' v='-28.839' />
    <tag k='local_y' v='10.0306' />
  </node>
  <node id='176' action='modify' visible='true' version='1' lat='37.63012838462' lon='127.08148602548'>
    <tag k='ele' v='0' />
    <tag k='local_x' v='-28.8483' />
    <tag k='local_y' v='9.0866' />
  </node>
  <node id='177' action='modify' visible='true' version='1' lat='37.63013001744' lon='127.08147557295'>
    <tag k='ele' v='0' />
    <tag k='local_x' v='-28.8577' />
    <tag k='local_y' v='8.1426' />
  </node>
  <node id='178' action='modify' visible='true' version='1' lat='37.63013164938' lon='127.08146512021'>
    <tag k='ele' v='0' />
    <tag k='local_x' v='-28.867' />
    <tag k='local_y' v='7.1986' />
  </node>
  <node id='179' action='modify' visible='true' version='1' lat='37.63013328132' lon='127.08145466748'>
    <tag k='ele' v='0' />
    <tag k='local_x' v='-28.8763' />
    <tag k='local_y' v='6.2546' />
  </node>
  <node id='180' action='modify' visible='true' version='1' lat='37.63013491327' lon='127.08144421474'>
    <tag k='ele' v='0' />
    <tag k='local_x' v='-28.8856' />
    <tag k='local_y' v='5.3106' />
  </node>
  <node id='181' action='modify' visible='true' version='1' lat='37.63013654609' lon='127.08143376221'>
    <tag k='ele' v='0' />
    <tag k='local_x' v='-28.895' />
    <tag k='local_y' v='4.3666' />
  </node>
  <node id='182' action='modify' visible='true' version='1' lat='37.63013737268' lon='127.08142874844'>
    <tag k='ele' v='0' />
    <tag k='local_x' v='-28.9043' />
    <tag k='local_y' v='3.9129' />
  </node>
  <node id='184' action='modify' visible='true' version='1' lat='37.63013785467' lon='127.08141992915'>
    <tag k='ele' v='0' />
    <tag k='local_x' v='-28.8133' />
    <tag k='local_y' v='3.1348' />
  </node>
  <node id='186' action='modify' visible='true' version='1' lat='37.63013755434' lon='127.08141654622'>
    <tag k='ele' v='0' />
    <tag k='local_x' v='-28.7248' />
    <tag k='local_y' v='2.8463' />
  </node>
  <node id='188' action='modify' visible='true' version='1' lat='37.63013703741' lon='127.08141320748'>
    <tag k='ele' v='0' />
    <tag k='local_x' v='-28.6131' />
    <tag k='local_y' v='2.5661' />
  </node>
  <node id='189' action='modify' visible='true' version='1' lat='37.63010383204' lon='127.08138510045'>
    <tag k='ele' v='0' />
    <tag k='local_x' v='-24.4858' />
    <tag k='local_y' v='0.7999' />
  </node>
  <node id='191' action='modify' visible='true' version='1' lat='37.62984825158' lon='127.08134418465'>
    <tag k='ele' v='0' />
    <tag k='local_x' v='4.4128' />
    <tag k='local_y' v='2.4857' />
  </node>
  <node id='192' action='modify' visible='true' version='1' lat='37.62984487047' lon='127.08134512318'>
    <tag k='ele' v='0' />
    <tag k='local_x' v='4.7709' />
    <tag k='local_y' v='2.6369' />
  </node>
  <node id='193' action='modify' visible='true' version='1' lat='37.62984146641' lon='127.08134629624'>
    <tag k='ele' v='0' />
    <tag k='local_x' v='5.1277' />
    <tag k='local_y' v='2.809' />
  </node>
  <node id='194' action='modify' visible='true' version='1' lat='37.62983815146' lon='127.08134753394'>
    <tag k='ele' v='0' />
    <tag k='local_x' v='5.4736' />
    <tag k='local_y' v='2.9849' />
  </node>
  <node id='195' action='modify' visible='true' version='1' lat='37.62983530334' lon='127.08134884728'>
    <tag k='ele' v='0' />
    <tag k='local_x' v='5.7667' />
    <tag k='local_y' v='3.1578' />
  </node>
  <node id='196' action='modify' visible='true' version='1' lat='37.62983293789' lon='127.08135036169'>
    <tag k='ele' v='0' />
    <tag k='local_x' v='6.0032' />
    <tag k='local_y' v='3.3383' />
  </node>
  <node id='197' action='modify' visible='true' version='1' lat='37.6298308404' lon='127.08135226764'>
    <tag k='ele' v='0' />
    <tag k='local_x' v='6.2037' />
    <tag k='local_y' v='3.5474' />
  </node>
  <node id='198' action='modify' visible='true' version='1' lat='37.62982879972' lon='127.08135470705'>
    <tag k='ele' v='0' />
    <tag k='local_x' v='6.3892' />
    <tag k='local_y' v='3.8018' />
  </node>
  <node id='199' action='modify' visible='true' version='1' lat='37.62982681051' lon='127.08135761208'>
    <tag k='ele' v='0' />
    <tag k='local_x' v='6.5614' />
    <tag k='local_y' v='4.0957' />
  </node>
  <node id='200' action='modify' visible='true' version='1' lat='37.62982494886' lon='127.0813608296'>
    <tag k='ele' v='0' />
    <tag k='local_x' v='6.7144' />
    <tag k='local_y' v='4.4142' />
  </node>
  <node id='201' action='modify' visible='true' version='1' lat='37.62982328582' lon='127.08136420991'>
    <tag k='ele' v='0' />
    <tag k='local_x' v='6.8428' />
    <tag k='local_y' v='4.7428' />
  </node>
  <node id='202' action='modify' visible='true' version='1' lat='37.62982193026' lon='127.0813675376'>
    <tag k='ele' v='0' />
    <tag k='local_x' v='6.9381' />
    <tag k='local_y' v='5.0605' />
  </node>
  <node id='203' action='modify' visible='true' version='1' lat='37.62982090765' lon='127.08137101957'>
    <tag k='ele' v='0' />
    <tag k='local_x' v='6.9941' />
    <tag k='local_y' v='5.3848' />
  </node>
  <node id='204' action='modify' visible='true' version='1' lat='37.6298200404' lon='127.08137504218'>
    <tag k='ele' v='0' />
    <tag k='local_x' v='7.0241' />
    <tag k='local_y' v='5.753' />
  </node>
  <node id='205' action='modify' visible='true' version='1' lat='37.62981917717' lon='127.08137970405'>
    <tag k='ele' v='0' />
    <tag k='local_x' v='7.0432' />
    <tag k='local_y' v='6.1768' />
  </node>
  <node id='206' action='modify' visible='true' version='1' lat='37.62984481988' lon='127.08132213882'>
    <tag k='ele' v='0' />
    <tag k='local_x' v='5.1524' />
    <tag k='local_y' v='0.6359' />
  </node>
  <node id='207' action='modify' visible='true' version='1' lat='37.62984069379' lon='127.08132327823'>
    <tag k='ele' v='0' />
    <tag k='local_x' v='5.5895' />
    <tag k='local_y' v='0.8199' />
  </node>
  <node id='208' action='modify' visible='true' version='1' lat='37.62983667351' lon='127.08132464463'>
    <tag k='ele' v='0' />
    <tag k='local_x' v='6.0112' />
    <tag k='local_y' v='1.0215' />
  </node>
  <node id='209' action='modify' visible='true' version='1' lat='37.62983260907' lon='127.08132616252'>
    <tag k='ele' v='0' />
    <tag k='local_x' v='6.4353' />
    <tag k='local_y' v='1.2372' />
  </node>
  <node id='210' action='modify' visible='true' version='1' lat='37.62982823181' lon='127.08132820935'>
    <tag k='ele' v='0' />
    <tag k='local_x' v='6.8853' />
    <tag k='local_y' v='1.5054' />
  </node>
  <node id='211' action='modify' visible='true' version='1' lat='37.62982374815' lon='127.08133110935'>
    <tag k='ele' v='0' />
    <tag k='local_x' v='7.3331' />
    <tag k='local_y' v='1.8501' />
  </node>
  <node id='212' action='modify' visible='true' version='1' lat='37.62981959637' lon='127.08133485565'>
    <tag k='ele' v='0' />
    <tag k='local_x' v='7.7304' />
    <tag k='local_y' v='2.2617' />
  </node>
  <node id='213' action='modify' visible='true' version='1' lat='37.62981602465' lon='127.08133908086'>
    <tag k='ele' v='0' />
    <tag k='local_x' v='8.0558' />
    <tag k='local_y' v='2.7031' />
  </node>
  <node id='214' action='modify' visible='true' version='1' lat='37.62981295307' lon='127.08134352964'>
    <tag k='ele' v='0' />
    <tag k='local_x' v='8.3223' />
    <tag k='local_y' v='3.1537' />
  </node>
  <node id='215' action='modify' visible='true' version='1' lat='37.62981024421' lon='127.08134817647'>
    <tag k='ele' v='0' />
    <tag k='local_x' v='8.5455' />
    <tag k='local_y' v='3.6141' />
  </node>
  <node id='216' action='modify' visible='true' version='1' lat='37.62980781607' lon='127.0813530858'>
    <tag k='ele' v='0' />
    <tag k='local_x' v='8.7334' />
    <tag k='local_y' v='4.0916' />
  </node>
  <node id='217' action='modify' visible='true' version='1' lat='37.62980564963' lon='127.08135844718'>
    <tag k='ele' v='0' />
    <tag k='local_x' v='8.885' />
    <tag k='local_y' v='4.6031' />
  </node>
  <node id='218' action='modify' visible='true' version='1' lat='37.62980397575' lon='127.08136411415'>
    <tag k='ele' v='0' />
    <tag k='local_x' v='8.9772' />
    <tag k='local_y' v='5.1311' />
  </node>
  <node id='219' action='modify' visible='true' version='1' lat='37.62980280337' lon='127.08136951249'>
    <tag k='ele' v='0' />
    <tag k='local_x' v='9.0184' />
    <tag k='local_y' v='5.6254' />
  </node>
  <node id='220' action='modify' visible='true' version='1' lat='37.62980190363' lon='127.08137435976'>
    <tag k='ele' v='0' />
    <tag k='local_x' v='9.0385' />
    <tag k='local_y' v='6.0661' />
  </node>
  <node id='221' action='modify' visible='true' version='1' lat='37.6297878754' lon='127.08151057642'>
    <tag k='ele' v='0' />
    <tag k='local_x' v='8.3601' />
    <tag k='local_y' v='18.2193' />
  </node>
  <node id='222' action='modify' visible='true' version='1' lat='37.62978909065' lon='127.0815162244'>
    <tag k='ele' v='0' />
    <tag k='local_x' v='8.1335' />
    <tag k='local_y' v='18.6863' />
  </node>
  <node id='223' action='modify' visible='true' version='1' lat='37.62979066231' lon='127.08152184391'>
    <tag k='ele' v='0' />
    <tag k='local_x' v='7.868' />
    <tag k='local_y' v='19.1435' />
  </node>
  <node id='224' action='modify' visible='true' version='1' lat='37.62979278672' lon='127.08152752143'>
    <tag k='ele' v='0' />
    <tag k='local_x' v='7.5405' />
    <tag k='local_y' v='19.5944' />
  </node>
  <node id='225' action='modify' visible='true' version='1' lat='37.62979555687' lon='127.08153297123'>
    <tag k='ele' v='0' />
    <tag k='local_x' v='7.1454' />
    <tag k='local_y' v='20.0122' />
  </node>
  <node id='226' action='modify' visible='true' version='1' lat='37.62979882833' lon='127.0815378114'>
    <tag k='ele' v='0' />
    <tag k='local_x' v='6.7049' />
    <tag k='local_y' v='20.3666' />
  </node>
  <node id='227' action='modify' visible='true' version='1' lat='37.62980233976' lon='127.0815419665'>
    <tag k='ele' v='0' />
    <tag k='local_x' v='6.2491' />
    <tag k='local_y' v='20.6564' />
  </node>
  <node id='228' action='modify' visible='true' version='1' lat='37.62980598794' lon='127.08154558327'>
    <tag k='ele' v='0' />
    <tag k='local_x' v='5.787' />
    <tag k='local_y' v='20.8965' />
  </node>
  <node id='229' action='modify' visible='true' version='1' lat='37.62980976103' lon='127.08154879668'>
    <tag k='ele' v='0' />
    <tag k='local_x' v='5.3177' />
    <tag k='local_y' v='21.0989' />
  </node>
  <node id='230' action='modify' visible='true' version='1' lat='37.62981373939' lon='127.08155170605'>
    <tag k='ele' v='0' />
    <tag k='local_x' v='4.8307' />
    <tag k='local_y' v='21.2706' />
  </node>
  <node id='231' action='modify' visible='true' version='1' lat='37.62981798418' lon='127.08155424083'>
    <tag k='ele' v='0' />
    <tag k='local_x' v='4.3204' />
    <tag k='local_y' v='21.4042' />
  </node>
  <node id='232' action='modify' visible='true' version='1' lat='37.62982237113' lon='127.08155627414'>
    <tag k='ele' v='0' />
    <tag k='local_x' v='3.8026' />
    <tag k='local_y' v='21.4912' />
  </node>
  <node id='233' action='modify' visible='true' version='1' lat='37.62982667254' lon='127.08155780281'>
    <tag k='ele' v='0' />
    <tag k='local_x' v='3.3025' />
    <tag k='local_y' v='21.536' />
  </node>
  <node id='234' action='modify' visible='true' version='1' lat='37.62983072857' lon='127.08155900153'>
    <tag k='ele' v='0' />
    <tag k='local_x' v='2.8349' />
    <tag k='local_y' v='21.5571' />
  </node>
  <node id='235' action='modify' visible='true' version='1' lat='37.62983449947' lon='127.08156006527'>
    <tag k='ele' v='0' />
    <tag k='local_x' v='2.401' />
    <tag k='local_y' v='21.5723' />
  </node>
  <node id='236' action='modify' visible='true' version='1' lat='37.62981115157' lon='127.08153474066'>
    <tag k='ele' v='0' />
    <tag k='local_x' v='5.394' />
    <tag k='local_y' v='19.846' />
  </node>
  <node id='237' action='modify' visible='true' version='1' lat='37.62981434777' lon='127.08153781459'>
    <tag k='ele' v='0' />
    <tag k='local_x' v='4.9907' />
    <tag k='local_y' v='20.0481' />
  </node>
  <node id='238' action='modify' visible='true' version='1' lat='37.62981761458' lon='127.08154076626'>
    <tag k='ele' v='0' />
    <tag k='local_x' v='4.5816' />
    <tag k='local_y' v='20.2381' />
  </node>
  <node id='239' action='modify' visible='true' version='1' lat='37.62982110732' lon='127.08154324998'>
    <tag k='ele' v='0' />
    <tag k='local_x' v='4.1552' />
    <tag k='local_y' v='20.3827' />
  </node>
  <node id='240' action='modify' visible='true' version='1' lat='37.62982491952' lon='127.08154481137'>
    <tag k='ele' v='0' />
    <tag k='local_x' v='3.7086' />
    <tag k='local_y' v='20.4404' />
  </node>
  <node id='241' action='modify' visible='true' version='1' lat='37.62982877264' lon='127.08154621252'>
    <tag k='ele' v='0' />
    <tag k='local_x' v='3.2601' />
    <tag k='local_y' v='20.4833' />
  </node>
  <node id='242' action='modify' visible='true' version='1' lat='37.62983263628' lon='127.08154756104'>
    <tag k='ele' v='0' />
    <tag k='local_x' v='2.8113' />
    <tag k='local_y' v='20.5214' />
  </node>
  <node id='243' action='modify' visible='true' version='1' lat='37.62983649624' lon='127.0815489282'>
    <tag k='ele' v='0' />
    <tag k='local_x' v='2.3626' />
    <tag k='local_y' v='20.5612' />
  </node>
  <node id='244' action='modify' visible='true' version='1' lat='37.62980522532' lon='127.08150549376'>
    <tag k='ele' v='0' />
    <tag k='local_x' v='6.5269' />
    <tag k='local_y' v='17.4202' />
  </node>
  <node id='245' action='modify' visible='true' version='1' lat='37.62980608217' lon='127.08150945338'>
    <tag k='ele' v='0' />
    <tag k='local_x' v='6.3675' />
    <tag k='local_y' v='17.7475' />
  </node>
  <node id='246' action='modify' visible='true' version='1' lat='37.6298071272' lon='127.08151322433'>
    <tag k='ele' v='0' />
    <tag k='local_x' v='6.1904' />
    <tag k='local_y' v='18.0545' />
  </node>
  <node id='247' action='modify' visible='true' version='1' lat='37.62980835659' lon='127.0815165451'>
    <tag k='ele' v='0' />
    <tag k='local_x' v='6.0003' />
    <tag k='local_y' v='18.3185' />
  </node>
  <node id='248' action='modify' visible='true' version='1' lat='37.6298098336' lon='127.08151945929'>
    <tag k='ele' v='0' />
    <tag k='local_x' v='5.7895' />
    <tag k='local_y' v='18.542' />
  </node>
  <node id='249' action='modify' visible='true' version='1' lat='37.62981167564' lon='127.08152216451'>
    <tag k='ele' v='0' />
    <tag k='local_x' v='5.5418' />
    <tag k='local_y' v='18.7398' />
  </node>
  <node id='250' action='modify' visible='true' version='1' lat='37.62981390925' lon='127.08152479331'>
    <tag k='ele' v='0' />
    <tag k='local_x' v='5.2521' />
    <tag k='local_y' v='18.9229' />
  </node>
  <node id='251' action='modify' visible='true' version='1' lat='37.62981645077' lon='127.0815273053'>
    <tag k='ele' v='0' />
    <tag k='local_x' v='4.9303' />
    <tag k='local_y' v='19.0895' />
  </node>
  <node id='252' action='modify' visible='true' version='1' lat='37.62981920001' lon='127.08152964355'>
    <tag k='ele' v='0' />
    <tag k='local_x' v='4.5884' />
    <tag k='local_y' v='19.2367' />
  </node>
  <node id='253' action='modify' visible='true' version='1' lat='37.62982202394' lon='127.08153171583'>
    <tag k='ele' v='0' />
    <tag k='local_x' v='4.2426' />
    <tag k='local_y' v='19.3592' />
  </node>
  <node id='254' action='modify' visible='true' version='1' lat='37.62982487703' lon='127.08153343221'>
    <tag k='ele' v='0' />
    <tag k='local_x' v='3.8994' />
    <tag k='local_y' v='19.4501' />
  </node>
  <node id='255' action='modify' visible='true' version='1' lat='37.62982786081' lon='127.08153482238'>
    <tag k='ele' v='0' />
    <tag k='local_x' v='3.5471' />
    <tag k='local_y' v='19.5099' />
  </node>
  <node id='256' action='modify' visible='true' version='1' lat='37.62983111793' lon='127.08153598079'>
    <tag k='ele' v='0' />
    <tag k='local_x' v='3.1684' />
    <tag k='local_y' v='19.5439' />
  </node>
  <node id='257' action='modify' visible='true' version='1' lat='37.62983470303' lon='127.08153703975'>
    <tag k='ele' v='0' />
    <tag k='local_x' v='2.7551' />
    <tag k='local_y' v='19.5625' />
  </node>
  <node id='258' action='modify' visible='true' version='1' lat='37.62983859558' lon='127.08153813793'>
    <tag k='ele' v='0' />
    <tag k='local_x' v='2.3072' />
    <tag k='local_y' v='19.5782' />
  </node>
  <node id='259' action='modify' visible='true' version='1' lat='37.63013620371' lon='127.08140997201'>
    <tag k='ele' v='0' />
    <tag k='local_x' v='-28.4681' />
    <tag k='local_y' v='2.3014' />
  </node>
  <node id='260' action='modify' visible='true' version='1' lat='37.63013520853' lon='127.0814068121'>
    <tag k='ele' v='0' />
    <tag k='local_x' v='-28.3065' />
    <tag k='local_y' v='2.0466' />
  </node>
  <node id='261' action='modify' visible='true' version='1' lat='37.63013402561' lon='127.08140375833'>
    <tag k='ele' v='0' />
    <tag k='local_x' v='-28.1259' />
    <tag k='local_y' v='1.8049' />
  </node>
  <node id='262' action='modify' visible='true' version='1' lat='37.63013260076' lon='127.08140087711'>
    <tag k='ele' v='0' />
    <tag k='local_x' v='-27.9214' />
    <tag k='local_y' v='1.5832' />
  </node>
  <node id='263' action='modify' visible='true' version='1' lat='37.63013088026' lon='127.08139826831'>
    <tag k='ele' v='0' />
    <tag k='local_x' v='-27.6887' />
    <tag k='local_y' v='1.3913' />
  </node>
  <node id='264' action='modify' visible='true' version='1' lat='37.63012892355' lon='127.08139594016'>
    <tag k='ele' v='0' />
    <tag k='local_x' v='-27.4345' />
    <tag k='local_y' v='1.2287' />
  </node>
  <node id='265' action='modify' visible='true' version='1' lat='37.63012678158' lon='127.08139389094'>
    <tag k='ele' v='0' />
    <tag k='local_x' v='-27.1644' />
    <tag k='local_y' v='1.0942' />
  </node>
  <node id='266' action='modify' visible='true' version='1' lat='37.6301244939' lon='127.08139211043'>
    <tag k='ele' v='0' />
    <tag k='local_x' v='-26.8826' />
    <tag k='local_y' v='0.9861' />
  </node>
  <node id='267' action='modify' visible='true' version='1' lat='37.63012209594' lon='127.08139057946'>
    <tag k='ele' v='0' />
    <tag k='local_x' v='-26.5927' />
    <tag k='local_y' v='0.902' />
  </node>
  <node id='268' action='modify' visible='true' version='1' lat='37.63011958543' lon='127.08138937439'>
    <tag k='ele' v='0' />
    <tag k='local_x' v='-26.2957' />
    <tag k='local_y' v='0.8486' />
  </node>
  <node id='269' action='modify' visible='true' version='1' lat='37.63011699886' lon='127.08138845677'>
    <tag k='ele' v='0' />
    <tag k='local_x' v='-25.995' />
    <tag k='local_y' v='0.8218' />
  </node>
  <node id='270' action='modify' visible='true' version='1' lat='37.63011437694' lon='127.0813877168'>
    <tag k='ele' v='0' />
    <tag k='local_x' v='-25.6933' />
    <tag k='local_y' v='0.8112' />
  </node>
  <node id='271' action='modify' visible='true' version='1' lat='37.63011173914' lon='127.0813870718'>
    <tag k='ele' v='0' />
    <tag k='local_x' v='-25.3914' />
    <tag k='local_y' v='0.8092' />
  </node>
  <node id='272' action='modify' visible='true' version='1' lat='37.63010909641' lon='127.0813864601'>
    <tag k='ele' v='0' />
    <tag k='local_x' v='-25.0895' />
    <tag k='local_y' v='0.8102' />
  </node>
  <node id='273' action='modify' visible='true' version='1' lat='37.6301064573' lon='127.08138582399'>
    <tag k='ele' v='0' />
    <tag k='local_x' v='-24.7876' />
    <tag k='local_y' v='0.809' />
  </node>
  <node id='274' action='modify' visible='true' version='1' lat='37.63007360441' lon='127.08158860707'>
    <tag k='ele' v='0' />
    <tag k='local_x' v='-24.4754' />
    <tag k='local_y' v='19.1471' />
  </node>
  <node id='275' action='modify' visible='true' version='1' lat='37.63007654756' lon='127.08158861457'>
    <tag k='ele' v='0' />
    <tag k='local_x' v='-24.8006' />
    <tag k='local_y' v='19.0873' />
  </node>
  <node id='276' action='modify' visible='true' version='1' lat='37.6300794899' lon='127.0815885725'>
    <tag k='ele' v='0' />
    <tag k='local_x' v='-25.1249' />
    <tag k='local_y' v='19.0232' />
  </node>
  <node id='277' action='modify' visible='true' version='1' lat='37.63008243138' lon='127.0815884384'>
    <tag k='ele' v='0' />
    <tag k='local_x' v='-25.4476' />
    <tag k='local_y' v='18.9511' />
  </node>
  <node id='278' action='modify' visible='true' version='1' lat='37.63008536415' lon='127.08158813693'>
    <tag k='ele' v='0' />
    <tag k='local_x' v='-25.7666' />
    <tag k='local_y' v='18.8646' />
  </node>
  <node id='279' action='modify' visible='true' version='1' lat='37.63008826368' lon='127.08158750959'>
    <tag k='ele' v='0' />
    <tag k='local_x' v='-26.0766' />
    <tag k='local_y' v='18.7504' />
  </node>
  <node id='280' action='modify' visible='true' version='1' lat='37.63009108691' lon='127.0815864682'>
    <tag k='ele' v='0' />
    <tag k='local_x' v='-26.3714' />
    <tag k='local_y' v='18.6017' />
  </node>
  <node id='281' action='modify' visible='true' version='1' lat='37.63009370649' lon='127.08158477835'>
    <tag k='ele' v='0' />
    <tag k='local_x' v='-26.6331' />
    <tag k='local_y' v='18.4007' />
  </node>
  <node id='282' action='modify' visible='true' version='1' lat='37.63009606391' lon='127.08158255368'>
    <tag k='ele' v='0' />
    <tag k='local_x' v='-26.8571' />
    <tag k='local_y' v='18.1585' />
  </node>
  <node id='283' action='modify' visible='true' version='1' lat='37.63009817012' lon='127.08157995292'>
    <tag k='ele' v='0' />
    <tag k='local_x' v='-27.0472' />
    <tag k='local_y' v='17.8887' />
  </node>
  <node id='284' action='modify' visible='true' version='1' lat='37.63010011052' lon='127.08157715117'>
    <tag k='ele' v='0' />
    <tag k='local_x' v='-27.2157' />
    <tag k='local_y' v='17.6048' />
  </node>
  <node id='285' action='modify' visible='true' version='1' lat='37.63010190918' lon='127.08157420005'>
    <tag k='ele' v='0' />
    <tag k='local_x' v='-27.3661' />
    <tag k='local_y' v='17.3108' />
  </node>
  <node id='286' action='modify' visible='true' version='1' lat='37.63010352857' lon='127.08157108382'>
    <tag k='ele' v='0' />
    <tag k='local_x' v='-27.494' />
    <tag k='local_y' v='17.0061' />
  </node>
  <node id='287' action='modify' visible='true' version='1' lat='37.63010505403' lon='127.08156789263'>
    <tag k='ele' v='0' />
    <tag k='local_x' v='-27.6103' />
    <tag k='local_y' v='16.6968' />
  </node>
  <node id='288' action='modify' visible='true' version='1' lat='37.63010655522' lon='127.08156468193'>
    <tag k='ele' v='0' />
    <tag k='local_x' v='-27.7236' />
    <tag k='local_y' v='16.3863' />
  </node>
  <node id='289' action='modify' visible='true' version='1' lat='37.63007768804' lon='127.08161123373'>
    <tag k='ele' v='0' />
    <tag k='local_x' v='-25.2965' />
    <tag k='local_y' v='21.0341' />
  </node>
  <node id='290' action='modify' visible='true' version='1' lat='37.63008154064' lon='127.0816111526'>
    <tag k='ele' v='0' />
    <tag k='local_x' v='-25.7207' />
    <tag k='local_y' v='20.9479' />
  </node>
  <node id='291' action='modify' visible='true' version='1' lat='37.63008538709' lon='127.08161086222'>
    <tag k='ele' v='0' />
    <tag k='local_x' v='-26.1408' />
    <tag k='local_y' v='20.8436' />
  </node>
  <node id='292' action='modify' visible='true' version='1' lat='37.63008920611' lon='127.08161021293'>
    <tag k='ele' v='0' />
    <tag k='local_x' v='-26.552' />
    <tag k='local_y' v='20.7086' />
  </node>
  <node id='293' action='modify' visible='true' version='1' lat='37.63009296971' lon='127.08160916138'>
    <tag k='ele' v='0' />
    <tag k='local_x' v='-26.9505' />
    <tag k='local_y' v='20.5397' />
  </node>
  <node id='294' action='modify' visible='true' version='1' lat='37.63009665961' lon='127.08160775148'>
    <tag k='ele' v='0' />
    <tag k='local_x' v='-27.335' />
    <tag k='local_y' v='20.3411' />
  </node>
  <node id='295' action='modify' visible='true' version='1' lat='37.63010022008' lon='127.08160588283'>
    <tag k='ele' v='0' />
    <tag k='local_x' v='-27.6977' />
    <tag k='local_y' v='20.1052' />
  </node>
  <node id='296' action='modify' visible='true' version='1' lat='37.63010359495' lon='127.08160352497'>
    <tag k='ele' v='0' />
    <tag k='local_x' v='-28.0319' />
    <tag k='local_y' v='19.8305' />
  </node>
  <node id='297' action='modify' visible='true' version='1' lat='37.63010671031' lon='127.08160065129'>
    <tag k='ele' v='0' />
    <tag k='local_x' v='-28.329' />
    <tag k='local_y' v='19.5162' />
  </node>
  <node id='298' action='modify' visible='true' version='1' lat='37.63010956329' lon='127.08159736673'>
    <tag k='ele' v='0' />
    <tag k='local_x' v='-28.5904' />
    <tag k='local_y' v='19.1715' />
  </node>
  <node id='299' action='modify' visible='true' version='1' lat='37.63011221358' lon='127.08159381854'>
    <tag k='ele' v='0' />
    <tag k='local_x' v='-28.8251' />
    <tag k='local_y' v='18.808' />
  </node>
  <node id='300' action='modify' visible='true' version='1' lat='37.63011472288' lon='127.08159010968'>
    <tag k='ele' v='0' />
    <tag k='local_x' v='-29.0416' />
    <tag k='local_y' v='18.4334' />
  </node>
  <node id='301' action='modify' visible='true' version='1' lat='37.63011699956' lon='127.081586168'>
    <tag k='ele' v='0' />
    <tag k='local_x' v='-29.2286' />
    <tag k='local_y' v='18.0433' />
  </node>
  <node id='302' action='modify' visible='true' version='1' lat='37.6301190573' lon='127.08158203579'>
    <tag k='ele' v='0' />
    <tag k='local_x' v='-29.3883' />
    <tag k='local_y' v='17.6411' />
  </node>
  <node id='303' action='modify' visible='true' version='1' lat='37.63012183629' lon='127.08157464673'>
    <tag k='ele' v='0' />
    <tag k='local_x' v='-29.5744' />
    <tag k='local_y' v='16.9404' />
  </node>
  <node id='304' action='modify' visible='true' version='1' lat='37.63007875673' lon='127.08160113034'>
    <tag k='ele' v='0' />
    <tag k='local_x' v='-25.2493' />
    <tag k='local_y' v='20.1321' />
  </node>
  <node id='305' action='modify' visible='true' version='1' lat='37.63008210352' lon='127.08160112051'>
    <tag k='ele' v='0' />
    <tag k='local_x' v='-25.6188' />
    <tag k='local_y' v='20.0625' />
  </node>
  <node id='306' action='modify' visible='true' version='1' lat='37.63008543928' lon='127.08160078777'>
    <tag k='ele' v='0' />
    <tag k='local_x' v='-25.9818' />
    <tag k='local_y' v='19.965' />
  </node>
  <node id='307' action='modify' visible='true' version='1' lat='37.63008874236' lon='127.08160009488'>
    <tag k='ele' v='0' />
    <tag k='local_x' v='-26.3353' />
    <tag k='local_y' v='19.8368' />
  </node>
  <node id='308' action='modify' visible='true' version='1' lat='37.63009199142' lon='127.08159907583'>
    <tag k='ele' v='0' />
    <tag k='local_x' v='-26.6775' />
    <tag k='local_y' v='19.6813' />
  </node>
  <node id='309' action='modify' visible='true' version='1' lat='37.6300951069' lon='127.08159752817'>
    <tag k='ele' v='0' />
    <tag k='local_x' v='-26.9963' />
    <tag k='local_y' v='19.4825' />
  </node>
  <node id='310' action='modify' visible='true' version='1' lat='37.63009797929' lon='127.08159535377'>
    <tag k='ele' v='0' />
    <tag k='local_x' v='-27.278' />
    <tag k='local_y' v='19.2341' />
  </node>
  <node id='311' action='modify' visible='true' version='1' lat='37.63010060228' lon='127.08159271758'>
    <tag k='ele' v='0' />
    <tag k='local_x' v='-27.5246' />
    <tag k='local_y' v='18.9506' />
  </node>
  <node id='312' action='modify' visible='true' version='1' lat='37.63010303323' lon='127.08158980075'>
    <tag k='ele' v='0' />
    <tag k='local_x' v='-27.7454' />
    <tag k='local_y' v='18.6466' />
  </node>
  <node id='313' action='modify' visible='true' version='1' lat='37.63010533785' lon='127.08158672212'>
    <tag k='ele' v='0' />
    <tag k='local_x' v='-27.9496' />
    <tag k='local_y' v='18.3311' />
  </node>
  <node id='314' action='modify' visible='true' version='1' lat='37.63010746392' lon='127.08158344295'>
    <tag k='ele' v='0' />
    <tag k='local_x' v='-28.1308' />
    <tag k='local_y' v='18.0018' />
  </node>
  <node id='315' action='modify' visible='true' version='1' lat='37.63010941982' lon='127.08157999851'>
    <tag k='ele' v='0' />
    <tag k='local_x' v='-28.2905' />
    <tag k='local_y' v='17.6616' />
  </node>
  <node id='316' action='modify' visible='true' version='1' lat='37.63011128928' lon='127.08157647743'>
    <tag k='ele' v='0' />
    <tag k='local_x' v='-28.4394' />
    <tag k='local_y' v='17.3165' />
  </node>
  <node id='317' action='modify' visible='true' version='1' lat='37.63011314202' lon='127.08157294093'>
    <tag k='ele' v='0' />
    <tag k='local_x' v='-28.5862' />
    <tag k='local_y' v='16.9704' />
  </node>
  <node id='318' action='modify' visible='true' version='1' lat='37.63012858513' lon='127.08141634266'>
    <tag k='ele' v='0' />
    <tag k='local_x' v='-27.7308' />
    <tag k='local_y' v='3.0128' />
  </node>
  <node id='319' action='modify' visible='true' version='1' lat='37.63012767217' lon='127.08141380143'>
    <tag k='ele' v='0' />
    <tag k='local_x' v='-27.5884' />
    <tag k='local_y' v='2.8102' />
  </node>
  <node id='320' action='modify' visible='true' version='1' lat='37.63012658066' lon='127.08141137768'>
    <tag k='ele' v='0' />
    <tag k='local_x' v='-27.4282' />
    <tag k='local_y' v='2.6215' />
  </node>
  <node id='321' action='modify' visible='true' version='1' lat='37.63012530425' lon='127.08140910205'>
    <tag k='ele' v='0' />
    <tag k='local_x' v='-27.25' />
    <tag k='local_y' v='2.4495' />
  </node>
  <node id='322' action='modify' visible='true' version='1' lat='37.6301238238' lon='127.08140703661'>
    <tag k='ele' v='0' />
    <tag k='local_x' v='-27.0527' />
    <tag k='local_y' v='2.3' />
  </node>
  <node id='323' action='modify' visible='true' version='1' lat='37.63012210663' lon='127.0814052919'>
    <tag k='ele' v='0' />
    <tag k='local_x' v='-26.8345' />
    <tag k='local_y' v='2.1833' />
  </node>
  <node id='324' action='modify' visible='true' version='1' lat='37.63012019686' lon='127.08140390016'>
    <tag k='ele' v='0' />
    <tag k='local_x' v='-26.6008' />
    <tag k='local_y' v='2.1013' />
  </node>
  <node id='325' action='modify' visible='true' version='1' lat='37.63011818759' lon='127.08140275244'>
    <tag k='ele' v='0' />
    <tag k='local_x' v='-26.3601' />
    <tag k='local_y' v='2.0426' />
  </node>
  <node id='326' action='modify' visible='true' version='1' lat='37.63011613208' lon='127.08140173962'>
    <tag k='ele' v='0' />
    <tag k='local_x' v='-26.1165' />
    <tag k='local_y' v='1.9966' />
  </node>
  <node id='327' action='modify' visible='true' version='1' lat='37.63011406541' lon='127.08140076551'>
    <tag k='ele' v='0' />
    <tag k='local_x' v='-25.8723' />
    <tag k='local_y' v='1.9542' />
  </node>
  <node id='328' action='modify' visible='true' version='1' lat='37.6301119947' lon='127.08139980651'>
    <tag k='ele' v='0' />
    <tag k='local_x' v='-25.6279' />
    <tag k='local_y' v='1.9132' />
  </node>
  <node id='329' action='modify' visible='true' version='1' lat='37.63010989208' lon='127.08139896513'>
    <tag k='ele' v='0' />
    <tag k='local_x' v='-25.3819' />
    <tag k='local_y' v='1.8831' />
  </node>
  <node id='330' action='modify' visible='true' version='1' lat='37.6301077703' lon='127.08139820417'>
    <tag k='ele' v='0' />
    <tag k='local_x' v='-25.1351' />
    <tag k='local_y' v='1.8604' />
  </node>
  <node id='331' action='modify' visible='true' version='1' lat='37.63010563983' lon='127.08139748366'>
    <tag k='ele' v='0' />
    <tag k='local_x' v='-24.888' />
    <tag k='local_y' v='1.8414' />
  </node>
  <node id='332' action='modify' visible='true' version='1' lat='37.63010350886' lon='127.08139676646'>
    <tag k='ele' v='0' />
    <tag k='local_x' v='-24.6409' />
    <tag k='local_y' v='1.8227' />
  </node>
  <node id='333' action='modify' visible='true' version='1' lat='37.63014523245' lon='127.08141269005'>
    <tag k='ele' v='0' />
    <tag k='local_x' v='-29.5098' />
    <tag k='local_y' v='2.3527' />
  </node>
  <node id='334' action='modify' visible='true' version='1' lat='37.63014439643' lon='127.08140817395'>
    <tag k='ele' v='0' />
    <tag k='local_x' v='-29.3436' />
    <tag k='local_y' v='1.9765' />
  </node>
  <node id='335' action='modify' visible='true' version='1' lat='37.63014328722' lon='127.08140375416'>
    <tag k='ele' v='0' />
    <tag k='local_x' v='-29.1488' />
    <tag k='local_y' v='1.6143' />
  </node>
  <node id='336' action='modify' visible='true' version='1' lat='37.63014187243' lon='127.08139947814'>
    <tag k='ele' v='0' />
    <tag k='local_x' v='-28.9226' />
    <tag k='local_y' v='1.2709' />
  </node>
  <node id='337' action='modify' visible='true' version='1' lat='37.6301400824' lon='127.08139543738'>
    <tag k='ele' v='0' />
    <tag k='local_x' v='-28.6588' />
    <tag k='local_y' v='0.9557' />
  </node>
  <node id='338' action='modify' visible='true' version='1' lat='37.63013780793' lon='127.0813918128'>
    <tag k='ele' v='0' />
    <tag k='local_x' v='-28.3483' />
    <tag k='local_y' v='0.6867' />
  </node>
  <node id='339' action='modify' visible='true' version='1' lat='37.63013505731' lon='127.08138876244'>
    <tag k='ele' v='0' />
    <tag k='local_x' v='-27.9946' />
    <tag k='local_y' v='0.4775' />
  </node>
  <node id='340' action='modify' visible='true' version='1' lat='37.63013201522' lon='127.08138618869'>
    <tag k='ele' v='0' />
    <tag k='local_x' v='-27.6165' />
    <tag k='local_y' v='0.3158' />
  </node>
  <node id='341' action='modify' visible='true' version='1' lat='37.6301288099' lon='127.081383953'>
    <tag k='ele' v='0' />
    <tag k='local_x' v='-27.2259' />
    <tag k='local_y' v='0.1869' />
  </node>
  <node id='342' action='modify' visible='true' version='1' lat='37.63012551732' lon='127.08138192751'>
    <tag k='ele' v='0' />
    <tag k='local_x' v='-26.8291' />
    <tag k='local_y' v='0.0781' />
  </node>
  <node id='343' action='modify' visible='true' version='1' lat='37.63012217556' lon='127.0813800385'>
    <tag k='ele' v='0' />
    <tag k='local_x' v='-26.4291' />
    <tag k='local_y' v='-0.0178' />
  </node>
  <node id='344' action='modify' visible='true' version='1' lat='37.63011872613' lon='127.08137849148'>
    <tag k='ele' v='0' />
    <tag k='local_x' v='-26.0228' />
    <tag k='local_y' v='-0.0817' />
  </node>
  <node id='345' action='modify' visible='true' version='1' lat='37.63011520693' lon='127.08137721386'>
    <tag k='ele' v='0' />
    <tag k='local_x' v='-25.6132' />
    <tag k='local_y' v='-0.1207' />
  </node>
  <node id='346' action='modify' visible='true' version='1' lat='37.63011165794' lon='127.08137607619'>
    <tag k='ele' v='0' />
    <tag k='local_x' v='-25.2026' />
    <tag k='local_y' v='-0.1469' />
  </node>
  <node id='347' action='modify' visible='true' version='1' lat='37.6301081053' lon='127.08137495716'>
    <tag k='ele' v='0' />
    <tag k='local_x' v='-24.7919' />
    <tag k='local_y' v='-0.1714' />
  </node>
  <node id='388' action='modify' visible='true' version='1' lat='37.63011113049' lon='127.08176231616'>
    <tag k='ele' v='0' />
    <tag k='local_x' v='-31.4612' />
    <tag k='local_y' v='33.5071' />
  </node>
  <node id='389' action='modify' visible='true' version='1' lat='37.63017222038' lon='127.08131789287'>
    <tag k='ele' v='0' />
    <tag k='local_x' v='-30.9403' />
    <tag k='local_y' v='-6.4589' />
  </node>
  <node id='391' action='modify' visible='true' version='1' lat='37.62980248272' lon='127.08123197306'>
    <tag k='ele' v='0' />
    <tag k='local_x' v='11.3033' />
    <tag k='local_y' v='-6.3483' />
  </node>
  <node id='392' action='modify' visible='true' version='1' lat='37.62977056172' lon='127.08146997295'>
    <tag k='ele' v='0' />
    <tag k='local_x' v='10.9365' />
    <tag k='local_y' v='15.0382' />
  </node>
  <node id='393' action='modify' visible='true' version='1' lat='37.62976619508' lon='127.08148492867'>
    <tag k='ele' v='0' />
    <tag k='local_x' v='11.1742' />
    <tag k='local_y' v='16.4306' />
  </node>
  <node id='394' action='modify' visible='true' version='1' lat='37.6297609196' lon='127.08149148219'>
    <tag k='ele' v='0' />
    <tag k='local_x' v='11.6497' />
    <tag k='local_y' v='17.1098' />
  </node>
  <node id='395' action='modify' visible='true' version='1' lat='37.62975163495' lon='127.08149397101'>
    <tag k='ele' v='0' />
    <tag k='local_x' v='12.6345' />
    <tag k='local_y' v='17.5173' />
  </node>
  <node id='396' action='modify' visible='true' version='1' lat='37.62973273214' lon='127.08148873387'>
    <tag k='ele' v='0' />
    <tag k='local_x' v='14.808' />
    <tag k='local_y' v='17.4494' />
  </node>
  <node id='397' action='modify' visible='true' version='1' lat='37.62972348937' lon='127.08155946238'>
    <tag k='ele' v='0' />
    <tag k='local_x' v='14.6721' />
    <tag k='local_y' v='23.8' />
  </node>
  <node id='398' action='modify' visible='true' version='1' lat='37.62974582706' lon='127.08156433966'>
    <tag k='ele' v='0' />
    <tag k='local_x' v='12.1251' />
    <tag k='local_y' v='23.766' />
  </node>
  <node id='399' action='modify' visible='true' version='1' lat='37.62975238142' lon='127.08156783467'>
    <tag k='ele' v='0' />
    <tag k='local_x' v='11.344' />
    <tag k='local_y' v='23.9358' />
  </node>
  <node id='400' action='modify' visible='true' version='1' lat='37.62975472012' lon='127.08157072591'>
    <tag k='ele' v='0' />
    <tag k='local_x' v='11.0384' />
    <tag k='local_y' v='24.1396' />
  </node>
  <node id='401' action='modify' visible='true' version='1' lat='37.62975590699' lon='127.0815772443'>
    <tag k='ele' v='0' />
    <tag k='local_x' v='10.8007' />
    <tag k='local_y' v='24.683' />
  </node>
  <node id='402' action='modify' visible='true' version='1' lat='37.62974157051' lon='127.08167406319'>
    <tag k='ele' v='0' />
    <tag k='local_x' v='10.8007' />
    <tag k='local_y' v='33.4108' />
  </node>
  <node id='403' action='modify' visible='true' version='1' lat='37.62979272664' lon='127.08168573744'>
    <tag k='ele' v='0' />
    <tag k='local_x' v='4.9595' />
    <tag k='local_y' v='33.3769' />
  </node>
  <node id='404' action='modify' visible='true' version='1' lat='37.62980312222' lon='127.08161138078'>
    <tag k='ele' v='0' />
    <tag k='local_x' v='5.0274' />
    <tag k='local_y' v='26.6866' />
  </node>
  <node id='405' action='modify' visible='true' version='1' lat='37.62980613346' lon='127.08159727528'>
    <tag k='ele' v='0' />
    <tag k='local_x' v='4.9255' />
    <tag k='local_y' v='25.3961' />
  </node>
  <node id='406' action='modify' visible='true' version='1' lat='37.62981161347' lon='127.08158726154'>
    <tag k='ele' v='0' />
    <tag k='local_x' v='4.484' />
    <tag k='local_y' v='24.4113' />
  </node>
  <node id='407' action='modify' visible='true' version='1' lat='37.62981868948' lon='127.08158308201'>
    <tag k='ele' v='0' />
    <tag k='local_x' v='3.7708' />
    <tag k='local_y' v='23.9019' />
  </node>
  <node id='408' action='modify' visible='true' version='1' lat='37.62982871688' lon='127.08158388643'>
    <tag k='ele' v='0' />
    <tag k='local_x' v='2.6501' />
    <tag k='local_y' v='23.766' />
  </node>
  <node id='409' action='modify' visible='true' version='1' lat='37.62983406382' lon='127.08158514733'>
    <tag k='ele' v='0' />
    <tag k='local_x' v='2.0389' />
    <tag k='local_y' v='23.766' />
  </node>
  <node id='410' action='modify' visible='true' version='1' lat='37.62982597511' lon='127.08163977336'>
    <tag k='ele' v='0' />
    <tag k='local_x' v='2.0389' />
    <tag k='local_y' v='28.6903' />
  </node>
  <node id='411' action='modify' visible='true' version='1' lat='37.63004859311' lon='127.08168954089'>
    <tag k='ele' v='0' />
    <tag k='local_x' v='-23.3636' />
    <tag k='local_y' v='28.4526' />
  </node>
  <node id='412' action='modify' visible='true' version='1' lat='37.63005827752' lon='127.08164075012'>
    <tag k='ele' v='0' />
    <tag k='local_x' v='-23.6353' />
    <tag k='local_y' v='24.0038' />
  </node>
  <node id='413' action='modify' visible='true' version='1' lat='37.63006800745' lon='127.08164148437'>
    <tag k='ele' v='0' />
    <tag k='local_x' v='-24.722' />
    <tag k='local_y' v='23.8679' />
  </node>
  <node id='414' action='modify' visible='true' version='1' lat='37.63007277889' lon='127.08164455891'>
    <tag k='ele' v='0' />
    <tag k='local_x' v='-25.2993' />
    <tag k='local_y' v='24.0377' />
  </node>
  <node id='415' action='modify' visible='true' version='1' lat='37.63007619495' lon='127.08164848372'>
    <tag k='ele' v='0' />
    <tag k='local_x' v='-25.7408' />
    <tag k='local_y' v='24.3094' />
  </node>
  <node id='416' action='modify' visible='true' version='1' lat='37.63007825378' lon='127.08165949568'>
    <tag k='ele' v='0' />
    <tag k='local_x' v='-26.1483' />
    <tag k='local_y' v='25.2263' />
  </node>
  <node id='417' action='modify' visible='true' version='1' lat='37.63007581782' lon='127.08167802596'>
    <tag k='ele' v='0' />
    <tag k='local_x' v='-26.1823' />
    <tag k='local_y' v='26.8904' />
  </node>
  <node id='418' action='modify' visible='true' version='1' lat='37.6300646303' lon='127.08175182618'>
    <tag k='ele' v='0' />
    <tag k='local_x' v='-26.1536' />
    <tag k='local_y' v='33.5485' />
  </node>
  <node id='419' action='modify' visible='true' version='1' lat='37.63011107949' lon='127.0817622387'>
    <tag k='ele' v='0' />
    <tag k='local_x' v='-31.4543' />
    <tag k='local_y' v='33.5014' />
  </node>
  <node id='420' action='modify' visible='true' version='1' lat='37.63010033406' lon='127.0815066586'>
    <tag k='ele' v='0' />
    <tag k='local_x' v='-26.0875' />
    <tag k='local_y' v='11.46' />
  </node>
  <node id='421' action='modify' visible='true' version='1' lat='37.63009363072' lon='127.08155192972'>
    <tag k='ele' v='0.3' />
    <tag k='local_x' v='-26.0875' />
    <tag k='local_y' v='15.541' />
  </node>
  <node id='422' action='modify' visible='true' version='1' lat='37.6301078904' lon='127.08144844234'>
    <tag k='ele' v='0.3' />
    <tag k='local_x' v='-25.97' />
    <tag k='local_y' v='6.2339' />
  </node>
  <node id='424' action='modify' visible='true' version='1' lat='37.63010657586' lon='127.08143936816'>
    <tag k='ele' v='0.3' />
    <tag k='local_x' v='-25.6764' />
    <tag k='local_y' v='5.4705' />
  </node>
  <node id='425' action='modify' visible='true' version='1' lat='37.63010267582' lon='127.08143339248'>
    <tag k='ele' v='0.3' />
    <tag k='local_x' v='-25.1479' />
    <tag k='local_y' v='5.0301' />
  </node>
  <node id='426' action='modify' visible='true' version='1' lat='37.63009269117' lon='127.08142901627'>
    <tag k='ele' v='0.3' />
    <tag k='local_x' v='-23.9735' />
    <tag k='local_y' v='4.854' />
  </node>
  <node id='427' action='modify' visible='true' version='1' lat='37.63008699257' lon='127.08142800885'>
    <tag k='ele' v='0.3' />
    <tag k='local_x' v='-23.3276' />
    <tag k='local_y' v='4.8833' />
  </node>
  <node id='428' action='modify' visible='true' version='1' lat='37.63007868333' lon='127.08147694697'>
    <tag k='ele' v='0.3' />
    <tag k='local_x' v='-23.2102' />
    <tag k='local_y' v='9.3167' />
  </node>
  <node id='429' action='modify' visible='true' version='1' lat='37.62985599438' lon='127.08142982726'>
    <tag k='ele' v='0.3' />
    <tag k='local_x' v='2.1569' />
    <tag k='local_y' v='9.7865' />
  </node>
  <node id='430' action='modify' visible='true' version='1' lat='37.62986343742' lon='127.08137596638'>
    <tag k='ele' v='0.3' />
    <tag k='local_x' v='2.2157' />
    <tag k='local_y' v='4.9421' />
  </node>
  <node id='431' action='modify' visible='true' version='1' lat='37.62985321179' lon='127.08137321749'>
    <tag k='ele' v='0.3' />
    <tag k='local_x' v='3.3901' />
    <tag k='local_y' v='4.9127' />
  </node>
  <node id='432' action='modify' visible='true' version='1' lat='37.62984324237' lon='127.08137592254'>
    <tag k='ele' v='0.3' />
    <tag k='local_x' v='4.447' />
    <tag k='local_y' v='5.3531' />
  </node>
  <node id='433' action='modify' visible='true' version='1' lat='37.62983749361' lon='127.08138063432'>
    <tag k='ele' v='0.3' />
    <tag k='local_x' v='5.0049' />
    <tag k='local_y' v='5.8816' />
  </node>
  <node id='434' action='modify' visible='true' version='1' lat='37.62983551721' lon='127.08138859493'>
    <tag k='ele' v='0.3' />
    <tag k='local_x' v='5.093' />
    <tag k='local_y' v='6.6156' />
  </node>
  <node id='435' action='modify' visible='true' version='1' lat='37.62982135262' lon='127.08149682443'>
    <tag k='ele' v='0.3' />
    <tag k='local_x' v='4.8874' />
    <tag k='local_y' v='16.3338' />
  </node>
  <node id='436' action='modify' visible='true' version='1' lat='37.62982626283' lon='127.08150674539'>
    <tag k='ele' v='0.3' />
    <tag k='local_x' v='4.1828' />
    <tag k='local_y' v='17.0971' />
  </node>
  <node id='437' action='modify' visible='true' version='1' lat='37.6298298905' lon='127.08151097152'>
    <tag k='ele' v='0.3' />
    <tag k='local_x' v='3.713' />
    <tag k='local_y' v='17.3907' />
  </node>
  <node id='438' action='modify' visible='true' version='1' lat='37.62983767631' lon='127.08151044831'>
    <tag k='ele' v='0.3' />
    <tag k='local_x' v='2.8616' />
    <tag k='local_y' v='17.1852' />
  </node>
  <node id='439' action='modify' visible='true' version='1' lat='37.629842958' lon='127.08151068238'>
    <tag k='ele' v='0.3' />
    <tag k='local_x' v='2.2744' />
    <tag k='local_y' v='17.0971' />
  </node>
  <node id='440' action='modify' visible='true' version='1' lat='37.629850802' lon='127.08146129811'>
    <tag k='ele' v='0.3' />
    <tag k='local_x' v='2.2157' />
    <tag k='local_y' v='12.6344' />
  </node>
  <node id='441' action='modify' visible='true' version='1' lat='37.6300730123' lon='127.08151165723'>
    <tag k='ele' v='0.3' />
    <tag k='local_x' v='-23.1515' />
    <tag k='local_y' v='12.4566' />
  </node>
  <node id='442' action='modify' visible='true' version='1' lat='37.63006591584' lon='127.0815677031'>
    <tag k='ele' v='0.3' />
    <tag k='local_x' v='-23.2843' />
    <tag k='local_y' v='17.4842' />
  </node>
  <node id='443' action='modify' visible='true' version='1' lat='37.63007355042' lon='127.08156950342'>
    <tag k='ele' v='0.3' />
    <tag k='local_x' v='-24.157' />
    <tag k='local_y' v='17.4842' />
  </node>
  <node id='444' action='modify' visible='true' version='1' lat='37.63007968046' lon='127.08156985947'>
    <tag k='ele' v='0.3' />
    <tag k='local_x' v='-24.8399' />
    <tag k='local_y' v='17.3893' />
  </node>
  <node id='445' action='modify' visible='true' version='1' lat='37.63008413188' lon='127.08156764183'>
    <tag k='ele' v='0.3' />
    <tag k='local_x' v='-25.2953' />
    <tag k='local_y' v='17.1047' />
  </node>
  <node id='446' action='modify' visible='true' version='1' lat='37.63008873814' lon='127.08156437234'>
    <tag k='ele' v='0.3' />
    <tag k='local_x' v='-25.7506' />
    <tag k='local_y' v='16.7253' />
  </node>
  <node id='447' action='modify' visible='true' version='1' lat='37.63009149876' lon='127.08156116129'>
    <tag k='ele' v='0.3' />
    <tag k='local_x' v='-26.003' />
    <tag k='local_y' v='16.3889' />
  </node>
  <node id='448' action='modify' visible='true' version='1' lat='37.63009351791' lon='127.08155277105'>
    <tag k='ele' v='0.3' />
    <tag k='local_x' v='-26.0888' />
    <tag k='local_y' v='15.6166' />
  </node>
  <way id='3' visible='true' version='1'>
    <nd ref='1' />
    <nd ref='2' />
    <tag k='subtype' v='solid' />
    <tag k='type' v='line_thin' />
  </way>
  <way id='6' visible='true' version='1'>
    <nd ref='4' />
    <nd ref='5' />
    <tag k='subtype' v='solid' />
    <tag k='type' v='line_thin' />
  </way>
  <way id='9' visible='true' version='1'>
    <nd ref='2' />
    <nd ref='8' />
    <nd ref='13' />
    <nd ref='15' />
    <nd ref='206' />
    <nd ref='207' />
    <nd ref='208' />
    <nd ref='209' />
    <nd ref='210' />
    <nd ref='211' />
    <nd ref='212' />
    <nd ref='213' />
    <nd ref='214' />
    <nd ref='215' />
    <nd ref='216' />
    <nd ref='217' />
    <nd ref='218' />
    <nd ref='219' />
    <nd ref='220' />
    <nd ref='17' />
    <tag k='subtype' v='solid' />
    <tag k='type' v='line_thin' />
  </way>
  <way id='11' visible='true' version='1'>
    <nd ref='5' />
    <nd ref='10' />
    <nd ref='14' />
    <nd ref='16' />
    <nd ref='191' />
    <nd ref='192' />
    <nd ref='193' />
    <nd ref='194' />
    <nd ref='195' />
    <nd ref='196' />
    <nd ref='197' />
    <nd ref='198' />
    <nd ref='199' />
    <nd ref='200' />
    <nd ref='201' />
    <nd ref='202' />
    <nd ref='203' />
    <nd ref='204' />
    <nd ref='205' />
    <nd ref='18' />
    <tag k='subtype' v='solid' />
    <tag k='type' v='line_thin' />
  </way>
  <way id='20' visible='true' version='1'>
    <nd ref='17' />
    <nd ref='19' />
    <tag k='subtype' v='solid' />
    <tag k='type' v='line_thin' />
  </way>
  <way id='22' visible='true' version='1'>
    <nd ref='18' />
    <nd ref='21' />
    <tag k='subtype' v='solid' />
    <tag k='type' v='line_thin' />
  </way>
  <way id='25' visible='true' version='1'>
    <nd ref='19' />
    <nd ref='24' />
    <nd ref='29' />
    <nd ref='31' />
    <nd ref='221' />
    <nd ref='222' />
    <nd ref='223' />
    <nd ref='224' />
    <nd ref='225' />
    <nd ref='226' />
    <nd ref='227' />
    <nd ref='228' />
    <nd ref='229' />
    <nd ref='230' />
    <nd ref='231' />
    <nd ref='232' />
    <nd ref='233' />
    <nd ref='234' />
    <nd ref='235' />
    <nd ref='33' />
    <tag k='subtype' v='solid' />
    <tag k='type' v='line_thin' />
  </way>
  <way id='27' visible='true' version='1'>
    <nd ref='21' />
    <nd ref='26' />
    <nd ref='30' />
    <nd ref='32' />
    <nd ref='244' />
    <nd ref='245' />
    <nd ref='246' />
    <nd ref='247' />
    <nd ref='248' />
    <nd ref='249' />
    <nd ref='250' />
    <nd ref='251' />
    <nd ref='252' />
    <nd ref='253' />
    <nd ref='254' />
    <nd ref='255' />
    <nd ref='256' />
    <nd ref='257' />
    <nd ref='258' />
    <nd ref='34' />
    <tag k='subtype' v='solid' />
    <tag k='type' v='line_thin' />
  </way>
  <way id='36' visible='true' version='1'>
    <nd ref='33' />
    <nd ref='35' />
    <tag k='subtype' v='solid' />
    <tag k='type' v='line_thin' />
  </way>
  <way id='38' visible='true' version='1'>
    <nd ref='34' />
    <nd ref='37' />
    <tag k='subtype' v='solid' />
    <tag k='type' v='line_thin' />
  </way>
  <way id='41' visible='true' version='1'>
    <nd ref='35' />
    <nd ref='40' />
    <nd ref='45' />
    <nd ref='47' />
    <nd ref='289' />
    <nd ref='290' />
    <nd ref='291' />
    <nd ref='292' />
    <nd ref='293' />
    <nd ref='294' />
    <nd ref='295' />
    <nd ref='296' />
    <nd ref='297' />
    <nd ref='298' />
    <nd ref='299' />
    <nd ref='300' />
    <nd ref='301' />
    <nd ref='302' />
    <nd ref='303' />
    <nd ref='49' />
    <tag k='subtype' v='solid' />
    <tag k='type' v='line_thin' />
  </way>
  <way id='43' visible='true' version='1'>
    <nd ref='37' />
    <nd ref='42' />
    <nd ref='46' />
    <nd ref='48' />
    <nd ref='274' />
    <nd ref='275' />
    <nd ref='276' />
    <nd ref='277' />
    <nd ref='278' />
    <nd ref='279' />
    <nd ref='280' />
    <nd ref='281' />
    <nd ref='282' />
    <nd ref='283' />
    <nd ref='284' />
    <nd ref='285' />
    <nd ref='286' />
    <nd ref='287' />
    <nd ref='288' />
    <nd ref='50' />
    <tag k='subtype' v='solid' />
    <tag k='type' v='line_thin' />
  </way>
  <way id='52' visible='true' version='1'>
    <nd ref='49' />
    <nd ref='51' />
    <tag k='subtype' v='solid' />
    <tag k='type' v='line_thin' />
  </way>
  <way id='54' visible='true' version='1'>
    <nd ref='50' />
    <nd ref='53' />
    <tag k='subtype' v='solid' />
    <tag k='type' v='line_thin' />
  </way>
  <way id='57' visible='true' version='1'>
    <nd ref='51' />
    <nd ref='56' />
    <nd ref='61' />
    <nd ref='63' />
    <nd ref='333' />
    <nd ref='334' />
    <nd ref='335' />
    <nd ref='336' />
    <nd ref='337' />
    <nd ref='338' />
    <nd ref='339' />
    <nd ref='340' />
    <nd ref='341' />
    <nd ref='342' />
    <nd ref='343' />
    <nd ref='344' />
    <nd ref='345' />
    <nd ref='346' />
    <nd ref='347' />
    <nd ref='65' />
    <tag k='subtype' v='solid' />
    <tag k='type' v='line_thin' />
  </way>
  <way id='59' visible='true' version='1'>
    <nd ref='53' />
    <nd ref='58' />
    <nd ref='62' />
    <nd ref='64' />
    <nd ref='318' />
    <nd ref='319' />
    <nd ref='320' />
    <nd ref='321' />
    <nd ref='322' />
    <nd ref='323' />
    <nd ref='324' />
    <nd ref='325' />
    <nd ref='326' />
    <nd ref='327' />
    <nd ref='328' />
    <nd ref='329' />
    <nd ref='330' />
    <nd ref='331' />
    <nd ref='332' />
    <nd ref='66' />
    <tag k='subtype' v='solid' />
    <tag k='type' v='line_thin' />
  </way>
  <way id='96' visible='true' version='1'>
    <nd ref='67' />
    <nd ref='68' />
    <nd ref='69' />
    <nd ref='70' />
    <nd ref='71' />
    <nd ref='72' />
    <nd ref='73' />
    <nd ref='74' />
    <nd ref='75' />
    <nd ref='76' />
    <nd ref='77' />
    <nd ref='78' />
    <nd ref='79' />
    <nd ref='80' />
    <nd ref='81' />
    <nd ref='82' />
    <nd ref='83' />
    <nd ref='84' />
    <nd ref='85' />
    <nd ref='86' />
    <nd ref='87' />
    <nd ref='88' />
    <nd ref='89' />
    <nd ref='90' />
    <nd ref='91' />
    <nd ref='92' />
    <nd ref='93' />
    <nd ref='94' />
    <nd ref='95' />
    <tag k='subtype' v='solid' />
    <tag k='type' v='line_thin' />
  </way>
  <way id='108' visible='true' version='1'>
    <nd ref='95' />
    <nd ref='97' />
    <nd ref='98' />
    <nd ref='99' />
    <nd ref='100' />
    <nd ref='101' />
    <nd ref='102' />
    <nd ref='103' />
    <nd ref='104' />
    <nd ref='105' />
    <nd ref='106' />
    <nd ref='107' />
    <tag k='subtype' v='solid' />
    <tag k='type' v='line_thin' />
  </way>
  <way id='119' visible='true' version='1'>
    <nd ref='107' />
    <nd ref='109' />
    <nd ref='110' />
    <nd ref='111' />
    <nd ref='112' />
    <nd ref='113' />
    <nd ref='114' />
    <nd ref='115' />
    <nd ref='116' />
    <nd ref='117' />
    <nd ref='118' />
    <tag k='subtype' v='solid' />
    <tag k='type' v='line_thin' />
  </way>
  <way id='131' visible='true' version='1'>
    <nd ref='118' />
    <nd ref='120' />
    <nd ref='121' />
    <nd ref='122' />
    <nd ref='123' />
    <nd ref='124' />
    <nd ref='125' />
    <nd ref='126' />
    <nd ref='127' />
    <nd ref='128' />
    <nd ref='129' />
    <nd ref='236' />
    <nd ref='237' />
    <nd ref='238' />
    <nd ref='239' />
    <nd ref='240' />
    <nd ref='241' />
    <nd ref='242' />
    <nd ref='243' />
    <nd ref='130' />
    <tag k='subtype' v='solid' />
    <tag k='type' v='line_thin' />
  </way>
  <way id='158' visible='true' version='1'>
    <nd ref='130' />
    <nd ref='132' />
    <nd ref='133' />
    <nd ref='134' />
    <nd ref='135' />
    <nd ref='136' />
    <nd ref='137' />
    <nd ref='138' />
    <nd ref='139' />
    <nd ref='140' />
    <nd ref='141' />
    <nd ref='142' />
    <nd ref='143' />
    <nd ref='144' />
    <nd ref='145' />
    <nd ref='146' />
    <nd ref='147' />
    <nd ref='148' />
    <nd ref='149' />
    <nd ref='150' />
    <nd ref='151' />
    <nd ref='152' />
    <nd ref='153' />
    <nd ref='154' />
    <nd ref='155' />
    <nd ref='156' />
    <nd ref='157' />
    <tag k='subtype' v='solid' />
    <tag k='type' v='line_thin' />
  </way>
  <way id='168' visible='true' version='1'>
    <nd ref='157' />
    <nd ref='159' />
    <nd ref='162' />
    <nd ref='163' />
    <nd ref='165' />
    <nd ref='304' />
    <nd ref='305' />
    <nd ref='306' />
    <nd ref='307' />
    <nd ref='308' />
    <nd ref='309' />
    <nd ref='310' />
    <nd ref='311' />
    <nd ref='312' />
    <nd ref='313' />
    <nd ref='314' />
    <nd ref='315' />
    <nd ref='316' />
    <nd ref='317' />
    <nd ref='167' />
    <tag k='subtype' v='solid' />
    <tag k='type' v='line_thin' />
  </way>
  <way id='183' visible='true' version='1'>
    <nd ref='167' />
    <nd ref='169' />
    <nd ref='170' />
    <nd ref='171' />
    <nd ref='172' />
    <nd ref='173' />
    <nd ref='174' />
    <nd ref='175' />
    <nd ref='176' />
    <nd ref='177' />
    <nd ref='178' />
    <nd ref='179' />
    <nd ref='180' />
    <nd ref='181' />
    <nd ref='182' />
    <tag k='subtype' v='solid' />
    <tag k='type' v='line_thin' />
  </way>
  <way id='190' visible='true' version='1'>
    <nd ref='182' />
    <nd ref='184' />
    <nd ref='186' />
    <nd ref='188' />
    <nd ref='259' />
    <nd ref='260' />
    <nd ref='261' />
    <nd ref='262' />
    <nd ref='263' />
    <nd ref='264' />
    <nd ref='265' />
    <nd ref='266' />
    <nd ref='267' />
    <nd ref='268' />
    <nd ref='269' />
    <nd ref='270' />
    <nd ref='271' />
    <nd ref='272' />
    <nd ref='273' />
    <nd ref='189' />
    <tag k='subtype' v='solid' />
    <tag k='type' v='line_thin' />
  </way>
  <way id='423' visible='true' version='1'>
    <nd ref='421' />
    <nd ref='422' />
    <nd ref='424' />
    <nd ref='425' />
    <nd ref='426' />
    <nd ref='427' />
    <nd ref='428' />
    <nd ref='429' />
    <nd ref='430' />
    <nd ref='431' />
    <nd ref='432' />
    <nd ref='433' />
    <nd ref='434' />
    <nd ref='435' />
    <nd ref='436' />
    <nd ref='437' />
    <nd ref='438' />
    <nd ref='439' />
    <nd ref='440' />
    <nd ref='441' />
    <nd ref='442' />
    <nd ref='443' />
    <nd ref='444' />
    <nd ref='445' />
    <nd ref='446' />
    <nd ref='447' />
    <nd ref='448' />
    <nd ref='421' />
    <tag k='area' v='yes' />
    <tag k='type' v='obstacle' />
  </way>
  <way id='453' visible='true' version='1'>
    <nd ref='388' />
    <nd ref='419' />
    <nd ref='418' />
    <nd ref='417' />
    <nd ref='416' />
    <nd ref='415' />
    <nd ref='414' />
    <nd ref='413' />
    <nd ref='412' />
    <nd ref='411' />
    <nd ref='410' />
    <nd ref='409' />
    <nd ref='408' />
    <nd ref='407' />
    <nd ref='406' />
    <nd ref='405' />
    <nd ref='404' />
    <nd ref='403' />
    <nd ref='402' />
    <nd ref='401' />
    <nd ref='400' />
    <nd ref='399' />
    <nd ref='398' />
    <nd ref='397' />
    <nd ref='396' />
    <nd ref='395' />
    <nd ref='394' />
    <nd ref='393' />
    <nd ref='392' />
    <nd ref='391' />
    <nd ref='389' />
    <tag k='area' v='yes' />
    <tag k='type' v='intersection_area' />

  </way>
  <relation id='7' visible='true' version='1'>
    <member type='way' ref='6' role='left' />
    <member type='way' ref='3' role='right' />
    <member type='way' ref='96' role='centerline' />
    <tag k='location' v='urban' />
    <tag k='one_way' v='yes' />
    <tag k='speed_limit' v='10' />
    <tag k='subtype' v='road' />
    <tag k='type' v='lanelet' />
  </relation>
  <relation id='12' visible='true' version='1'>
    <member type='way' ref='11' role='left' />
    <member type='way' ref='9' role='right' />
    <member type='way' ref='108' role='centerline' />
    <tag k='location' v='urban' />
    <tag k='one_way' v='yes' />
    <tag k='speed_limit' v='10' />
    <tag k='subtype' v='road' />
    <tag k='type' v='lanelet' />
  </relation>
  <relation id='23' visible='true' version='1'>
    <member type='way' ref='22' role='left' />
    <member type='way' ref='20' role='right' />
    <member type='way' ref='119' role='centerline' />
    <tag k='location' v='urban' />
    <tag k='one_way' v='yes' />
    <tag k='speed_limit' v='10' />
    <tag k='subtype' v='road' />
    <tag k='type' v='lanelet' />
  </relation>
  <relation id='28' visible='true' version='1'>
    <member type='way' ref='27' role='left' />
    <member type='way' ref='25' role='right' />
    <member type='way' ref='131' role='centerline' />
    <tag k='location' v='urban' />
    <tag k='one_way' v='yes' />
    <tag k='speed_limit' v='10' />
    <tag k='subtype' v='road' />
    <tag k='type' v='lanelet' />
  </relation>
  <relation id='39' visible='true' version='1'>
    <member type='way' ref='38' role='left' />
    <member type='way' ref='36' role='right' />
    <member type='way' ref='158' role='centerline' />
    <tag k='location' v='urban' />
    <tag k='one_way' v='yes' />
    <tag k='speed_limit' v='10' />
    <tag k='subtype' v='road' />
    <tag k='type' v='lanelet' />
  </relation>
  <relation id='44' visible='true' version='1'>
    <member type='way' ref='43' role='left' />
    <member type='way' ref='41' role='right' />
    <member type='way' ref='168' role='centerline' />
    <tag k='location' v='urban' />
    <tag k='one_way' v='yes' />
    <tag k='speed_limit' v='10' />
    <tag k='subtype' v='road' />
    <tag k='type' v='lanelet' />
  </relation>
  <relation id='55' visible='true' version='1'>
    <member type='way' ref='54' role='left' />
    <member type='way' ref='52' role='right' />
    <member type='way' ref='183' role='centerline' />
    <tag k='location' v='urban' />
    <tag k='one_way' v='yes' />
    <tag k='speed_limit' v='10' />
    <tag k='subtype' v='road' />
    <tag k='type' v='lanelet' />
  </relation>
  <relation id='60' visible='true' version='1'>
    <member type='way' ref='59' role='left' />
    <member type='way' ref='57' role='right' />
    <member type='way' ref='190' role='centerline' />
    <tag k='location' v='urban' />
    <tag k='one_way' v='yes' />
    <tag k='speed_limit' v='10' />
    <tag k='subtype' v='road' />
    <tag k='type' v='lanelet' />
  </relation>
  
</osm>
